<?xml version="1.0" encoding="UTF-8"?>
<gpx xmlns:xsi="http://www.w3.org/2001/XMLSchema-instance"
     xsi:schemaLocation="http://www.topografix.com/GPX/1/1 http://www.topografix.com/GPX/1/1/gpx.xsd"
     version="1.1" creator="json3d_batch_to_gpx"
     xmlns="http://www.topografix.com/GPX/1/1">
  <metadata>
    <name>WongLungHangCountryTrail</name>
  </metadata>
  <trk>
    <name>WongLungHangCountryTrail</name>
    <type>hike</type>
    <trkseg>
      <trkpt lat="22.2601336664" lon="113.9616227464"><ele>694.000</ele></trkpt>
      <trkpt lat="22.2601403623" lon="113.9616054553"><ele>692.000</ele></trkpt>
      <trkpt lat="22.2601398959" lon="113.9615887688"><ele>692.000</ele></trkpt>
      <trkpt lat="22.2601329056" lon="113.9615712823"><ele>691.000</ele></trkpt>
      <trkpt lat="22.2601212119" lon="113.9615542317"><ele>691.000</ele></trkpt>
      <trkpt lat="22.2601118733" lon="113.9615399436"><ele>691.000</ele></trkpt>
      <trkpt lat="22.2600980615" lon="113.9614987242"><ele>688.000</ele></trkpt>
      <trkpt lat="22.2600935745" lon="113.9614737576"><ele>686.000</ele></trkpt>
      <trkpt lat="22.2600917488" lon="113.9614480913"><ele>687.000</ele></trkpt>
      <trkpt lat="22.2600899350" lon="113.9614320501"><ele>686.000</ele></trkpt>
      <trkpt lat="22.2600833413" lon="113.9614147338"><ele>686.000</ele></trkpt>
      <trkpt lat="22.2600797324" lon="113.9613961283"><ele>686.000</ele></trkpt>
      <trkpt lat="22.2600761201" lon="113.9613743154"><ele>684.000</ele></trkpt>
      <trkpt lat="22.2600790666" lon="113.9613441489"><ele>684.000</ele></trkpt>
      <trkpt lat="22.2600826108" lon="113.9613139824"><ele>684.000</ele></trkpt>
      <trkpt lat="22.2600879501" lon="113.9612863793"><ele>682.000</ele></trkpt>
      <trkpt lat="22.2600950853" lon="113.9612619819"><ele>680.000</ele></trkpt>
      <trkpt lat="22.2601069962" lon="113.9612350110"><ele>680.000</ele></trkpt>
      <trkpt lat="22.2601171230" lon="113.9612138184"><ele>680.000</ele></trkpt>
      <trkpt lat="22.2601248594" lon="113.9611919871"><ele>681.000</ele></trkpt>
      <trkpt lat="22.2601320109" lon="113.9611791416"><ele>681.000</ele></trkpt>
      <trkpt lat="22.2601421479" lon="113.9611656493"><ele>678.000</ele></trkpt>
      <trkpt lat="22.2601600469" lon="113.9611502202"><ele>678.000</ele></trkpt>
      <trkpt lat="22.2601755581" lon="113.9611354370"><ele>680.000</ele></trkpt>
      <trkpt lat="22.2601928593" lon="113.9611193666"><ele>676.000</ele></trkpt>
      <trkpt lat="22.2602071775" lon="113.9611052266"><ele>676.000</ele></trkpt>
      <trkpt lat="22.2602161223" lon="113.9610936619"><ele>678.000</ele></trkpt>
      <trkpt lat="22.2602220781" lon="113.9610808182"><ele>678.000</ele></trkpt>
      <trkpt lat="22.2602262414" lon="113.9610673350"><ele>678.000</ele></trkpt>
      <trkpt lat="22.2602286062" lon="113.9610487213"><ele>676.000</ele></trkpt>
      <trkpt lat="22.2602333562" lon="113.9610268946"><ele>676.000</ele></trkpt>
      <trkpt lat="22.2602387023" lon="113.9610044257"><ele>676.000</ele></trkpt>
      <trkpt lat="22.2602452559" lon="113.9609915811"><ele>676.000</ele></trkpt>
      <trkpt lat="22.2602553912" lon="113.9609768052"><ele>676.000</ele></trkpt>
      <trkpt lat="22.2602655307" lon="113.9609652386"><ele>676.000</ele></trkpt>
      <trkpt lat="22.2602738692" lon="113.9609472570"><ele>673.000</ele></trkpt>
      <trkpt lat="22.2602774270" lon="113.9609273580"><ele>673.000</ele></trkpt>
      <trkpt lat="22.2602744167" lon="113.9609093938"><ele>673.000</ele></trkpt>
      <trkpt lat="22.2602678264" lon="113.9608946436"><ele>673.000</ele></trkpt>
      <trkpt lat="22.2602570558" lon="113.9608811842"><ele>673.000</ele></trkpt>
      <trkpt lat="22.2602427044" lon="113.9608696543"><ele>673.000</ele></trkpt>
      <trkpt lat="22.2602193877" lon="113.9608542884"><ele>672.000</ele></trkpt>
      <trkpt lat="22.2602026408" lon="113.9608382711"><ele>672.000</ele></trkpt>
      <trkpt lat="22.2601882774" lon="113.9608177573"><ele>672.000</ele></trkpt>
      <trkpt lat="22.2601780987" lon="113.9607991628"><ele>672.000</ele></trkpt>
      <trkpt lat="22.2601697047" lon="113.9607760728"><ele>672.000</ele></trkpt>
      <trkpt lat="22.2601601092" lon="113.9607472100"><ele>670.000</ele></trkpt>
      <trkpt lat="22.2601523063" lon="113.9607189848"><ele>670.000</ele></trkpt>
      <trkpt lat="22.2601450994" lon="113.9606901184"><ele>670.000</ele></trkpt>
      <trkpt lat="22.2601372947" lon="113.9606606106"><ele>670.000</ele></trkpt>
      <trkpt lat="22.2601282927" lon="113.9606291789"><ele>670.000</ele></trkpt>
      <trkpt lat="22.2601169098" lon="113.9606035273"><ele>669.000</ele></trkpt>
      <trkpt lat="22.2601031382" lon="113.9605791619"><ele>669.000</ele></trkpt>
      <trkpt lat="22.2600911643" lon="113.9605586454"><ele>668.000</ele></trkpt>
      <trkpt lat="22.2600714284" lon="113.9605407070"><ele>668.000</ele></trkpt>
      <trkpt lat="22.2600487060" lon="113.9605234144"><ele>668.000</ele></trkpt>
      <trkpt lat="22.2600283741" lon="113.9605061192"><ele>668.000</ele></trkpt>
      <trkpt lat="22.2600104375" lon="113.9604939535"><ele>668.000</ele></trkpt>
      <trkpt lat="22.2599972808" lon="113.9604824228"><ele>669.000</ele></trkpt>
      <trkpt lat="22.2599853137" lon="113.9604670395"><ele>666.000</ele></trkpt>
      <trkpt lat="22.2599739350" lon="113.9604452376"><ele>666.000</ele></trkpt>
      <trkpt lat="22.2599643506" lon="113.9604247165"><ele>666.000</ele></trkpt>
      <trkpt lat="22.2599523809" lon="113.9604080497"><ele>666.000</ele></trkpt>
      <trkpt lat="22.2599380235" lon="113.9603920289"><ele>666.000</ele></trkpt>
      <trkpt lat="22.2599206830" lon="113.9603785787"><ele>666.000</ele></trkpt>
      <trkpt lat="22.2599033460" lon="113.9603676967"><ele>666.000</ele></trkpt>
      <trkpt lat="22.2598854000" lon="113.9603484720"><ele>666.000</ele></trkpt>
      <trkpt lat="22.2598596716" lon="113.9603164248"><ele>665.000</ele></trkpt>
      <trkpt lat="22.2598399194" lon="113.9602862932"><ele>665.000</ele></trkpt>
      <trkpt lat="22.2598201698" lon="113.9602580875"><ele>666.000</ele></trkpt>
      <trkpt lat="22.2597992254" lon="113.9602298835"><ele>666.000</ele></trkpt>
      <trkpt lat="22.2597908425" lon="113.9602151361"><ele>666.000</ele></trkpt>
      <trkpt lat="22.2597860473" lon="113.9602023090"><ele>666.000</ele></trkpt>
      <trkpt lat="22.2597848372" lon="113.9601907599"><ele>666.000</ele></trkpt>
      <trkpt lat="22.2597860122" lon="113.9601759977"><ele>664.000</ele></trkpt>
      <trkpt lat="22.2597949449" lon="113.9601560904"><ele>664.000</ele></trkpt>
      <trkpt lat="22.2598140181" lon="113.9601246156"><ele>662.000</ele></trkpt>
      <trkpt lat="22.2598259321" lon="113.9601002118"><ele>661.000</ele></trkpt>
      <trkpt lat="22.2598348623" lon="113.9600777374"><ele>659.000</ele></trkpt>
      <trkpt lat="22.2598378222" lon="113.9600571970"><ele>659.000</ele></trkpt>
      <trkpt lat="22.2598401749" lon="113.9600302408"><ele>659.000</ele></trkpt>
      <trkpt lat="22.2598425121" lon="113.9599910914"><ele>659.000</ele></trkpt>
      <trkpt lat="22.2598454609" lon="113.9599622084"><ele>658.000</ele></trkpt>
      <trkpt lat="22.2598525720" lon="113.9599198433"><ele>657.000</ele></trkpt>
      <trkpt lat="22.2598585140" lon="113.9598960899"><ele>657.000</ele></trkpt>
      <trkpt lat="22.2598626720" lon="113.9598787561"><ele>657.000</ele></trkpt>
      <trkpt lat="22.2598650307" lon="113.9598556505"><ele>657.000</ele></trkpt>
      <trkpt lat="22.2598637982" lon="113.9598274153"><ele>657.000</ele></trkpt>
      <trkpt lat="22.2598631558" lon="113.9597940459"><ele>657.000</ele></trkpt>
      <trkpt lat="22.2598666809" lon="113.9597497614"><ele>654.000</ele></trkpt>
      <trkpt lat="22.2598689950" lon="113.9596932846"><ele>654.000</ele></trkpt>
      <trkpt lat="22.2598748983" lon="113.9596412952"><ele>654.000</ele></trkpt>
      <trkpt lat="22.2598742345" lon="113.9595912407"><ele>652.000</ele></trkpt>
      <trkpt lat="22.2598723750" lon="113.9595405468"><ele>652.000</ele></trkpt>
      <trkpt lat="22.2598723424" lon="113.9595161613"><ele>652.000</ele></trkpt>
      <trkpt lat="22.2598782895" lon="113.9594968998"><ele>650.000</ele></trkpt>
      <trkpt lat="22.2598818532" lon="113.9594814927"><ele>650.000</ele></trkpt>
      <trkpt lat="22.2598800297" lon="113.9594577513"><ele>650.000</ele></trkpt>
      <trkpt lat="22.2598764146" lon="113.9594346540"><ele>650.000</ele></trkpt>
      <trkpt lat="22.2598805691" lon="113.9594147540"><ele>650.000</ele></trkpt>
      <trkpt lat="22.2598859167" lon="113.9593935687"><ele>650.000</ele></trkpt>
      <trkpt lat="22.2598948494" lon="113.9593730190"><ele>650.000</ele></trkpt>
      <trkpt lat="22.2599145055" lon="113.9593312757"><ele>648.000</ele></trkpt>
      <trkpt lat="22.2599329841" lon="113.9593017275"><ele>648.000</ele></trkpt>
      <trkpt lat="22.2599407349" lon="113.9592908058"><ele>648.000</ele></trkpt>
      <trkpt lat="22.2599472807" lon="113.9592721857"><ele>648.000</ele></trkpt>
      <trkpt lat="22.2599520296" lon="113.9592503590"><ele>649.000</ele></trkpt>
      <trkpt lat="22.2599603627" lon="113.9592278854"><ele>646.000</ele></trkpt>
      <trkpt lat="22.2599698863" lon="113.9592028429"><ele>648.000</ele></trkpt>
      <trkpt lat="22.2599841828" lon="113.9591733011"><ele>648.000</ele></trkpt>
      <trkpt lat="22.2599913212" lon="113.9591508294"><ele>648.000</ele></trkpt>
      <trkpt lat="22.2599966687" lon="113.9591296440"><ele>648.000</ele></trkpt>
      <trkpt lat="22.2599990299" lon="113.9591084632"><ele>648.000</ele></trkpt>
      <trkpt lat="22.2600001885" lon="113.9590815078"><ele>646.000</ele></trkpt>
      <trkpt lat="22.2600025427" lon="113.9590558351"><ele>646.000</ele></trkpt>
      <trkpt lat="22.2600099434" lon="113.9590309938"><ele>646.000</ele></trkpt>
      <trkpt lat="22.2600217689" lon="113.9589986083"><ele>648.000</ele></trkpt>
      <trkpt lat="22.2600439256" lon="113.9588337062"><ele>648.000</ele></trkpt>
      <trkpt lat="22.2600315918" lon="113.9586602567"><ele>649.000</ele></trkpt>
      <trkpt lat="22.2600551906" lon="113.9585472910"><ele>646.000</ele></trkpt>
      <trkpt lat="22.2601093057" lon="113.9584962725"><ele>643.000</ele></trkpt>
      <trkpt lat="22.2601854820" lon="113.9583977778"><ele>639.000</ele></trkpt>
      <trkpt lat="22.2602625988" lon="113.9582599891"><ele>636.000</ele></trkpt>
      <trkpt lat="22.2603500869" lon="113.9581119972"><ele>632.000</ele></trkpt>
      <trkpt lat="22.2604038128" lon="113.9579732744"><ele>627.000</ele></trkpt>
      <trkpt lat="22.2604148865" lon="113.9579532248"><ele>622.000</ele></trkpt>
      <trkpt lat="22.2605070517" lon="113.9577863532"><ele>612.000</ele></trkpt>
      <trkpt lat="22.2605505773" lon="113.9577178874"><ele>609.000</ele></trkpt>
      <trkpt lat="22.2606241635" lon="113.9576410797"><ele>612.000</ele></trkpt>
      <trkpt lat="22.2607210411" lon="113.9576256484"><ele>604.000</ele></trkpt>
      <trkpt lat="22.2607949716" lon="113.9576032190"><ele>602.000</ele></trkpt>
      <trkpt lat="22.2608285829" lon="113.9575492243"><ele>601.000</ele></trkpt>
      <trkpt lat="22.2608362856" lon="113.9575020611"><ele>601.000</ele></trkpt>
      <trkpt lat="22.2608388402" lon="113.9574545180"><ele>599.000</ele></trkpt>
      <trkpt lat="22.2608407629" lon="113.9574070728"><ele>598.000</ele></trkpt>
      <trkpt lat="22.2608637935" lon="113.9573420829"><ele>594.000</ele></trkpt>
      <trkpt lat="22.2608957149" lon="113.9572739259"><ele>595.000</ele></trkpt>
      <trkpt lat="22.2609227178" lon="113.9572321647"><ele>593.000</ele></trkpt>
      <trkpt lat="22.2609753932" lon="113.9571945858"><ele>592.000</ele></trkpt>
      <trkpt lat="22.2610286006" lon="113.9570737143"><ele>591.000</ele></trkpt>
      <trkpt lat="22.2610257322" lon="113.9569560348"><ele>590.000</ele></trkpt>
      <trkpt lat="22.2610185963" lon="113.9568212868"><ele>587.000</ele></trkpt>
      <trkpt lat="22.2610250342" lon="113.9567739315"><ele>586.000</ele></trkpt>
      <trkpt lat="22.2610342318" lon="113.9567558503"><ele>586.000</ele></trkpt>
      <trkpt lat="22.2610585738" lon="113.9567339073"><ele>582.000</ele></trkpt>
      <trkpt lat="22.2610873535" lon="113.9566759158"><ele>579.000</ele></trkpt>
      <trkpt lat="22.2611197299" lon="113.9566144784"><ele>579.000</ele></trkpt>
      <trkpt lat="22.2611479514" lon="113.9565151839"><ele>574.000</ele></trkpt>
      <trkpt lat="22.2611752008" lon="113.9564316079"><ele>571.000</ele></trkpt>
      <trkpt lat="22.2612122326" lon="113.9563031938"><ele>571.000</ele></trkpt>
      <trkpt lat="22.2612036788" lon="113.9561887248"><ele>567.000</ele></trkpt>
      <trkpt lat="22.2611531720" lon="113.9560701013"><ele>566.000</ele></trkpt>
      <trkpt lat="22.2611598308" lon="113.9560193014"><ele>564.000</ele></trkpt>
      <trkpt lat="22.2612056725" lon="113.9559280316"><ele>560.000</ele></trkpt>
      <trkpt lat="22.2612388568" lon="113.9559256511"><ele>558.000</ele></trkpt>
      <trkpt lat="22.2612617101" lon="113.9558968006"><ele>558.000</ele></trkpt>
      <trkpt lat="22.2613785024" lon="113.9557834930"><ele>555.000</ele></trkpt>
      <trkpt lat="22.2614726265" lon="113.9556360701"><ele>553.000</ele></trkpt>
      <trkpt lat="22.2614820362" lon="113.9556111459"><ele>553.000</ele></trkpt>
      <trkpt lat="22.2615499206" lon="113.9554313351"><ele>549.000</ele></trkpt>
      <trkpt lat="22.2616126787" lon="113.9552623259"><ele>546.000</ele></trkpt>
      <trkpt lat="22.2616230298" lon="113.9551049443"><ele>543.000</ele></trkpt>
      <trkpt lat="22.2616856160" lon="113.9550417832"><ele>538.000</ele></trkpt>
      <trkpt lat="22.2617680107" lon="113.9549824216"><ele>532.000</ele></trkpt>
      <trkpt lat="22.2619180159" lon="113.9548743495"><ele>526.000</ele></trkpt>
      <trkpt lat="22.2619834670" lon="113.9547930410"><ele>524.000</ele></trkpt>
      <trkpt lat="22.2620990766" lon="113.9546739126"><ele>525.000</ele></trkpt>
      <trkpt lat="22.2621013215" lon="113.9546713456"><ele>525.000</ele></trkpt>
      <trkpt lat="22.2622249921" lon="113.9545299307"><ele>522.000</ele></trkpt>
      <trkpt lat="22.2622737271" lon="113.9544688632"><ele>522.000</ele></trkpt>
      <trkpt lat="22.2623226886" lon="113.9543720892"><ele>515.000</ele></trkpt>
      <trkpt lat="22.2623604103" lon="113.9542830237"><ele>510.000</ele></trkpt>
      <trkpt lat="22.2623660389" lon="113.9542765255"><ele>510.000</ele></trkpt>
      <trkpt lat="22.2624890790" lon="113.9541344769"><ele>514.000</ele></trkpt>
      <trkpt lat="22.2626103388" lon="113.9541091287"><ele>515.000</ele></trkpt>
      <trkpt lat="22.2627398343" lon="113.9540737056"><ele>509.000</ele></trkpt>
      <trkpt lat="22.2628179249" lon="113.9540231315"><ele>505.000</ele></trkpt>
      <trkpt lat="22.2628963914" lon="113.9540162159"><ele>501.000</ele></trkpt>
      <trkpt lat="22.2629327005" lon="113.9540272090"><ele>500.000</ele></trkpt>
      <trkpt lat="22.2629884419" lon="113.9540239677"><ele>498.000</ele></trkpt>
      <trkpt lat="22.2630510459" lon="113.9540135262"><ele>496.000</ele></trkpt>
      <trkpt lat="22.2631077904" lon="113.9540173657"><ele>496.000</ele></trkpt>
      <trkpt lat="22.2631585140" lon="113.9540163734"><ele>494.000</ele></trkpt>
      <trkpt lat="22.2631748887" lon="113.9539857551"><ele>496.000</ele></trkpt>
      <trkpt lat="22.2632084966" lon="113.9539229122"><ele>496.000</ele></trkpt>
      <trkpt lat="22.2632450758" lon="113.9538543385"><ele>495.000</ele></trkpt>
      <trkpt lat="22.2632687866" lon="113.9538188400"><ele>495.000</ele></trkpt>
      <trkpt lat="22.2633142924" lon="113.9537797851"><ele>494.000</ele></trkpt>
      <trkpt lat="22.2634129490" lon="113.9537843536"><ele>489.000</ele></trkpt>
      <trkpt lat="22.2635051423" lon="113.9537710807"><ele>487.000</ele></trkpt>
      <trkpt lat="22.2635611201" lon="113.9537623280"><ele>486.000</ele></trkpt>
      <trkpt lat="22.2636239420" lon="113.9537331223"><ele>484.000</ele></trkpt>
      <trkpt lat="22.2636670149" lon="113.9537045590"><ele>484.000</ele></trkpt>
      <trkpt lat="22.2637348739" lon="113.9536804194"><ele>483.000</ele></trkpt>
      <trkpt lat="22.2638061805" lon="113.9536548578"><ele>482.000</ele></trkpt>
      <trkpt lat="22.2638930353" lon="113.9536273990"><ele>480.000</ele></trkpt>
      <trkpt lat="22.2639286473" lon="113.9535976930"><ele>479.000</ele></trkpt>
      <trkpt lat="22.2639596967" lon="113.9535598347"><ele>480.000</ele></trkpt>
      <trkpt lat="22.2639806567" lon="113.9535138233"><ele>480.000</ele></trkpt>
      <trkpt lat="22.2640261174" lon="113.9535076970"><ele>478.000</ele></trkpt>
      <trkpt lat="22.2640722888" lon="113.9535193439"><ele>477.000</ele></trkpt>
      <trkpt lat="22.2641122426" lon="113.9534947730"><ele>475.000</ele></trkpt>
      <trkpt lat="22.2641464652" lon="113.9534923223"><ele>473.000</ele></trkpt>
      <trkpt lat="22.2641849341" lon="113.9535043889"><ele>473.000</ele></trkpt>
      <trkpt lat="22.2642307976" lon="113.9534890838"><ele>472.000</ele></trkpt>
      <trkpt lat="22.2642682573" lon="113.9534633429"><ele>472.000</ele></trkpt>
      <trkpt lat="22.2643039546" lon="113.9534694568"><ele>470.000</ele></trkpt>
      <trkpt lat="22.2643402481" lon="113.9534690499"><ele>469.000</ele></trkpt>
      <trkpt lat="22.2643880606" lon="113.9534592234"><ele>466.000</ele></trkpt>
      <trkpt lat="22.2644168368" lon="113.9534232314"><ele>468.000</ele></trkpt>
      <trkpt lat="22.2644279868" lon="113.9533817565"><ele>467.000</ele></trkpt>
      <trkpt lat="22.2644420318" lon="113.9533441579"><ele>468.000</ele></trkpt>
      <trkpt lat="22.2644667935" lon="113.9533046116"><ele>466.000</ele></trkpt>
      <trkpt lat="22.2644975710" lon="113.9532857600"><ele>466.000</ele></trkpt>
      <trkpt lat="22.2645360067" lon="113.9532736586"><ele>464.000</ele></trkpt>
      <trkpt lat="22.2646045763" lon="113.9532673015"><ele>462.000</ele></trkpt>
      <trkpt lat="22.2646894812" lon="113.9532601132"><ele>458.000</ele></trkpt>
      <trkpt lat="22.2647582056" lon="113.9531955915"><ele>458.000</ele></trkpt>
      <trkpt lat="22.2648147529" lon="113.9531611076"><ele>456.000</ele></trkpt>
      <trkpt lat="22.2648636311" lon="113.9531184957"><ele>456.000</ele></trkpt>
      <trkpt lat="22.2649617844" lon="113.9530330092"><ele>454.000</ele></trkpt>
      <trkpt lat="22.2650522053" lon="113.9529525121"><ele>452.000</ele></trkpt>
      <trkpt lat="22.2651373439" lon="113.9528724502"><ele>452.000</ele></trkpt>
      <trkpt lat="22.2651902854" lon="113.9528361284"><ele>449.000</ele></trkpt>
      <trkpt lat="22.2652399758" lon="113.9527801162"><ele>448.000</ele></trkpt>
      <trkpt lat="22.2652612904" lon="113.9527687501"><ele>448.000</ele></trkpt>
      <trkpt lat="22.2653549202" lon="113.9527101648"><ele>448.000</ele></trkpt>
      <trkpt lat="22.2654569562" lon="113.9526768694"><ele>446.000</ele></trkpt>
      <trkpt lat="22.2655170071" lon="113.9526684687"><ele>444.000</ele></trkpt>
      <trkpt lat="22.2655859650" lon="113.9526882192"><ele>444.000</ele></trkpt>
      <trkpt lat="22.2656948693" lon="113.9527240216"><ele>444.000</ele></trkpt>
      <trkpt lat="22.2657428091" lon="113.9527672365"><ele>444.000</ele></trkpt>
      <trkpt lat="22.2658495163" lon="113.9527683861"><ele>442.000</ele></trkpt>
      <trkpt lat="22.2658926087" lon="113.9527540747"><ele>440.000</ele></trkpt>
      <trkpt lat="22.2659505727" lon="113.9527254190"><ele>437.000</ele></trkpt>
      <trkpt lat="22.2659744938" lon="113.9526919568"><ele>434.000</ele></trkpt>
      <trkpt lat="22.2660045731" lon="113.9526711752"><ele>434.000</ele></trkpt>
      <trkpt lat="22.2660427077" lon="113.9526568910"><ele>432.000</ele></trkpt>
      <trkpt lat="22.2660986086" lon="113.9526252115"><ele>427.000</ele></trkpt>
      <trkpt lat="22.2661559971" lon="113.9526113817"><ele>425.000</ele></trkpt>
      <trkpt lat="22.2662434741" lon="113.9526292982"><ele>421.000</ele></trkpt>
      <trkpt lat="22.2663174669" lon="113.9526263764"><ele>415.000</ele></trkpt>
      <trkpt lat="22.2664189696" lon="113.9526647714"><ele>410.000</ele></trkpt>
      <trkpt lat="22.2664797060" lon="113.9526688079"><ele>408.000</ele></trkpt>
      <trkpt lat="22.2665218370" lon="113.9526973333"><ele>406.000</ele></trkpt>
      <trkpt lat="22.2666042972" lon="113.9527313637"><ele>402.000</ele></trkpt>
      <trkpt lat="22.2666696411" lon="113.9527433293"><ele>400.000</ele></trkpt>
      <trkpt lat="22.2667504924" lon="113.9527500504"><ele>398.000</ele></trkpt>
      <trkpt lat="22.2668923266" lon="113.9527562959"><ele>392.000</ele></trkpt>
      <trkpt lat="22.2669352948" lon="113.9527698204"><ele>390.000</ele></trkpt>
      <trkpt lat="22.2669711021" lon="113.9527705105"><ele>388.000</ele></trkpt>
      <trkpt lat="22.2670028651" lon="113.9527722258"><ele>386.000</ele></trkpt>
      <trkpt lat="22.2670593018" lon="113.9527362277"><ele>384.000</ele></trkpt>
      <trkpt lat="22.2671241306" lon="113.9527479322"><ele>382.000</ele></trkpt>
      <trkpt lat="22.2671894225" lon="113.9527680672"><ele>378.000</ele></trkpt>
      <trkpt lat="22.2672354256" lon="113.9527754648"><ele>376.000</ele></trkpt>
      <trkpt lat="22.2673032608" lon="113.9527539146"><ele>374.000</ele></trkpt>
      <trkpt lat="22.2673496943" lon="113.9527525115"><ele>374.000</ele></trkpt>
      <trkpt lat="22.2674017244" lon="113.9527756463"><ele>374.000</ele></trkpt>
      <trkpt lat="22.2675080060" lon="113.9528480214"><ele>372.000</ele></trkpt>
      <trkpt lat="22.2676321353" lon="113.9529358435"><ele>369.000</ele></trkpt>
      <trkpt lat="22.2676942347" lon="113.9529984607"><ele>367.000</ele></trkpt>
      <trkpt lat="22.2677361403" lon="113.9530338561"><ele>368.000</ele></trkpt>
      <trkpt lat="22.2678186307" lon="113.9531029512"><ele>365.000</ele></trkpt>
      <trkpt lat="22.2678886987" lon="113.9531550773"><ele>364.000</ele></trkpt>
      <trkpt lat="22.2679475415" lon="113.9531940261"><ele>360.000</ele></trkpt>
      <trkpt lat="22.2680091960" lon="113.9532089765"><ele>360.000</ele></trkpt>
      <trkpt lat="22.2680880677" lon="113.9532078518"><ele>359.000</ele></trkpt>
      <trkpt lat="22.2681748946" lon="113.9532127105"><ele>358.000</ele></trkpt>
      <trkpt lat="22.2682546131" lon="113.9532035218"><ele>357.000</ele></trkpt>
      <trkpt lat="22.2682773404" lon="113.9532080847"><ele>356.000</ele></trkpt>
      <trkpt lat="22.2683167337" lon="113.9532159877"><ele>356.000</ele></trkpt>
      <trkpt lat="22.2683682108" lon="113.9532047870"><ele>354.000</ele></trkpt>
      <trkpt lat="22.2683926177" lon="113.9532027495"><ele>352.000</ele></trkpt>
      <trkpt lat="22.2684144974" lon="113.9532016960"><ele>352.000</ele></trkpt>
      <trkpt lat="22.2684408183" lon="113.9531927959"><ele>350.000</ele></trkpt>
      <trkpt lat="22.2684671566" lon="113.9531833233"><ele>350.000</ele></trkpt>
      <trkpt lat="22.2684902250" lon="113.9531732834"><ele>345.000</ele></trkpt>
      <trkpt lat="22.2685133582" lon="113.9531644175"><ele>345.000</ele></trkpt>
      <trkpt lat="22.2685394034" lon="113.9531454176"><ele>342.000</ele></trkpt>
      <trkpt lat="22.2685660534" lon="113.9531262324"><ele>340.000</ele></trkpt>
      <trkpt lat="22.2685900858" lon="113.9531145804"><ele>337.000</ele></trkpt>
      <trkpt lat="22.2686214061" lon="113.9531096115"><ele>332.000</ele></trkpt>
      <trkpt lat="22.2686560165" lon="113.9531002227"><ele>332.000</ele></trkpt>
      <trkpt lat="22.2686732437" lon="113.9530782194"><ele>327.000</ele></trkpt>
      <trkpt lat="22.2687028485" lon="113.9529955087"><ele>325.000</ele></trkpt>
      <trkpt lat="22.2687962271" lon="113.9530134280"><ele>320.000</ele></trkpt>
      <trkpt lat="22.2688506851" lon="113.9530205998"><ele>315.000</ele></trkpt>
      <trkpt lat="22.2688959718" lon="113.9530238761"><ele>312.000</ele></trkpt>
      <trkpt lat="22.2689158181" lon="113.9530210502"><ele>312.000</ele></trkpt>
      <trkpt lat="22.2689371838" lon="113.9530199014"><ele>308.000</ele></trkpt>
      <trkpt lat="22.2689646741" lon="113.9530259993"><ele>308.000</ele></trkpt>
      <trkpt lat="22.2689748485" lon="113.9530237516"><ele>308.000</ele></trkpt>
      <trkpt lat="22.2689941748" lon="113.9530164634"><ele>305.000</ele></trkpt>
      <trkpt lat="22.2690170659" lon="113.9530147582"><ele>305.000</ele></trkpt>
      <trkpt lat="22.2690308029" lon="113.9530085947"><ele>303.000</ele></trkpt>
      <trkpt lat="22.2690475755" lon="113.9529968572"><ele>303.000</ele></trkpt>
      <trkpt lat="22.2690643581" lon="113.9529923674"><ele>303.000</ele></trkpt>
      <trkpt lat="22.2690811460" lon="113.9529845399"><ele>300.000</ele></trkpt>
      <trkpt lat="22.2691152098" lon="113.9529638486"><ele>298.000</ele></trkpt>
      <trkpt lat="22.2691482379" lon="113.9529314375"><ele>298.000</ele></trkpt>
      <trkpt lat="22.2691584085" lon="113.9529264042"><ele>296.000</ele></trkpt>
      <trkpt lat="22.2691792640" lon="113.9529213558"><ele>296.000</ele></trkpt>
      <trkpt lat="22.2692016680" lon="113.9529069110"><ele>296.000</ele></trkpt>
      <trkpt lat="22.2692113247" lon="113.9529018795"><ele>293.000</ele></trkpt>
      <trkpt lat="22.2692332059" lon="113.9529012819"><ele>293.000</ele></trkpt>
      <trkpt lat="22.2692525328" lon="113.9528951192"><ele>290.000</ele></trkpt>
      <trkpt lat="22.2692769362" lon="113.9528761218"><ele>290.000</ele></trkpt>
      <trkpt lat="22.2693043906" lon="113.9528626887"><ele>290.000</ele></trkpt>
      <trkpt lat="22.2693293066" lon="113.9528487056"><ele>290.000</ele></trkpt>
      <trkpt lat="22.2693572680" lon="113.9528296928"><ele>288.000</ele></trkpt>
      <trkpt lat="22.2693938815" lon="113.9528112290"><ele>286.000</ele></trkpt>
      <trkpt lat="22.2694264354" lon="113.9528016978"><ele>286.000</ele></trkpt>
      <trkpt lat="22.2694523835" lon="113.9528033254"><ele>284.000</ele></trkpt>
      <trkpt lat="22.2694763148" lon="113.9528094299"><ele>281.000</ele></trkpt>
      <trkpt lat="22.2694992153" lon="113.9528138566"><ele>281.000</ele></trkpt>
      <trkpt lat="22.2695119326" lon="113.9528082574"><ele>281.000</ele></trkpt>
      <trkpt lat="22.2695282157" lon="113.9528082315"><ele>278.000</ele></trkpt>
      <trkpt lat="22.2695470294" lon="113.9528031756"><ele>278.000</ele></trkpt>
      <trkpt lat="22.2695643144" lon="113.9527897684"><ele>276.000</ele></trkpt>
      <trkpt lat="22.2695874039" lon="113.9527610211"><ele>276.000</ele></trkpt>
      <trkpt lat="22.2695924713" lon="113.9527481853"><ele>276.000</ele></trkpt>
      <trkpt lat="22.2695924475" lon="113.9527308956"><ele>276.000</ele></trkpt>
      <trkpt lat="22.2695975271" lon="113.9527275401"><ele>276.000</ele></trkpt>
      <trkpt lat="22.2696041428" lon="113.9527241822"><ele>276.000</ele></trkpt>
      <trkpt lat="22.2696046316" lon="113.9527119166"><ele>276.000</ele></trkpt>
      <trkpt lat="22.2695959587" lon="113.9526963084"><ele>276.000</ele></trkpt>
      <trkpt lat="22.2695908468" lon="113.9526762315"><ele>274.000</ele></trkpt>
      <trkpt lat="22.2695928602" lon="113.9526628485"><ele>274.000</ele></trkpt>
      <trkpt lat="22.2695999724" lon="113.9526527942"><ele>274.000</ele></trkpt>
      <trkpt lat="22.2696101483" lon="113.9526516622"><ele>272.000</ele></trkpt>
      <trkpt lat="22.2696325492" lon="113.9526605537"><ele>272.000</ele></trkpt>
      <trkpt lat="22.2696401762" lon="113.9526577473"><ele>272.000</ele></trkpt>
      <trkpt lat="22.2696437341" lon="113.9526510566"><ele>272.000</ele></trkpt>
      <trkpt lat="22.2696493116" lon="113.9526348727"><ele>270.000</ele></trkpt>
      <trkpt lat="22.2696604845" lon="113.9526225813"><ele>268.000</ele></trkpt>
      <trkpt lat="22.2696604690" lon="113.9526114225"><ele>268.000</ele></trkpt>
      <trkpt lat="22.2696614710" lon="113.9525980315"><ele>268.000</ele></trkpt>
      <trkpt lat="22.2696680500" lon="113.9525745982"><ele>266.000</ele></trkpt>
      <trkpt lat="22.2696700741" lon="113.9525617673"><ele>266.000</ele></trkpt>
      <trkpt lat="22.2696629296" lon="113.9525483893"><ele>266.000</ele></trkpt>
      <trkpt lat="22.2696588367" lon="113.9525338994"><ele>263.000</ele></trkpt>
      <trkpt lat="22.2696644235" lon="113.9525244014"><ele>263.000</ele></trkpt>
      <trkpt lat="22.2696750930" lon="113.9525137883"><ele>263.000</ele></trkpt>
      <trkpt lat="22.2696964523" lon="113.9525014806"><ele>263.000</ele></trkpt>
      <trkpt lat="22.2697096753" lon="113.9524958903"><ele>258.000</ele></trkpt>
      <trkpt lat="22.2697279864" lon="113.9524930668"><ele>258.000</ele></trkpt>
      <trkpt lat="22.2697340819" lon="113.9524858094"><ele>258.000</ele></trkpt>
      <trkpt lat="22.2697457610" lon="113.9524673841"><ele>257.000</ele></trkpt>
      <trkpt lat="22.2697579597" lon="113.9524590012"><ele>257.000</ele></trkpt>
      <trkpt lat="22.2697635379" lon="113.9524439233"><ele>255.000</ele></trkpt>
      <trkpt lat="22.2697721754" lon="113.9524333144"><ele>255.000</ele></trkpt>
      <trkpt lat="22.2697864150" lon="113.9524249282"><ele>255.000</ele></trkpt>
      <trkpt lat="22.2698021718" lon="113.9524165395"><ele>252.000</ele></trkpt>
      <trkpt lat="22.2698184371" lon="113.9524036762"><ele>252.000</ele></trkpt>
      <trkpt lat="22.2698301362" lon="113.9523997571"><ele>250.000</ele></trkpt>
      <trkpt lat="22.2698490122" lon="113.9524006012"><ele>249.000</ele></trkpt>
      <trkpt lat="22.2698551147" lon="113.9523983599"><ele>249.000</ele></trkpt>
      <trkpt lat="22.2698556102" lon="113.9523844157"><ele>249.000</ele></trkpt>
      <trkpt lat="22.2698621968" lon="113.9523665516"><ele>249.000</ele></trkpt>
      <trkpt lat="22.2698759147" lon="113.9523531500"><ele>249.000</ele></trkpt>
      <trkpt lat="22.2698993044" lon="113.9523397232"><ele>244.000</ele></trkpt>
      <trkpt lat="22.2699191284" lon="113.9523201692"><ele>244.000</ele></trkpt>
      <trkpt lat="22.2699353592" lon="113.9522816525"><ele>240.000</ele></trkpt>
      <trkpt lat="22.2699480605" lon="113.9522710362"><ele>240.000</ele></trkpt>
      <trkpt lat="22.2699801193" lon="113.9522698702"><ele>238.000</ele></trkpt>
      <trkpt lat="22.2699826497" lon="113.9522581543"><ele>238.000</ele></trkpt>
      <trkpt lat="22.2699851650" lon="113.9522419762"><ele>235.000</ele></trkpt>
      <trkpt lat="22.2699851589" lon="113.9522369590"><ele>235.000</ele></trkpt>
      <trkpt lat="22.2699953433" lon="113.9522419599"><ele>235.000</ele></trkpt>
      <trkpt lat="22.2699999195" lon="113.9522402741"><ele>235.000</ele></trkpt>
      <trkpt lat="22.2700024585" lon="113.9522341371"><ele>235.000</ele></trkpt>
      <trkpt lat="22.2700019390" lon="113.9522240958"><ele>235.000</ele></trkpt>
      <trkpt lat="22.2699973296" lon="113.9522017962"><ele>232.000</ele></trkpt>
      <trkpt lat="22.2699896558" lon="113.9521772698"><ele>232.000</ele></trkpt>
      <trkpt lat="22.2699901620" lon="113.9521711273"><ele>232.000</ele></trkpt>
      <trkpt lat="22.2699972834" lon="113.9521677686"><ele>232.000</ele></trkpt>
      <trkpt lat="22.2700125467" lon="113.9521688600"><ele>232.000</ele></trkpt>
      <trkpt lat="22.2700262885" lon="113.9521727482"><ele>231.000</ele></trkpt>
      <trkpt lat="22.2700329042" lon="113.9521693902"><ele>231.000</ele></trkpt>
      <trkpt lat="22.2700328972" lon="113.9521643643"><ele>231.000</ele></trkpt>
      <trkpt lat="22.2700252409" lon="113.9521459699"><ele>229.000</ele></trkpt>
      <trkpt lat="22.2700185930" lon="113.9521253424"><ele>229.000</ele></trkpt>
      <trkpt lat="22.2700262037" lon="113.9521108337"><ele>229.000</ele></trkpt>
      <trkpt lat="22.2700419634" lon="113.9520974191"><ele>226.000</ele></trkpt>
      <trkpt lat="22.2700694328" lon="113.9520890116"><ele>224.000</ele></trkpt>
      <trkpt lat="22.2700857058" lon="113.9520817379"><ele>224.000</ele></trkpt>
      <trkpt lat="22.2700989135" lon="113.9520644162"><ele>224.000</ele></trkpt>
      <trkpt lat="22.2700999149" lon="113.9520571669"><ele>220.000</ele></trkpt>
      <trkpt lat="22.2700973536" lon="113.9520465758"><ele>220.000</ele></trkpt>
      <trkpt lat="22.2700845848" lon="113.9520280052"><ele>220.000</ele></trkpt>
      <trkpt lat="22.2700692822" lon="113.9519984739"><ele>218.000</ele></trkpt>
      <trkpt lat="22.2700697679" lon="113.9519839669"><ele>218.000</ele></trkpt>
      <trkpt lat="22.2700794181" lon="113.9519677774"><ele>218.000</ele></trkpt>
      <trkpt lat="22.2700961815" lon="113.9519487812"><ele>215.000</ele></trkpt>
      <trkpt lat="22.2700931076" lon="113.9519331748"><ele>215.000</ele></trkpt>
      <trkpt lat="22.2700788201" lon="113.9519069795"><ele>212.000</ele></trkpt>
      <trkpt lat="22.2700660942" lon="113.9518991894"><ele>212.000</ele></trkpt>
      <trkpt lat="22.2700406518" lon="113.9518981133"><ele>212.000</ele></trkpt>
      <trkpt lat="22.2700309707" lon="113.9518914340"><ele>212.000</ele></trkpt>
      <trkpt lat="22.2700268786" lon="113.9518774971"><ele>212.000</ele></trkpt>
      <trkpt lat="22.2700299117" lon="113.9518635497"><ele>209.000</ele></trkpt>
      <trkpt lat="22.2700395727" lon="113.9518551698"><ele>209.000</ele></trkpt>
      <trkpt lat="22.2700670314" lon="113.9518383890"><ele>208.000</ele></trkpt>
      <trkpt lat="22.2700725457" lon="113.9517831613"><ele>204.000</ele></trkpt>
      <trkpt lat="22.2700857548" lon="113.9517675279"><ele>201.000</ele></trkpt>
      <trkpt lat="22.2701142194" lon="113.9517395867"><ele>201.000</ele></trkpt>
      <trkpt lat="22.2701360676" lon="113.9517217088"><ele>197.000</ele></trkpt>
      <trkpt lat="22.2701726888" lon="113.9517082607"><ele>196.000</ele></trkpt>
      <trkpt lat="22.2702128571" lon="113.9516875582"><ele>194.000</ele></trkpt>
      <trkpt lat="22.2702434711" lon="113.9516798937"><ele>192.000</ele></trkpt>
      <trkpt lat="22.2702460070" lon="113.9516715154"><ele>190.000</ele></trkpt>
      <trkpt lat="22.2702454843" lon="113.9516592523"><ele>190.000</ele></trkpt>
      <trkpt lat="22.2702464717" lon="113.9516419598"><ele>190.000</ele></trkpt>
      <trkpt lat="22.2702510354" lon="113.9516240989"><ele>188.000</ele></trkpt>
      <trkpt lat="22.2702464308" lon="113.9516118326"><ele>188.000</ele></trkpt>
      <trkpt lat="22.2702377507" lon="113.9515845223"><ele>190.000</ele></trkpt>
      <trkpt lat="22.2702407852" lon="113.9515716810"><ele>185.000</ele></trkpt>
      <trkpt lat="22.2702529769" lon="113.9515582807"><ele>185.000</ele></trkpt>
      <trkpt lat="22.2702712825" lon="113.9515515567"><ele>185.000</ele></trkpt>
      <trkpt lat="22.2702952048" lon="113.9515504036"><ele>184.000</ele></trkpt>
      <trkpt lat="22.2703633947" lon="113.9515541958"><ele>182.000</ele></trkpt>
      <trkpt lat="22.2705099459" lon="113.9515567574"><ele>177.000</ele></trkpt>
      <trkpt lat="22.2705226563" lon="113.9515533897"><ele>174.000</ele></trkpt>
      <trkpt lat="22.2705460483" lon="113.9515410775"><ele>174.000</ele></trkpt>
      <trkpt lat="22.2705719885" lon="113.9515298781"><ele>172.000</ele></trkpt>
      <trkpt lat="22.2706000935" lon="113.9515233518"><ele>170.000</ele></trkpt>
      <trkpt lat="22.2706224665" lon="113.9515127208"><ele>168.000</ele></trkpt>
      <trkpt lat="22.2706422815" lon="113.9514931675"><ele>168.000</ele></trkpt>
      <trkpt lat="22.2706509066" lon="113.9514736312"><ele>165.000</ele></trkpt>
      <trkpt lat="22.2706513981" lon="113.9514568926"><ele>165.000</ele></trkpt>
      <trkpt lat="22.2706569402" lon="113.9514217498"><ele>163.000</ele></trkpt>
      <trkpt lat="22.2706686168" lon="113.9514016458"><ele>163.000</ele></trkpt>
      <trkpt lat="22.2706991185" lon="113.9513781740"><ele>158.000</ele></trkpt>
      <trkpt lat="22.2707647123" lon="113.9513457206"><ele>155.000</ele></trkpt>
      <trkpt lat="22.2708074157" lon="113.9513160875"><ele>152.000</ele></trkpt>
      <trkpt lat="22.2708348635" lon="113.9512915048"><ele>149.000</ele></trkpt>
      <trkpt lat="22.2708536815" lon="113.9512831013"><ele>149.000</ele></trkpt>
      <trkpt lat="22.2708857197" lon="113.9512735706"><ele>146.000</ele></trkpt>
      <trkpt lat="22.2709025074" lon="113.9512662958"><ele>146.000</ele></trkpt>
      <trkpt lat="22.2709209078" lon="113.9512491025"><ele>143.000</ele></trkpt>
      <trkpt lat="22.2709646130" lon="113.9512060772"><ele>140.000</ele></trkpt>
      <trkpt lat="22.2709869853" lon="113.9511943303"><ele>140.000</ele></trkpt>
      <trkpt lat="22.2710495538" lon="113.9511819572"><ele>138.000</ele></trkpt>
      <trkpt lat="22.2711192435" lon="113.9511667870"><ele>134.000</ele></trkpt>
      <trkpt lat="22.2711772342" lon="113.9511549830"><ele>131.000</ele></trkpt>
      <trkpt lat="22.2711940157" lon="113.9511432451"><ele>128.000</ele></trkpt>
      <trkpt lat="22.2712123036" lon="113.9511231304"><ele>128.000</ele></trkpt>
      <trkpt lat="22.2712565437" lon="113.9510484533"><ele>125.000</ele></trkpt>
      <trkpt lat="22.2712773887" lon="113.9510300141"><ele>120.000</ele></trkpt>
      <trkpt lat="22.2712931531" lon="113.9510271944"><ele>120.000</ele></trkpt>
      <trkpt lat="22.2713140301" lon="113.9510383199"><ele>120.000</ele></trkpt>
      <trkpt lat="22.2713450948" lon="113.9510561238"><ele>120.000</ele></trkpt>
      <trkpt lat="22.2713588441" lon="113.9510588863"><ele>120.000</ele></trkpt>
      <trkpt lat="22.2713888627" lon="113.9510588391"><ele>118.000</ele></trkpt>
      <trkpt lat="22.2714321051" lon="113.9510531908"><ele>115.000</ele></trkpt>
      <trkpt lat="22.2714580545" lon="113.9510486859"><ele>111.000</ele></trkpt>
      <trkpt lat="22.2714697420" lon="113.9510364031"><ele>110.000</ele></trkpt>
      <trkpt lat="22.2714829741" lon="113.9510380507"><ele>110.000</ele></trkpt>
      <trkpt lat="22.2715033318" lon="113.9510458296"><ele>108.000</ele></trkpt>
      <trkpt lat="22.2715288004" lon="113.9510591793"><ele>108.000</ele></trkpt>
      <trkpt lat="22.2715435510" lon="113.9510546924"><ele>108.000</ele></trkpt>
      <trkpt lat="22.2715638722" lon="113.9510362530"><ele>104.000</ele></trkpt>
      <trkpt lat="22.2715859433" lon="113.9510143537"><ele>104.000</ele></trkpt>
      <trkpt lat="22.2715994154" lon="113.9510067446"><ele>102.000</ele></trkpt>
      <trkpt lat="22.2716176155" lon="113.9510027762"><ele>102.000</ele></trkpt>
      <trkpt lat="22.2716382714" lon="113.9510048679"><ele>100.000</ele></trkpt>
      <trkpt lat="22.2716603562" lon="113.9510084418"><ele>100.000</ele></trkpt>
      <trkpt lat="22.2716824687" lon="113.9510124426"><ele>100.000</ele></trkpt>
      <trkpt lat="22.2717015850" lon="113.9510179036"><ele>98.000</ele></trkpt>
      <trkpt lat="22.2717208102" lon="113.9510172421"><ele>98.000</ele></trkpt>
      <trkpt lat="22.2717351936" lon="113.9510155696"><ele>95.000</ele></trkpt>
      <trkpt lat="22.2717535710" lon="113.9510091751"><ele>95.000</ele></trkpt>
      <trkpt lat="22.2717669219" lon="113.9510053406"><ele>95.000</ele></trkpt>
      <trkpt lat="22.2717822454" lon="113.9510107883"><ele>94.000</ele></trkpt>
      <trkpt lat="22.2717982424" lon="113.9510134890"><ele>94.000</ele></trkpt>
      <trkpt lat="22.2718132894" lon="113.9510150173"><ele>94.000</ele></trkpt>
      <trkpt lat="22.2718301768" lon="113.9510086544"><ele>92.000</ele></trkpt>
      <trkpt lat="22.2718431276" lon="113.9509962822"><ele>92.000</ele></trkpt>
      <trkpt lat="22.2718547149" lon="113.9509905681"><ele>91.000</ele></trkpt>
      <trkpt lat="22.2718687828" lon="113.9509957461"><ele>92.000</ele></trkpt>
      <trkpt lat="22.2718890758" lon="113.9509966644"><ele>92.000</ele></trkpt>
      <trkpt lat="22.2719094111" lon="113.9509838010"><ele>89.000</ele></trkpt>
      <trkpt lat="22.2719141359" lon="113.9509812349"><ele>89.000</ele></trkpt>
      <trkpt lat="22.2719495786" lon="113.9509619832"><ele>89.000</ele></trkpt>
      <trkpt lat="22.2719734863" lon="113.9509574816"><ele>86.000</ele></trkpt>
      <trkpt lat="22.2720238333" lon="113.9509481212"><ele>86.000</ele></trkpt>
    </trkseg>
  </trk>
</gpx>
