<?xml version="1.0" encoding="UTF-8"?>
<gpx xmlns:xsi="http://www.w3.org/2001/XMLSchema-instance"
     xsi:schemaLocation="http://www.topografix.com/GPX/1/1 http://www.topografix.com/GPX/1/1/gpx.xsd"
     version="1.1" creator="json3d_batch_to_gpx"
     xmlns="http://www.topografix.com/GPX/1/1">
  <metadata>
    <name>KapLungAncientTrailCountryTrail</name>
  </metadata>
  <trk>
    <name>KapLungAncientTrailCountryTrail</name>
    <type>hike</type>
    <trkseg>
      <trkpt lat="22.4110032876" lon="114.1044306854"><ele>426.000</ele></trkpt>
      <trkpt lat="22.4110045474" lon="114.1044247807"><ele>426.000</ele></trkpt>
      <trkpt lat="22.4110049775" lon="114.1044171271"><ele>426.000</ele></trkpt>
      <trkpt lat="22.4110061030" lon="114.1044097161"><ele>426.000</ele></trkpt>
      <trkpt lat="22.4110086012" lon="114.1044025471"><ele>426.000</ele></trkpt>
      <trkpt lat="22.4110126983" lon="114.1043963485"><ele>426.000</ele></trkpt>
      <trkpt lat="22.4110179608" lon="114.1043913925"><ele>426.000</ele></trkpt>
      <trkpt lat="22.4110236753" lon="114.1043874172"><ele>426.000</ele></trkpt>
      <trkpt lat="22.4110369565" lon="114.1043814372"><ele>424.000</ele></trkpt>
      <trkpt lat="22.4110509334" lon="114.1043764378"><ele>424.000</ele></trkpt>
      <trkpt lat="22.4110637539" lon="114.1043702056"><ele>424.000</ele></trkpt>
      <trkpt lat="22.4110694682" lon="114.1043657447"><ele>424.000</ele></trkpt>
      <trkpt lat="22.4110738001" lon="114.1043595460"><ele>424.000</ele></trkpt>
      <trkpt lat="22.4110774454" lon="114.1043528717"><ele>422.000</ele></trkpt>
      <trkpt lat="22.4110797180" lon="114.1043459457"><ele>422.000</ele></trkpt>
      <trkpt lat="22.4110812849" lon="114.1043360674"><ele>422.000</ele></trkpt>
      <trkpt lat="22.4110853600" lon="114.1043212346"><ele>422.000</ele></trkpt>
      <trkpt lat="22.4110885232" lon="114.1043066548"><ele>421.000</ele></trkpt>
      <trkpt lat="22.4110909909" lon="114.1042918325"><ele>421.000</ele></trkpt>
      <trkpt lat="22.4110994579" lon="114.1042236476"><ele>420.000</ele></trkpt>
      <trkpt lat="22.4111003271" lon="114.1042085833"><ele>418.000</ele></trkpt>
      <trkpt lat="22.4111040849" lon="114.1041708004"><ele>416.000</ele></trkpt>
      <trkpt lat="22.4111056100" lon="114.1041483253"><ele>416.000</ele></trkpt>
      <trkpt lat="22.4111069610" lon="114.1041404188"><ele>416.000</ele></trkpt>
      <trkpt lat="22.4111135035" lon="114.1041102684"><ele>414.000</ele></trkpt>
      <trkpt lat="22.4111160018" lon="114.1041030994"><ele>414.000</ele></trkpt>
      <trkpt lat="22.4111191864" lon="114.1040961728"><ele>414.000</ele></trkpt>
      <trkpt lat="22.4111260266" lon="114.1040852818"><ele>411.000</ele></trkpt>
      <trkpt lat="22.4111312802" lon="114.1040805685"><ele>411.000</ele></trkpt>
      <trkpt lat="22.4111372296" lon="114.1040768359"><ele>411.000</ele></trkpt>
      <trkpt lat="22.4111500499" lon="114.1040701180"><ele>413.000</ele></trkpt>
      <trkpt lat="22.4111898935" lon="114.1040524111"><ele>410.000</ele></trkpt>
      <trkpt lat="22.4111969903" lon="114.1040499114"><ele>410.000</ele></trkpt>
      <trkpt lat="22.4112247107" lon="114.1040428846"><ele>407.000</ele></trkpt>
      <trkpt lat="22.4112393840" lon="114.1040400992"><ele>407.000</ele></trkpt>
      <trkpt lat="22.4112609294" lon="114.1040370481"><ele>404.000</ele></trkpt>
      <trkpt lat="22.4112957566" lon="114.1040294931"><ele>404.000</ele></trkpt>
      <trkpt lat="22.4113056174" lon="114.1040284585"><ele>404.000</ele></trkpt>
      <trkpt lat="22.4113193704" lon="114.1040274121"><ele>404.000</ele></trkpt>
      <trkpt lat="22.4113335831" lon="114.1040246367"><ele>408.000</ele></trkpt>
      <trkpt lat="22.4113785276" lon="114.1040241956"><ele>407.000</ele></trkpt>
      <trkpt lat="22.4114007796" lon="114.1040260779"><ele>406.000</ele></trkpt>
      <trkpt lat="22.4114216495" lon="114.1040269703"><ele>404.000</ele></trkpt>
      <trkpt lat="22.4114413917" lon="114.1040305925"><ele>404.000</ele></trkpt>
      <trkpt lat="22.4114702901" lon="114.1040324422"><ele>404.000</ele></trkpt>
      <trkpt lat="22.4114991875" lon="114.1040320677"><ele>404.000</ele></trkpt>
      <trkpt lat="22.4115067552" lon="114.1040322775"><ele>404.000</ele></trkpt>
      <trkpt lat="22.4115212046" lon="114.1040336977"><ele>404.000</ele></trkpt>
      <trkpt lat="22.4115427602" lon="114.1040333562"><ele>404.000</ele></trkpt>
      <trkpt lat="22.4115576698" lon="114.1040340380"><ele>404.000</ele></trkpt>
      <trkpt lat="22.4115698246" lon="114.1040334878"><ele>404.000</ele></trkpt>
      <trkpt lat="22.4115771667" lon="114.1040342027"><ele>402.000</ele></trkpt>
      <trkpt lat="22.4116418234" lon="114.1040307114"><ele>402.000</ele></trkpt>
      <trkpt lat="22.4116697988" lon="114.1040283659"><ele>400.000</ele></trkpt>
      <trkpt lat="22.4116837872" lon="114.1040287956"><ele>400.000</ele></trkpt>
      <trkpt lat="22.4117051077" lon="114.1040277161"><ele>400.000</ele></trkpt>
      <trkpt lat="22.4117424834" lon="114.1040243459"><ele>397.000</ele></trkpt>
      <trkpt lat="22.4117713712" lon="114.1040227380"><ele>396.000</ele></trkpt>
      <trkpt lat="22.4118046211" lon="114.1040218563"><ele>393.000</ele></trkpt>
      <trkpt lat="22.4118259410" lon="114.1040195434"><ele>393.000</ele></trkpt>
      <trkpt lat="22.4118413015" lon="114.1040187389"><ele>393.000</ele></trkpt>
      <trkpt lat="22.4118706598" lon="114.1040191024"><ele>391.000</ele></trkpt>
      <trkpt lat="22.4119341794" lon="114.1040173502"><ele>388.000</ele></trkpt>
      <trkpt lat="22.4119635287" lon="114.1040177137"><ele>388.000</ele></trkpt>
      <trkpt lat="22.4120133159" lon="114.1040224371"><ele>387.000</ele></trkpt>
      <trkpt lat="22.4120422044" lon="114.1040225580"><ele>386.000</ele></trkpt>
      <trkpt lat="22.4120495460" lon="114.1040220297"><ele>386.000</ele></trkpt>
      <trkpt lat="22.4120668672" lon="114.1040236815"><ele>386.000</ele></trkpt>
      <trkpt lat="22.4121138257" lon="114.1040236571"><ele>384.000</ele></trkpt>
      <trkpt lat="22.4121219536" lon="114.1040246241"><ele>383.000</ele></trkpt>
      <trkpt lat="22.4121526572" lon="114.1040246081"><ele>383.000</ele></trkpt>
      <trkpt lat="22.4121616882" lon="114.1040255746"><ele>382.000</ele></trkpt>
      <trkpt lat="22.4121689125" lon="114.1040255708"><ele>382.000</ele></trkpt>
      <trkpt lat="22.4121960053" lon="114.1040284704"><ele>384.000</ele></trkpt>
      <trkpt lat="22.4122122615" lon="114.1040313757"><ele>382.000</ele></trkpt>
      <trkpt lat="22.4122357421" lon="114.1040342772"><ele>382.000</ele></trkpt>
      <trkpt lat="22.4122429664" lon="114.1040342734"><ele>382.000</ele></trkpt>
      <trkpt lat="22.4122510948" lon="114.1040362116"><ele>380.000</ele></trkpt>
      <trkpt lat="22.4122845093" lon="114.1040400792"><ele>380.000</ele></trkpt>
      <trkpt lat="22.4122935398" lon="114.1040400745"><ele>380.000</ele></trkpt>
      <trkpt lat="22.4123251482" lon="114.1040439430"><ele>380.000</ele></trkpt>
      <trkpt lat="22.4123323726" lon="114.1040439392"><ele>380.000</ele></trkpt>
      <trkpt lat="22.4123468223" lon="114.1040458742"><ele>378.000</ele></trkpt>
      <trkpt lat="22.4123621741" lon="114.1040458662"><ele>378.000</ele></trkpt>
      <trkpt lat="22.4123766237" lon="114.1040478011"><ele>378.000</ele></trkpt>
      <trkpt lat="22.4123856542" lon="114.1040477964"><ele>376.000</ele></trkpt>
      <trkpt lat="22.4123946851" lon="114.1040487630"><ele>376.000</ele></trkpt>
      <trkpt lat="22.4124037156" lon="114.1040487583"><ele>376.000</ele></trkpt>
      <trkpt lat="22.4124127465" lon="114.1040497248"><ele>376.000</ele></trkpt>
      <trkpt lat="22.4124199709" lon="114.1040497210"><ele>376.000</ele></trkpt>
      <trkpt lat="22.4124353236" lon="114.1040516555"><ele>376.000</ele></trkpt>
      <trkpt lat="22.4124425489" lon="114.1040535942"><ele>376.000</ele></trkpt>
      <trkpt lat="22.4124588046" lon="114.1040555282"><ele>376.000</ele></trkpt>
      <trkpt lat="22.4124804804" lon="114.1040613444"><ele>374.000</ele></trkpt>
      <trkpt lat="22.4124868031" lon="114.1040642548"><ele>374.000</ele></trkpt>
      <trkpt lat="22.4125093823" lon="114.1040710418"><ele>374.000</ele></trkpt>
      <trkpt lat="22.4125762127" lon="114.1040816906"><ele>372.000</ele></trkpt>
      <trkpt lat="22.4125843401" lon="114.1040816864"><ele>372.000</ele></trkpt>
      <trkpt lat="22.4125996928" lon="114.1040836209"><ele>372.000</ele></trkpt>
      <trkpt lat="22.4126069172" lon="114.1040836171"><ele>372.000</ele></trkpt>
      <trkpt lat="22.4126159482" lon="114.1040845837"><ele>370.000</ele></trkpt>
      <trkpt lat="22.4126782585" lon="114.1040845512"><ele>368.000</ele></trkpt>
      <trkpt lat="22.4127270218" lon="114.1040816121"><ele>366.000</ele></trkpt>
      <trkpt lat="22.4127847511" lon="114.1040759974"><ele>364.000</ele></trkpt>
      <trkpt lat="22.4128281571" lon="114.1040679620"><ele>362.000</ele></trkpt>
      <trkpt lat="22.4128504586" lon="114.1040595200"><ele>360.000</ele></trkpt>
      <trkpt lat="22.4128849482" lon="114.1040443798"><ele>358.000</ele></trkpt>
      <trkpt lat="22.4128992043" lon="114.1040375348"><ele>358.000</ele></trkpt>
      <trkpt lat="22.4129061108" lon="114.1040336171"><ele>358.000</ele></trkpt>
      <trkpt lat="22.4129681007" lon="114.1040037870"><ele>355.000</ele></trkpt>
      <trkpt lat="22.4129825460" lon="114.1039960095"><ele>353.000</ele></trkpt>
      <trkpt lat="22.4130087269" lon="114.1039794846"><ele>353.000</ele></trkpt>
      <trkpt lat="22.4130285900" lon="114.1039707331"><ele>350.000</ele></trkpt>
      <trkpt lat="22.4130475488" lon="114.1039590682"><ele>350.000</ele></trkpt>
      <trkpt lat="22.4130538688" lon="114.1039561512"><ele>350.000</ele></trkpt>
      <trkpt lat="22.4130592849" lon="114.1039512922"><ele>350.000</ele></trkpt>
      <trkpt lat="22.4130719241" lon="114.1039435156"><ele>348.000</ele></trkpt>
      <trkpt lat="22.4130782441" lon="114.1039405986"><ele>348.000</ele></trkpt>
      <trkpt lat="22.4130854685" lon="114.1039405948"><ele>348.000</ele></trkpt>
      <trkpt lat="22.4131116622" lon="114.1039522361"><ele>346.000</ele></trkpt>
      <trkpt lat="22.4131179852" lon="114.1039561178"><ele>346.000</ele></trkpt>
      <trkpt lat="22.4131252109" lon="114.1039590277"><ele>346.000</ele></trkpt>
      <trkpt lat="22.4131432758" lon="114.1039677595"><ele>346.000</ele></trkpt>
      <trkpt lat="22.4131577264" lon="114.1039716370"><ele>346.000</ele></trkpt>
      <trkpt lat="22.4131956623" lon="114.1039890996"><ele>348.000</ele></trkpt>
      <trkpt lat="22.4132245651" lon="114.1040007395"><ele>347.000</ele></trkpt>
      <trkpt lat="22.4132634040" lon="114.1040182017"><ele>346.000</ele></trkpt>
      <trkpt lat="22.4132706293" lon="114.1040201404"><ele>346.000</ele></trkpt>
      <trkpt lat="22.4132769519" lon="114.1040230509"><ele>346.000</ele></trkpt>
      <trkpt lat="22.4132914025" lon="114.1040269283"><ele>346.000</ele></trkpt>
      <trkpt lat="22.4132986282" lon="114.1040298383"><ele>346.000</ele></trkpt>
      <trkpt lat="22.4133130787" lon="114.1040337158"><ele>346.000</ele></trkpt>
      <trkpt lat="22.4133194013" lon="114.1040366262"><ele>346.000</ele></trkpt>
      <trkpt lat="22.4133266266" lon="114.1040385650"><ele>346.000</ele></trkpt>
      <trkpt lat="22.4133338523" lon="114.1040414749"><ele>346.000</ele></trkpt>
      <trkpt lat="22.4133943635" lon="114.1040569834"><ele>346.000</ele></trkpt>
      <trkpt lat="22.4134160384" lon="114.1040608571"><ele>346.000</ele></trkpt>
      <trkpt lat="22.4134377142" lon="114.1040666733"><ele>344.000</ele></trkpt>
      <trkpt lat="22.4134449390" lon="114.1040676408"><ele>344.000</ele></trkpt>
      <trkpt lat="22.4134521643" lon="114.1040695795"><ele>344.000</ele></trkpt>
      <trkpt lat="22.4134720353" lon="114.1040783104"><ele>344.000</ele></trkpt>
      <trkpt lat="22.4134792606" lon="114.1040802491"><ele>344.000</ele></trkpt>
      <trkpt lat="22.4135000346" lon="114.1040889795"><ele>344.000</ele></trkpt>
      <trkpt lat="22.4135072599" lon="114.1040909183"><ele>344.000</ele></trkpt>
      <trkpt lat="22.4135135825" lon="114.1040938287"><ele>344.000</ele></trkpt>
      <trkpt lat="22.4135208078" lon="114.1040957675"><ele>344.000</ele></trkpt>
      <trkpt lat="22.4135280335" lon="114.1040986774"><ele>344.000</ele></trkpt>
      <trkpt lat="22.4135352583" lon="114.1040996449"><ele>344.000</ele></trkpt>
      <trkpt lat="22.4135497088" lon="114.1041035224"><ele>344.000</ele></trkpt>
      <trkpt lat="22.4135569336" lon="114.1041044899"><ele>344.000</ele></trkpt>
      <trkpt lat="22.4135641589" lon="114.1041064286"><ele>343.000</ele></trkpt>
      <trkpt lat="22.4135722876" lon="114.1041093381"><ele>343.000</ele></trkpt>
      <trkpt lat="22.4135948665" lon="114.1041151539"><ele>343.000</ele></trkpt>
      <trkpt lat="22.4136020913" lon="114.1041161214"><ele>343.000</ele></trkpt>
      <trkpt lat="22.4136102196" lon="114.1041180596"><ele>342.000</ele></trkpt>
      <trkpt lat="22.4136553746" lon="114.1041238636"><ele>342.000</ele></trkpt>
      <trkpt lat="22.4136598903" lon="114.1041248325"><ele>342.000</ele></trkpt>
      <trkpt lat="22.4136815635" lon="114.1041248213"><ele>342.000</ele></trkpt>
      <trkpt lat="22.4136887874" lon="114.1041238463"><ele>342.000</ele></trkpt>
      <trkpt lat="22.4137727709" lon="114.1041238025"><ele>340.000</ele></trkpt>
      <trkpt lat="22.4137799948" lon="114.1041228275"><ele>340.000</ele></trkpt>
      <trkpt lat="22.4138450143" lon="114.1041227937"><ele>338.000</ele></trkpt>
      <trkpt lat="22.4138522383" lon="114.1041218187"><ele>338.000</ele></trkpt>
      <trkpt lat="22.4138795555" lon="114.1041218045"><ele>338.000</ele></trkpt>
      <trkpt lat="22.4138937824" lon="114.1041305383"><ele>338.000</ele></trkpt>
      <trkpt lat="22.4139001059" lon="114.1041353913"><ele>338.000</ele></trkpt>
      <trkpt lat="22.4139217843" lon="114.1041470350"><ele>336.000</ele></trkpt>
      <trkpt lat="22.4139344314" lon="114.1041567410"><ele>336.000</ele></trkpt>
      <trkpt lat="22.4139416575" lon="114.1041606222"><ele>336.000</ele></trkpt>
      <trkpt lat="22.4139624342" lon="114.1041751802"><ele>336.000</ele></trkpt>
      <trkpt lat="22.4139750803" lon="114.1041829436"><ele>334.000</ele></trkpt>
      <trkpt lat="22.4139814030" lon="114.1041858541"><ele>334.000</ele></trkpt>
      <trkpt lat="22.4139877265" lon="114.1041907071"><ele>334.000</ele></trkpt>
      <trkpt lat="22.4140021783" lon="114.1041974983"><ele>334.000</ele></trkpt>
      <trkpt lat="22.4140085019" lon="114.1042023513"><ele>334.000</ele></trkpt>
      <trkpt lat="22.4140292781" lon="114.1042159380"><ele>334.000</ele></trkpt>
      <trkpt lat="22.4140356016" lon="114.1042207910"><ele>333.000</ele></trkpt>
      <trkpt lat="22.4140554743" lon="114.1042334069"><ele>333.000</ele></trkpt>
      <trkpt lat="22.4140681214" lon="114.1042431129"><ele>332.000</ele></trkpt>
      <trkpt lat="22.4140816706" lon="114.1042508759"><ele>332.000</ele></trkpt>
      <trkpt lat="22.4140879941" lon="114.1042557289"><ele>332.000</ele></trkpt>
      <trkpt lat="22.4140943167" lon="114.1042586393"><ele>332.000</ele></trkpt>
      <trkpt lat="22.4141006403" lon="114.1042634923"><ele>332.000</ele></trkpt>
      <trkpt lat="22.4141078664" lon="114.1042673736"><ele>332.000</ele></trkpt>
      <trkpt lat="22.4141214165" lon="114.1042770791"><ele>329.000</ele></trkpt>
      <trkpt lat="22.4141403857" lon="114.1042887243"><ele>329.000</ele></trkpt>
      <trkpt lat="22.4141467092" lon="114.1042935772"><ele>329.000</ele></trkpt>
      <trkpt lat="22.4141530319" lon="114.1042964877"><ele>329.000</ele></trkpt>
      <trkpt lat="22.4141584523" lon="114.1043013412"><ele>329.000</ele></trkpt>
      <trkpt lat="22.4141611619" lon="114.1043023110"><ele>329.000</ele></trkpt>
      <trkpt lat="22.4141674854" lon="114.1043071640"><ele>329.000</ele></trkpt>
      <trkpt lat="22.4141801316" lon="114.1043149275"><ele>329.000</ele></trkpt>
      <trkpt lat="22.4141991017" lon="114.1043285152"><ele>326.000</ele></trkpt>
      <trkpt lat="22.4142054248" lon="114.1043323969"><ele>326.000</ele></trkpt>
      <trkpt lat="22.4142117474" lon="114.1043353074"><ele>326.000</ele></trkpt>
      <trkpt lat="22.4142316197" lon="114.1043469521"><ele>326.000</ele></trkpt>
      <trkpt lat="22.4142451698" lon="114.1043566576"><ele>328.000</ele></trkpt>
      <trkpt lat="22.4142514925" lon="114.1043595681"><ele>328.000</ele></trkpt>
      <trkpt lat="22.4142632364" lon="114.1043692745"><ele>326.000</ele></trkpt>
      <trkpt lat="22.4142704626" lon="114.1043731558"><ele>326.000</ele></trkpt>
      <trkpt lat="22.4142767861" lon="114.1043780088"><ele>326.000</ele></trkpt>
      <trkpt lat="22.4142831087" lon="114.1043809193"><ele>326.000</ele></trkpt>
      <trkpt lat="22.4142894318" lon="114.1043848010"><ele>326.000</ele></trkpt>
      <trkpt lat="22.4143011758" lon="114.1043945075"><ele>326.000</ele></trkpt>
      <trkpt lat="22.4143074989" lon="114.1043983892"><ele>326.000</ele></trkpt>
      <trkpt lat="22.4143138215" lon="114.1044012997"><ele>326.000</ele></trkpt>
      <trkpt lat="22.4143264677" lon="114.1044090632"><ele>326.000</ele></trkpt>
      <trkpt lat="22.4143327912" lon="114.1044139162"><ele>324.000</ele></trkpt>
      <trkpt lat="22.4143391138" lon="114.1044168267"><ele>324.000</ele></trkpt>
      <trkpt lat="22.4143463404" lon="114.1044216792"><ele>324.000</ele></trkpt>
      <trkpt lat="22.4143589874" lon="114.1044313852"><ele>324.000</ele></trkpt>
      <trkpt lat="22.4143716336" lon="114.1044391487"><ele>324.000</ele></trkpt>
      <trkpt lat="22.4143779562" lon="114.1044420591"><ele>324.000</ele></trkpt>
      <trkpt lat="22.4143833767" lon="114.1044469126"><ele>324.000</ele></trkpt>
      <trkpt lat="22.4143960237" lon="114.1044566186"><ele>324.000</ele></trkpt>
      <trkpt lat="22.4144122851" lon="114.1044711790"><ele>322.000</ele></trkpt>
      <trkpt lat="22.4144258386" lon="114.1044886546"><ele>322.000</ele></trkpt>
      <trkpt lat="22.4144348752" lon="114.1045022475"><ele>322.000</ele></trkpt>
      <trkpt lat="22.4144384904" lon="114.1045090444"><ele>322.000</ele></trkpt>
      <trkpt lat="22.4144475270" lon="114.1045226373"><ele>322.000</ele></trkpt>
      <trkpt lat="22.4144511422" lon="114.1045294342"><ele>322.000</ele></trkpt>
      <trkpt lat="22.4144601792" lon="114.1045439984"><ele>322.000</ele></trkpt>
      <trkpt lat="22.4144646971" lon="114.1045498236"><ele>321.000</ele></trkpt>
      <trkpt lat="22.4144737341" lon="114.1045643877"><ele>319.000</ele></trkpt>
      <trkpt lat="22.4144827698" lon="114.1045760381"><ele>319.000</ele></trkpt>
      <trkpt lat="22.4144881902" lon="114.1045808916"><ele>319.000</ele></trkpt>
      <trkpt lat="22.4145071608" lon="114.1045954506"><ele>319.000</ele></trkpt>
      <trkpt lat="22.4145125812" lon="114.1046003041"><ele>316.000</ele></trkpt>
      <trkpt lat="22.4145180021" lon="114.1046061288"><ele>316.000</ele></trkpt>
      <trkpt lat="22.4145324591" lon="114.1046245752"><ele>314.000</ele></trkpt>
      <trkpt lat="22.4145396896" lon="114.1046381690"><ele>314.000</ele></trkpt>
      <trkpt lat="22.4145451148" lon="114.1046537063"><ele>314.000</ele></trkpt>
      <trkpt lat="22.4145505439" lon="114.1046779849"><ele>311.000</ele></trkpt>
      <trkpt lat="22.4145532570" lon="114.1046867248"><ele>310.000</ele></trkpt>
      <trkpt lat="22.4145568761" lon="114.1047022631"><ele>310.000</ele></trkpt>
      <trkpt lat="22.4145586861" lon="114.1047110034"><ele>308.000</ele></trkpt>
      <trkpt lat="22.4145595926" lon="114.1047187730"><ele>308.000</ele></trkpt>
      <trkpt lat="22.4145668313" lon="114.1047508207"><ele>308.000</ele></trkpt>
      <trkpt lat="22.4145677378" lon="114.1047585903"><ele>305.000</ele></trkpt>
      <trkpt lat="22.4145758809" lon="114.1047935513"><ele>305.000</ele></trkpt>
      <trkpt lat="22.4145813065" lon="114.1048100599"><ele>303.000</ele></trkpt>
      <trkpt lat="22.4145831161" lon="114.1048178290"><ele>303.000</ele></trkpt>
      <trkpt lat="22.4145858282" lon="114.1048246264"><ele>303.000</ele></trkpt>
      <trkpt lat="22.4145876378" lon="114.1048323955"><ele>303.000</ele></trkpt>
      <trkpt lat="22.4145903508" lon="114.1048411354"><ele>303.000</ele></trkpt>
      <trkpt lat="22.4145957795" lon="114.1048644428"><ele>302.000</ele></trkpt>
      <trkpt lat="22.4145975925" lon="114.1048799820"><ele>302.000</ele></trkpt>
      <trkpt lat="22.4145994021" lon="114.1048877511"><ele>302.000</ele></trkpt>
      <trkpt lat="22.4146021216" lon="114.1049110598"><ele>300.000</ele></trkpt>
      <trkpt lat="22.4146021298" lon="114.1049295137"><ele>300.000</ele></trkpt>
      <trkpt lat="22.4146039428" lon="114.1049450529"><ele>300.000</ele></trkpt>
      <trkpt lat="22.4146075619" lon="114.1049605911"><ele>298.000</ele></trkpt>
      <trkpt lat="22.4146098493" lon="114.1049666214"><ele>298.000</ele></trkpt>
      <trkpt lat="22.4146138893" lon="114.1049741854"><ele>298.000</ele></trkpt>
      <trkpt lat="22.4146229250" lon="114.1049858359"><ele>298.000</ele></trkpt>
      <trkpt lat="22.4146295747" lon="114.1049932917"><ele>298.000</ele></trkpt>
      <trkpt lat="22.4146444910" lon="114.1050088436"><ele>295.000</ele></trkpt>
      <trkpt lat="22.4146536437" lon="114.1050198141"><ele>295.000</ele></trkpt>
      <trkpt lat="22.4146753255" lon="114.1050392281"><ele>295.000</ele></trkpt>
      <trkpt lat="22.4146879716" lon="114.1050469916"><ele>293.000</ele></trkpt>
      <trkpt lat="22.4147024221" lon="114.1050508692"><ele>292.000</ele></trkpt>
      <trkpt lat="22.4147087448" lon="114.1050537797"><ele>292.000</ele></trkpt>
      <trkpt lat="22.4147105509" lon="114.1050537788"><ele>292.000</ele></trkpt>
      <trkpt lat="22.4147192297" lon="114.1050550855"><ele>292.000</ele></trkpt>
      <trkpt lat="22.4147376113" lon="114.1050653811"><ele>291.000</ele></trkpt>
      <trkpt lat="22.4147447375" lon="114.1050678250"><ele>291.000</ele></trkpt>
      <trkpt lat="22.4147727445" lon="114.1050756196"><ele>291.000</ele></trkpt>
      <trkpt lat="22.4148035247" lon="114.1050853746"><ele>289.000</ele></trkpt>
      <trkpt lat="22.4148202778" lon="114.1050890082"><ele>289.000</ele></trkpt>
      <trkpt lat="22.4148276296" lon="114.1050911995"><ele>288.000</ele></trkpt>
      <trkpt lat="22.4148423242" lon="114.1050955820"><ele>286.000</ele></trkpt>
      <trkpt lat="22.4148487552" lon="114.1050985216"><ele>286.000</ele></trkpt>
      <trkpt lat="22.4148729007" lon="114.1051144767"><ele>286.000</ele></trkpt>
      <trkpt lat="22.4148865594" lon="114.1051247165"><ele>286.000</ele></trkpt>
      <trkpt lat="22.4148930463" lon="114.1051315897"><ele>286.000</ele></trkpt>
      <trkpt lat="22.4149048992" lon="114.1051425588"><ele>287.000</ele></trkpt>
      <trkpt lat="22.4149194643" lon="114.1051604711"><ele>286.000</ele></trkpt>
      <trkpt lat="22.4149290152" lon="114.1051733936"><ele>286.000</ele></trkpt>
      <trkpt lat="22.4149371931" lon="114.1051853262"><ele>286.000</ele></trkpt>
      <trkpt lat="22.4149530455" lon="114.1052146112"><ele>288.000</ele></trkpt>
      <trkpt lat="22.4149639696" lon="114.1052285432"><ele>286.000</ele></trkpt>
      <trkpt lat="22.4149753279" lon="114.1052444466"><ele>288.000</ele></trkpt>
      <trkpt lat="22.4149935259" lon="114.1052683108"><ele>288.000</ele></trkpt>
      <trkpt lat="22.4150062320" lon="114.1052891767"><ele>288.000</ele></trkpt>
      <trkpt lat="22.4150261609" lon="114.1053268999"><ele>288.000</ele></trkpt>
      <trkpt lat="22.4150438725" lon="114.1053537267"><ele>291.000</ele></trkpt>
      <trkpt lat="22.4150566042" lon="114.1053711252"><ele>287.000</ele></trkpt>
      <trkpt lat="22.4150670758" lon="114.1053830760"><ele>287.000</ele></trkpt>
      <trkpt lat="22.4150898271" lon="114.1054114252"><ele>290.000</ele></trkpt>
      <trkpt lat="22.4151468070" lon="114.1054672435"><ele>285.000</ele></trkpt>
      <trkpt lat="22.4151728755" lon="114.1054819836"><ele>288.000</ele></trkpt>
      <trkpt lat="22.4151983945" lon="114.1054999001"><ele>283.000</ele></trkpt>
      <trkpt lat="22.4152055312" lon="114.1055058017"><ele>283.000</ele></trkpt>
      <trkpt lat="22.4152188537" lon="114.1055116807"><ele>283.000</ele></trkpt>
      <trkpt lat="22.4152409098" lon="114.1055199834"><ele>280.000</ele></trkpt>
      <trkpt lat="22.4153010795" lon="114.1055395042"><ele>281.000</ele></trkpt>
      <trkpt lat="22.4153215182" lon="114.1055455933"><ele>278.000</ele></trkpt>
      <trkpt lat="22.4153504456" lon="114.1055519015"><ele>278.000</ele></trkpt>
      <trkpt lat="22.4153577886" lon="114.1055545881"><ele>278.000</ele></trkpt>
      <trkpt lat="22.4153747856" lon="114.1055582217"><ele>277.000</ele></trkpt>
      <trkpt lat="22.4154059969" lon="114.1055627901"><ele>277.000</ele></trkpt>
      <trkpt lat="22.4154482617" lon="114.1055675180"><ele>275.000</ele></trkpt>
      <trkpt lat="22.4154967156" lon="114.1055798089"><ele>276.000</ele></trkpt>
      <trkpt lat="22.4155228431" lon="114.1055849627"><ele>274.000</ele></trkpt>
      <trkpt lat="22.4155512731" lon="114.1055896394"><ele>272.000</ele></trkpt>
      <trkpt lat="22.4155829175" lon="114.1055933626"><ele>272.000</ele></trkpt>
      <trkpt lat="22.4156136413" lon="114.1055980576"><ele>270.000</ele></trkpt>
      <trkpt lat="22.4156879649" lon="114.1056040998"><ele>264.000</ele></trkpt>
      <trkpt lat="22.4157067505" lon="114.1056091991"><ele>264.000</ele></trkpt>
      <trkpt lat="22.4157154398" lon="114.1056137110"><ele>264.000</ele></trkpt>
      <trkpt lat="22.4157236518" lon="114.1056211953"><ele>264.000</ele></trkpt>
      <trkpt lat="22.4157496175" lon="114.1056485814"><ele>265.000</ele></trkpt>
      <trkpt lat="22.4157600807" lon="114.1056620184"><ele>265.000</ele></trkpt>
      <trkpt lat="22.4157739125" lon="114.1056758421"><ele>264.000</ele></trkpt>
      <trkpt lat="22.4157916306" lon="114.1056970747"><ele>264.000</ele></trkpt>
      <trkpt lat="22.4158026800" lon="114.1057086368"><ele>264.000</ele></trkpt>
      <trkpt lat="22.4158135039" lon="114.1057209372"><ele>264.000</ele></trkpt>
      <trkpt lat="22.4158261706" lon="114.1057344702"><ele>263.000</ele></trkpt>
      <trkpt lat="22.4158420528" lon="114.1057494681"><ele>263.000</ele></trkpt>
      <trkpt lat="22.4158581707" lon="114.1057666902"><ele>263.000</ele></trkpt>
      <trkpt lat="22.4158680732" lon="114.1057782626"><ele>262.000</ele></trkpt>
      <trkpt lat="22.4158968793" lon="114.1058166712"><ele>262.000</ele></trkpt>
      <trkpt lat="22.4159125464" lon="114.1058353796"><ele>260.000</ele></trkpt>
      <trkpt lat="22.4159233700" lon="114.1058469418"><ele>260.000</ele></trkpt>
      <trkpt lat="22.4159339580" lon="114.1058567754"><ele>260.000</ele></trkpt>
      <trkpt lat="22.4159523592" lon="114.1058707814"><ele>262.000</ele></trkpt>
      <trkpt lat="22.4159882201" lon="114.1058931023"><ele>260.000</ele></trkpt>
      <trkpt lat="22.4160031600" lon="114.1059011951"><ele>258.000</ele></trkpt>
      <trkpt lat="22.4160388836" lon="114.1059193882"><ele>260.000</ele></trkpt>
      <trkpt lat="22.4160551963" lon="114.1059278299"><ele>257.000</ele></trkpt>
      <trkpt lat="22.4160812982" lon="114.1059364415"><ele>257.000</ele></trkpt>
      <trkpt lat="22.4161060102" lon="114.1059470255"><ele>254.000</ele></trkpt>
      <trkpt lat="22.4161279598" lon="114.1059595534"><ele>254.000</ele></trkpt>
      <trkpt lat="22.4161416632" lon="114.1059690552"><ele>254.000</ele></trkpt>
      <trkpt lat="22.4161489457" lon="114.1059780163"><ele>254.000</ele></trkpt>
      <trkpt lat="22.4161534651" lon="114.1059874353"><ele>254.000</ele></trkpt>
      <trkpt lat="22.4161575155" lon="114.1059983405"><ele>254.000</ele></trkpt>
      <trkpt lat="22.4161661118" lon="114.1060171982"><ele>256.000</ele></trkpt>
      <trkpt lat="22.4161743149" lon="114.1060251681"><ele>256.000</ele></trkpt>
      <trkpt lat="22.4161855338" lon="114.1060320973"><ele>253.000</ele></trkpt>
      <trkpt lat="22.4162211376" lon="114.1060447931"><ele>253.000</ele></trkpt>
      <trkpt lat="22.4162353807" lon="114.1060494286"><ele>249.000</ele></trkpt>
      <trkpt lat="22.4162429491" lon="114.1060513770"><ele>249.000</ele></trkpt>
      <trkpt lat="22.4162562710" lon="114.1060560129"><ele>249.000</ele></trkpt>
      <trkpt lat="22.4162686913" lon="114.1060636214"><ele>249.000</ele></trkpt>
      <trkpt lat="22.4163012108" lon="114.1060858955"><ele>247.000</ele></trkpt>
      <trkpt lat="22.4163366069" lon="114.1061194057"><ele>247.000</ele></trkpt>
      <trkpt lat="22.4163529878" lon="114.1061392987"><ele>247.000</ele></trkpt>
      <trkpt lat="22.4163657106" lon="114.1061572025"><ele>243.000</ele></trkpt>
      <trkpt lat="22.4163789115" lon="114.1061741056"><ele>247.000</ele></trkpt>
      <trkpt lat="22.4163911823" lon="114.1061910092"><ele>247.000</ele></trkpt>
      <trkpt lat="22.4164025322" lon="114.1062083989"><ele>247.000</ele></trkpt>
      <trkpt lat="22.4164290784" lon="114.1062419914"><ele>245.000</ele></trkpt>
      <trkpt lat="22.4164448927" lon="114.1062671490"><ele>250.000</ele></trkpt>
      <trkpt lat="22.4164674928" lon="114.1063011320"><ele>245.000</ele></trkpt>
      <trkpt lat="22.4164877781" lon="114.1063282202"><ele>249.000</ele></trkpt>
      <trkpt lat="22.4165098967" lon="114.1063557930"><ele>248.000</ele></trkpt>
      <trkpt lat="22.4165225840" lon="114.1063752509"><ele>248.000</ele></trkpt>
      <trkpt lat="22.4165301934" lon="114.1063883106"><ele>248.000</ele></trkpt>
      <trkpt lat="22.4165343503" lon="114.1063949617"><ele>248.000</ele></trkpt>
      <trkpt lat="22.4165489018" lon="114.1064235486"><ele>246.000</ele></trkpt>
      <trkpt lat="22.4165652857" lon="114.1064501531"><ele>246.000</ele></trkpt>
      <trkpt lat="22.4165835030" lon="114.1064774949"><ele>249.000</ele></trkpt>
      <trkpt lat="22.4166021709" lon="114.1065026123"><ele>246.000</ele></trkpt>
      <trkpt lat="22.4166116227" lon="114.1065161567"><ele>246.000</ele></trkpt>
      <trkpt lat="22.4166386154" lon="114.1065590150"><ele>243.000</ele></trkpt>
      <trkpt lat="22.4166771499" lon="114.1066245467"><ele>240.000</ele></trkpt>
      <trkpt lat="22.4166845436" lon="114.1066400833"><ele>240.000</ele></trkpt>
      <trkpt lat="22.4167055556" lon="114.1066772822"><ele>242.000</ele></trkpt>
      <trkpt lat="22.4167134005" lon="114.1066920707"><ele>242.000</ele></trkpt>
      <trkpt lat="22.4167297845" lon="114.1067191706"><ele>239.000</ele></trkpt>
      <trkpt lat="22.4167360304" lon="114.1067327265"><ele>239.000</ele></trkpt>
      <trkpt lat="22.4167397176" lon="114.1067391350"><ele>239.000</ele></trkpt>
      <trkpt lat="22.4167743085" lon="114.1067903619"><ele>234.000</ele></trkpt>
      <trkpt lat="22.4168028886" lon="114.1068287711"><ele>234.000</ele></trkpt>
      <trkpt lat="22.4168351750" lon="114.1068760656"><ele>231.000</ele></trkpt>
      <trkpt lat="22.4168388622" lon="114.1068824644"><ele>231.000</ele></trkpt>
      <trkpt lat="22.4168453439" lon="114.1068982443"><ele>229.000</ele></trkpt>
      <trkpt lat="22.4168481501" lon="114.1069137930"><ele>229.000</ele></trkpt>
      <trkpt lat="22.4168474947" lon="114.1069226902"><ele>229.000</ele></trkpt>
      <trkpt lat="22.4168445671" lon="114.1069397375"><ele>227.000</ele></trkpt>
      <trkpt lat="22.4168436765" lon="114.1069476441"><ele>227.000</ele></trkpt>
      <trkpt lat="22.4168389147" lon="114.1069619824"><ele>227.000</ele></trkpt>
      <trkpt lat="22.4168320847" lon="114.1069760887"><ele>227.000</ele></trkpt>
      <trkpt lat="22.4168275178" lon="114.1069820352"><ele>227.000</ele></trkpt>
      <trkpt lat="22.4168108275" lon="114.1069983997"><ele>226.000</ele></trkpt>
      <trkpt lat="22.4167991553" lon="114.1070080794"><ele>226.000</ele></trkpt>
      <trkpt lat="22.4167879531" lon="114.1070187399"><ele>226.000</ele></trkpt>
      <trkpt lat="22.4167708015" lon="114.1070333855"><ele>226.000</ele></trkpt>
      <trkpt lat="22.4167669301" lon="114.1070396425"><ele>224.000</ele></trkpt>
      <trkpt lat="22.4167722703" lon="114.1070616857"><ele>224.000</ele></trkpt>
      <trkpt lat="22.4167808252" lon="114.1070936741"><ele>224.000</ele></trkpt>
      <trkpt lat="22.4167907147" lon="114.1071192263"><ele>224.000</ele></trkpt>
      <trkpt lat="22.4167975904" lon="114.1071274884"><ele>224.000</ele></trkpt>
      <trkpt lat="22.4168035613" lon="114.1071314385"><ele>224.000</ele></trkpt>
      <trkpt lat="22.4168159544" lon="114.1071390762"><ele>226.000</ele></trkpt>
      <trkpt lat="22.4168611806" lon="114.1071637142"><ele>224.000</ele></trkpt>
      <trkpt lat="22.4168889544" lon="114.1071755305"><ele>224.000</ele></trkpt>
      <trkpt lat="22.4169052479" lon="114.1071811946"><ele>227.000</ele></trkpt>
      <trkpt lat="22.4169121300" lon="114.1071831628"><ele>227.000</ele></trkpt>
      <trkpt lat="22.4169343918" lon="114.1071870854"><ele>227.000</ele></trkpt>
      <trkpt lat="22.4169426551" lon="114.1071880622"><ele>227.000</ele></trkpt>
      <trkpt lat="22.4169497621" lon="114.1071880490"><ele>225.000</ele></trkpt>
      <trkpt lat="22.4169733937" lon="114.1071852982"><ele>225.000</ele></trkpt>
      <trkpt lat="22.4169889875" lon="114.1071810848"><ele>225.000</ele></trkpt>
      <trkpt lat="22.4170025229" lon="114.1071780963"><ele>222.000</ele></trkpt>
      <trkpt lat="22.4170165081" lon="114.1071711641"><ele>222.000</ele></trkpt>
      <trkpt lat="22.4171020477" lon="114.1071359808"><ele>220.000</ele></trkpt>
      <trkpt lat="22.4171364484" lon="114.1071233370"><ele>219.000</ele></trkpt>
      <trkpt lat="22.4172002187" lon="114.1071165840"><ele>218.000</ele></trkpt>
      <trkpt lat="22.4172155893" lon="114.1071182955"><ele>218.000</ele></trkpt>
      <trkpt lat="22.4172309605" lon="114.1071212405"><ele>217.000</ele></trkpt>
      <trkpt lat="22.4172447336" lon="114.1071249245"><ele>217.000</ele></trkpt>
      <trkpt lat="22.4172681442" lon="114.1071332949"><ele>218.000</ele></trkpt>
      <trkpt lat="22.4173016545" lon="114.1071500424"><ele>218.000</ele></trkpt>
      <trkpt lat="22.4173209402" lon="114.1071631061"><ele>216.000</ele></trkpt>
      <trkpt lat="22.4173338036" lon="114.1071724725"><ele>216.000</ele></trkpt>
      <trkpt lat="22.4173397749" lon="114.1071774036"><ele>216.000</ele></trkpt>
      <trkpt lat="22.4173583748" lon="114.1071917109"><ele>217.000</ele></trkpt>
      <trkpt lat="22.4173967118" lon="114.1072185767"><ele>217.000</ele></trkpt>
      <trkpt lat="22.4174017712" lon="114.1072240036"><ele>214.000</ele></trkpt>
      <trkpt lat="22.4174075074" lon="114.1072281967"><ele>214.000</ele></trkpt>
      <trkpt lat="22.4174543420" lon="114.1072550583"><ele>213.000</ele></trkpt>
      <trkpt lat="22.4174685782" lon="114.1072649194"><ele>213.000</ele></trkpt>
      <trkpt lat="22.4175078354" lon="114.1072898130"><ele>210.000</ele></trkpt>
      <trkpt lat="22.4175342292" lon="114.1073053403"><ele>208.000</ele></trkpt>
      <trkpt lat="22.4175413468" lon="114.1073090276"><ele>208.000</ele></trkpt>
      <trkpt lat="22.4175605422" lon="114.1073221109"><ele>208.000</ele></trkpt>
      <trkpt lat="22.4175817320" lon="114.1073321434"><ele>206.000</ele></trkpt>
      <trkpt lat="22.4176296676" lon="114.1073574407"><ele>204.000</ele></trkpt>
      <trkpt lat="22.4176575496" lon="114.1073686451"><ele>204.000</ele></trkpt>
      <trkpt lat="22.4176891069" lon="114.1073799059"><ele>204.000</ele></trkpt>
      <trkpt lat="22.4177248000" lon="114.1073907179"><ele>202.000</ele></trkpt>
      <trkpt lat="22.4177742038" lon="114.1074071274"><ele>200.000</ele></trkpt>
      <trkpt lat="22.4177879058" lon="114.1074137156"><ele>200.000</ele></trkpt>
      <trkpt lat="22.4178139976" lon="114.1074199674"><ele>200.000</ele></trkpt>
      <trkpt lat="22.4178767124" lon="114.1074365451"><ele>200.000</ele></trkpt>
      <trkpt lat="22.4179380719" lon="114.1074516180"><ele>200.000</ele></trkpt>
      <trkpt lat="22.4179980584" lon="114.1074656912"><ele>198.000</ele></trkpt>
      <trkpt lat="22.4180222997" lon="114.1074738865"><ele>201.000</ele></trkpt>
      <trkpt lat="22.4180743834" lon="114.1074852440"><ele>201.000</ele></trkpt>
      <trkpt lat="22.4180793147" lon="114.1074868927"><ele>201.000</ele></trkpt>
      <trkpt lat="22.4180855100" lon="114.1074876278"><ele>201.000</ele></trkpt>
      <trkpt lat="22.4181070765" lon="114.1074917936"><ele>201.000</ele></trkpt>
      <trkpt lat="22.4181291142" lon="114.1074994267"><ele>200.000</ele></trkpt>
      <trkpt lat="22.4181665140" lon="114.1075102379"><ele>200.000</ele></trkpt>
      <trkpt lat="22.4181883258" lon="114.1075176185"><ele>200.000</ele></trkpt>
      <trkpt lat="22.4182384918" lon="114.1075425458"><ele>198.000</ele></trkpt>
      <trkpt lat="22.4182628974" lon="114.1075548884"><ele>197.000</ele></trkpt>
      <trkpt lat="22.4182930559" lon="114.1075681023"><ele>197.000</ele></trkpt>
      <trkpt lat="22.4183437978" lon="114.1075884935"><ele>194.000</ele></trkpt>
      <trkpt lat="22.4183566604" lon="114.1075957815"><ele>193.000</ele></trkpt>
      <trkpt lat="22.4183811371" lon="114.1076055405"><ele>193.000</ele></trkpt>
      <trkpt lat="22.4183884800" lon="114.1076080039"><ele>193.000</ele></trkpt>
      <trkpt lat="22.4184105078" lon="114.1076138984"><ele>190.000</ele></trkpt>
      <trkpt lat="22.4184173906" lon="114.1076173527"><ele>190.000</ele></trkpt>
      <trkpt lat="22.4184343792" lon="114.1076227641"><ele>190.000</ele></trkpt>
      <trkpt lat="22.4184699565" lon="114.1076372865"><ele>190.000</ele></trkpt>
      <trkpt lat="22.4184974958" lon="114.1076498510"><ele>190.000</ele></trkpt>
      <trkpt lat="22.4185052993" lon="114.1076525570"><ele>190.000</ele></trkpt>
      <trkpt lat="22.4185206797" lon="114.1076559878"><ele>190.000</ele></trkpt>
      <trkpt lat="22.4185502743" lon="114.1076601496"><ele>192.000</ele></trkpt>
      <trkpt lat="22.4185571648" lon="114.1076606416"><ele>192.000</ele></trkpt>
      <trkpt lat="22.4185644972" lon="114.1076598900"><ele>192.000</ele></trkpt>
      <trkpt lat="22.4185784933" lon="114.1076571538"><ele>192.000</ele></trkpt>
      <trkpt lat="22.4185851479" lon="114.1076551691"><ele>192.000</ele></trkpt>
      <trkpt lat="22.4185991334" lon="114.1076487225"><ele>192.000</ele></trkpt>
      <trkpt lat="22.4186060129" lon="114.1076447660"><ele>192.000</ele></trkpt>
      <trkpt lat="22.4186243477" lon="114.1076306636"><ele>192.000</ele></trkpt>
      <trkpt lat="22.4186573495" lon="114.1075987600"><ele>192.000</ele></trkpt>
      <trkpt lat="22.4186637665" lon="114.1075901026"><ele>192.000</ele></trkpt>
      <trkpt lat="22.4186843904" lon="114.1075651304"><ele>190.000</ele></trkpt>
      <trkpt lat="22.4186999700" lon="114.1075488148"><ele>190.000</ele></trkpt>
      <trkpt lat="22.4187121203" lon="114.1075376778"><ele>190.000</ele></trkpt>
      <trkpt lat="22.4187238006" lon="114.1075258127"><ele>190.000</ele></trkpt>
      <trkpt lat="22.4187290724" lon="114.1075211090"><ele>190.000</ele></trkpt>
      <trkpt lat="22.4187416844" lon="114.1075126914"><ele>190.000</ele></trkpt>
      <trkpt lat="22.4187614024" lon="114.1075020461"><ele>190.000</ele></trkpt>
      <trkpt lat="22.4187701141" lon="114.1074958644"><ele>190.000</ele></trkpt>
      <trkpt lat="22.4187765332" lon="114.1074921509"><ele>190.000</ele></trkpt>
      <trkpt lat="22.4188040524" lon="114.1074787723"><ele>190.000</ele></trkpt>
      <trkpt lat="22.4188260653" lon="114.1074708454"><ele>190.000</ele></trkpt>
      <trkpt lat="22.4188407460" lon="114.1074641557"><ele>190.000</ele></trkpt>
      <trkpt lat="22.4188565653" lon="114.1074594468"><ele>190.000</ele></trkpt>
      <trkpt lat="22.4188808823" lon="114.1074544714"><ele>190.000</ele></trkpt>
      <trkpt lat="22.4189038181" lon="114.1074507400"><ele>190.000</ele></trkpt>
      <trkpt lat="22.4189113949" lon="114.1074512219"><ele>190.000</ele></trkpt>
      <trkpt lat="22.4189253819" lon="114.1074484856"><ele>190.000</ele></trkpt>
      <trkpt lat="22.4189331839" lon="114.1074477339"><ele>190.000</ele></trkpt>
      <trkpt lat="22.4189772346" lon="114.1074476731"><ele>190.000</ele></trkpt>
      <trkpt lat="22.4190075145" lon="114.1074493676"><ele>190.000</ele></trkpt>
      <trkpt lat="22.4190467515" lon="114.1074483282"><ele>190.000</ele></trkpt>
      <trkpt lat="22.4190779506" lon="114.1074455640"><ele>188.000</ele></trkpt>
      <trkpt lat="22.4191073082" lon="114.1074445392"><ele>188.000</ele></trkpt>
      <trkpt lat="22.4191288721" lon="114.1074422848"><ele>188.000</ele></trkpt>
      <trkpt lat="22.4191365939" lon="114.1074419061"><ele>188.000</ele></trkpt>
      <trkpt lat="22.4191411614" lon="114.1074416824"><ele>188.000</ele></trkpt>
      <trkpt lat="22.4191804892" lon="114.1074397533"><ele>188.000</ele></trkpt>
      <trkpt lat="22.4192045813" lon="114.1074370023"><ele>186.000</ele></trkpt>
      <trkpt lat="22.4192353200" lon="114.1074344908"><ele>186.000</ele></trkpt>
      <trkpt lat="22.4192431224" lon="114.1074347297"><ele>186.000</ele></trkpt>
      <trkpt lat="22.4192717938" lon="114.1074337053"><ele>186.000</ele></trkpt>
      <trkpt lat="22.4193112559" lon="114.1074311798"><ele>184.000</ele></trkpt>
      <trkpt lat="22.4193259393" lon="114.1074309103"><ele>184.000</ele></trkpt>
      <trkpt lat="22.4193500226" lon="114.1074286546"><ele>184.000</ele></trkpt>
      <trkpt lat="22.4193647059" lon="114.1074278994"><ele>184.000</ele></trkpt>
      <trkpt lat="22.4193952181" lon="114.1074239117"><ele>184.000</ele></trkpt>
      <trkpt lat="22.4194099014" lon="114.1074231468"><ele>184.000</ele></trkpt>
      <trkpt lat="22.4194310047" lon="114.1074211452"><ele>182.000</ele></trkpt>
      <trkpt lat="22.4194706826" lon="114.1074163953"><ele>182.000</ele></trkpt>
      <trkpt lat="22.4194851394" lon="114.1074141541"><ele>182.000</ele></trkpt>
      <trkpt lat="22.4194998226" lon="114.1074131464"><ele>182.000</ele></trkpt>
      <trkpt lat="22.4195229843" lon="114.1074099102"><ele>180.000</ele></trkpt>
      <trkpt lat="22.4195489076" lon="114.1074024669"><ele>180.000</ele></trkpt>
      <trkpt lat="22.4195647370" lon="114.1073999725"><ele>180.000</ele></trkpt>
      <trkpt lat="22.4196023454" lon="114.1073917756"><ele>180.000</ele></trkpt>
      <trkpt lat="22.4196406586" lon="114.1073845592"><ele>179.000</ele></trkpt>
      <trkpt lat="22.4196775818" lon="114.1073788297"><ele>178.000</ele></trkpt>
      <trkpt lat="22.4196856189" lon="114.1073788160"><ele>178.000</ele></trkpt>
      <trkpt lat="22.4197376861" lon="114.1073728264"><ele>176.000</ele></trkpt>
      <trkpt lat="22.4197980144" lon="114.1073628600"><ele>176.000</ele></trkpt>
      <trkpt lat="22.4198149903" lon="114.1073596269"><ele>176.000</ele></trkpt>
      <trkpt lat="22.4198374659" lon="114.1073566338"><ele>176.000</ele></trkpt>
      <trkpt lat="22.4198445817" lon="114.1073561349"><ele>176.000</ele></trkpt>
      <trkpt lat="22.4198691221" lon="114.1073457299"><ele>176.000</ele></trkpt>
      <trkpt lat="22.4198906744" lon="114.1073377934"><ele>175.000</ele></trkpt>
      <trkpt lat="22.4199051204" lon="114.1073313563"><ele>175.000</ele></trkpt>
      <trkpt lat="22.4199645090" lon="114.1072991672"><ele>172.000</ele></trkpt>
      <trkpt lat="22.4199780337" lon="114.1072922351"><ele>171.000</ele></trkpt>
      <trkpt lat="22.4199986734" lon="114.1072830655"><ele>171.000</ele></trkpt>
      <trkpt lat="22.4200349040" lon="114.1072627669"><ele>168.000</ele></trkpt>
      <trkpt lat="22.4200692937" lon="114.1072456841"><ele>166.000</ele></trkpt>
      <trkpt lat="22.4200832894" lon="114.1072419571"><ele>166.000</ele></trkpt>
      <trkpt lat="22.4200913170" lon="114.1072409623"><ele>166.000</ele></trkpt>
      <trkpt lat="22.4201222820" lon="114.1072396842"><ele>166.000</ele></trkpt>
      <trkpt lat="22.4201297954" lon="114.1072397873"><ele>166.000</ele></trkpt>
      <trkpt lat="22.4201466830" lon="114.1072413136"><ele>166.000</ele></trkpt>
      <trkpt lat="22.4201684660" lon="114.1072445857"><ele>166.000</ele></trkpt>
      <trkpt lat="22.4202113466" lon="114.1072538402"><ele>164.000</ele></trkpt>
      <trkpt lat="22.4202551386" lon="114.1072611128"><ele>163.000</ele></trkpt>
      <trkpt lat="22.4202663740" lon="114.1072646039"><ele>163.000</ele></trkpt>
      <trkpt lat="22.4202801289" lon="114.1072680937"><ele>163.000</ele></trkpt>
      <trkpt lat="22.4202941182" lon="114.1072706024"><ele>162.000</ele></trkpt>
      <trkpt lat="22.4203122260" lon="114.1072746048"><ele>162.000</ele></trkpt>
      <trkpt lat="22.4203241479" lon="114.1072783384"><ele>163.000</ele></trkpt>
      <trkpt lat="22.4203340017" lon="114.1072820729"><ele>162.000</ele></trkpt>
      <trkpt lat="22.4203447771" lon="114.1072867978"><ele>162.000</ele></trkpt>
      <trkpt lat="22.4203633302" lon="114.1072972203"><ele>162.000</ele></trkpt>
      <trkpt lat="22.4203853262" lon="114.1073130997"><ele>160.000</ele></trkpt>
      <trkpt lat="22.4204146315" lon="114.1073371442"><ele>162.000</ele></trkpt>
      <trkpt lat="22.4204400527" lon="114.1073591994"><ele>160.000</ele></trkpt>
      <trkpt lat="22.4204643255" lon="114.1073775545"><ele>160.000</ele></trkpt>
      <trkpt lat="22.4204753194" lon="114.1073864753"><ele>158.000</ele></trkpt>
      <trkpt lat="22.4204895197" lon="114.1073966474"><ele>158.000</ele></trkpt>
      <trkpt lat="22.4205112802" lon="114.1074107884"><ele>158.000</ele></trkpt>
      <trkpt lat="22.4205440344" lon="114.1074333548"><ele>156.000</ele></trkpt>
      <trkpt lat="22.4205683150" lon="114.1074489904"><ele>154.000</ele></trkpt>
      <trkpt lat="22.4205912222" lon="114.1074626451"><ele>154.000</ele></trkpt>
      <trkpt lat="22.4206042917" lon="114.1074683596"><ele>152.000</ele></trkpt>
      <trkpt lat="22.4206175864" lon="114.1074725976"><ele>152.000</ele></trkpt>
      <trkpt lat="22.4206483027" lon="114.1074810715"><ele>152.000</ele></trkpt>
      <trkpt lat="22.4206753604" lon="114.1074865750"><ele>150.000</ele></trkpt>
      <trkpt lat="22.4206911820" lon="114.1074871111"><ele>150.000</ele></trkpt>
      <trkpt lat="22.4207113739" lon="114.1074864211"><ele>149.000</ele></trkpt>
      <trkpt lat="22.4207347720" lon="114.1074867300"><ele>149.000</ele></trkpt>
      <trkpt lat="22.4207524350" lon="114.1074852935"><ele>148.000</ele></trkpt>
      <trkpt lat="22.4207795144" lon="114.1074784421"><ele>148.000</ele></trkpt>
      <trkpt lat="22.4208063677" lon="114.1074706001"><ele>148.000</ele></trkpt>
      <trkpt lat="22.4208286419" lon="114.1074612645"><ele>148.000</ele></trkpt>
      <trkpt lat="22.4208410387" lon="114.1074566058"><ele>146.000</ele></trkpt>
      <trkpt lat="22.4208683591" lon="114.1074430815"><ele>146.000</ele></trkpt>
      <trkpt lat="22.4208796092" lon="114.1074386565"><ele>146.000</ele></trkpt>
      <trkpt lat="22.4209101603" lon="114.1074199535"><ele>146.000</ele></trkpt>
      <trkpt lat="22.4209198110" lon="114.1074133050"><ele>146.000</ele></trkpt>
      <trkpt lat="22.4209308344" lon="114.1074066558"><ele>146.000</ele></trkpt>
      <trkpt lat="22.4209450633" lon="114.1073995291"><ele>146.000</ele></trkpt>
      <trkpt lat="22.4209712302" lon="114.1073914446"><ele>145.000</ele></trkpt>
      <trkpt lat="22.4209808736" lon="114.1073887493"><ele>145.000</ele></trkpt>
      <trkpt lat="22.4209923504" lon="114.1073865484"><ele>145.000</ele></trkpt>
      <trkpt lat="22.4210047399" lon="114.1073858429"><ele>145.000</ele></trkpt>
      <trkpt lat="22.4210329510" lon="114.1073856638"><ele>144.000</ele></trkpt>
      <trkpt lat="22.4210581896" lon="114.1073820186"><ele>144.000</ele></trkpt>
      <trkpt lat="22.4210882499" lon="114.1073769043"><ele>144.000</ele></trkpt>
      <trkpt lat="22.4211013254" lon="114.1073754603"><ele>144.000</ele></trkpt>
      <trkpt lat="22.4211701688" lon="114.1073640229"><ele>142.000</ele></trkpt>
      <trkpt lat="22.4211827838" lon="114.1073625694"><ele>142.000</ele></trkpt>
      <trkpt lat="22.4211983958" lon="114.1073586570"><ele>142.000</ele></trkpt>
      <trkpt lat="22.4212367252" lon="114.1073471377"><ele>142.000</ele></trkpt>
      <trkpt lat="22.4212459076" lon="114.1073434519"><ele>142.000</ele></trkpt>
      <trkpt lat="22.4212571657" lon="114.1073365598"><ele>142.000</ele></trkpt>
      <trkpt lat="22.4212656608" lon="114.1073306500"><ele>142.000</ele></trkpt>
      <trkpt lat="22.4212757636" lon="114.1073252348"><ele>142.000</ele></trkpt>
      <trkpt lat="22.4212854073" lon="114.1073232874"><ele>141.000</ele></trkpt>
      <trkpt lat="22.4212996215" lon="114.1073238146"><ele>141.000</ele></trkpt>
      <trkpt lat="22.4213124635" lon="114.1073253331"><ele>142.000</ele></trkpt>
      <trkpt lat="22.4213638320" lon="114.1073328740"><ele>142.000</ele></trkpt>
      <trkpt lat="22.4213782821" lon="114.1073358779"><ele>142.000</ele></trkpt>
      <trkpt lat="22.4213931754" lon="114.1073406104"><ele>142.000</ele></trkpt>
      <trkpt lat="22.4214183923" lon="114.1073495727"><ele>142.000</ele></trkpt>
      <trkpt lat="22.4214344410" lon="114.1073530711"><ele>142.000</ele></trkpt>
      <trkpt lat="22.4214493424" lon="114.1073555794"><ele>142.000</ele></trkpt>
      <trkpt lat="22.4214633400" lon="114.1073566020"><ele>140.000</ele></trkpt>
      <trkpt lat="22.4214929324" lon="114.1073554412"><ele>140.000</ele></trkpt>
      <trkpt lat="22.4215055473" lon="114.1073537448"><ele>140.000</ele></trkpt>
      <trkpt lat="22.4215200039" lon="114.1073510665"><ele>140.000</ele></trkpt>
      <trkpt lat="22.4215335481" lon="114.1073476408"><ele>140.000</ele></trkpt>
      <trkpt lat="22.4215454768" lon="114.1073461876"><ele>140.000</ele></trkpt>
      <trkpt lat="22.4215576323" lon="114.1073474540"><ele>140.000</ele></trkpt>
      <trkpt lat="22.4215711529" lon="114.1073519347"><ele>140.000</ele></trkpt>
      <trkpt lat="22.4215846750" lon="114.1073601258"><ele>140.000</ele></trkpt>
      <trkpt lat="22.4216082607" lon="114.1073767428"><ele>142.000</ele></trkpt>
      <trkpt lat="22.4216144366" lon="114.1073806240"><ele>142.000</ele></trkpt>
      <trkpt lat="22.4216268234" lon="114.1073884086"><ele>142.000</ele></trkpt>
      <trkpt lat="22.4216412652" lon="114.1073931414"><ele>142.000</ele></trkpt>
      <trkpt lat="22.4216527251" lon="114.1073936602"><ele>142.000</ele></trkpt>
      <trkpt lat="22.4216630553" lon="114.1073922078"><ele>142.000</ele></trkpt>
      <trkpt lat="22.4217080402" lon="114.1073807046"><ele>142.000</ele></trkpt>
      <trkpt lat="22.4217241118" lon="114.1073745677"><ele>142.000</ele></trkpt>
      <trkpt lat="22.4217387935" lon="114.1073704032"><ele>142.000</ele></trkpt>
      <trkpt lat="22.4217626594" lon="114.1073665061"><ele>142.000</ele></trkpt>
      <trkpt lat="22.4218033564" lon="114.1073545058"><ele>142.000</ele></trkpt>
      <trkpt lat="22.4218553161" lon="114.1073358483"><ele>142.000</ele></trkpt>
      <trkpt lat="22.4219478861" lon="114.1072991810"><ele>142.000</ele></trkpt>
      <trkpt lat="22.4220321004" lon="114.1072772944"><ele>143.000</ele></trkpt>
      <trkpt lat="22.4221115348" lon="114.1072534830"><ele>142.000</ele></trkpt>
      <trkpt lat="22.4221467708" lon="114.1072386880"><ele>142.000</ele></trkpt>
      <trkpt lat="22.4221754342" lon="114.1072194000"><ele>142.000</ele></trkpt>
      <trkpt lat="22.4222082750" lon="114.1071891866"><ele>142.000</ele></trkpt>
      <trkpt lat="22.4222506648" lon="114.1071429068"><ele>142.000</ele></trkpt>
      <trkpt lat="22.4223390304" lon="114.1070522725"><ele>142.000</ele></trkpt>
      <trkpt lat="22.4223939607" lon="114.1069950640"><ele>140.000</ele></trkpt>
      <trkpt lat="22.4224482964" lon="114.1069455660"><ele>140.000</ele></trkpt>
      <trkpt lat="22.4224984535" lon="114.1069037794"><ele>140.000</ele></trkpt>
      <trkpt lat="22.4225330877" lon="114.1068780621"><ele>138.000</ele></trkpt>
      <trkpt lat="22.4225796668" lon="114.1068484846"><ele>138.000</ele></trkpt>
      <trkpt lat="22.4226352021" lon="114.1068124784"><ele>136.000</ele></trkpt>
      <trkpt lat="22.4227086548" lon="114.1067681099"><ele>134.000</ele></trkpt>
      <trkpt lat="22.4227701635" lon="114.1067314576"><ele>132.000</ele></trkpt>
      <trkpt lat="22.4228292887" lon="114.1067063710"><ele>130.000</ele></trkpt>
      <trkpt lat="22.4228746760" lon="114.1066838613"><ele>128.000</ele></trkpt>
      <trkpt lat="22.4229182728" lon="114.1066658497"><ele>128.000</ele></trkpt>
      <trkpt lat="22.4229529134" lon="114.1066549098"><ele>126.000</ele></trkpt>
      <trkpt lat="22.4229851655" lon="114.1066458992"><ele>126.000</ele></trkpt>
      <trkpt lat="22.4230156275" lon="114.1066426708"><ele>126.000</ele></trkpt>
      <trkpt lat="22.4230454934" lon="114.1066413708"><ele>124.000</ele></trkpt>
      <trkpt lat="22.4230759588" lon="114.1066439256"><ele>124.000</ele></trkpt>
      <trkpt lat="22.4231177736" lon="114.1066484017"><ele>124.000</ele></trkpt>
      <trkpt lat="22.4231655638" lon="114.1066567300"><ele>123.000</ele></trkpt>
      <trkpt lat="22.4232235087" lon="114.1066669813"><ele>122.000</ele></trkpt>
      <trkpt lat="22.4232748831" lon="114.1066753079"><ele>122.000</ele></trkpt>
      <trkpt lat="22.4233250599" lon="114.1066791369"><ele>122.000</ele></trkpt>
      <trkpt lat="22.4234098835" lon="114.1066842344"><ele>120.000</ele></trkpt>
      <trkpt lat="22.4234540872" lon="114.1066874244"><ele>120.000</ele></trkpt>
      <trkpt lat="22.4235036677" lon="114.1066925397"><ele>120.000</ele></trkpt>
      <trkpt lat="22.4235329372" lon="114.1066944521"><ele>120.000</ele></trkpt>
      <trkpt lat="22.4235687807" lon="114.1067021444"><ele>119.000</ele></trkpt>
      <trkpt lat="22.4236225436" lon="114.1067104698"><ele>118.000</ele></trkpt>
      <trkpt lat="22.4236733185" lon="114.1067149415"><ele>118.000</ele></trkpt>
      <trkpt lat="22.4237659071" lon="114.1067193922"><ele>115.000</ele></trkpt>
      <trkpt lat="22.4238459509" lon="114.1067244923"><ele>114.000</ele></trkpt>
      <trkpt lat="22.4239236051" lon="114.1067270234"><ele>114.000</ele></trkpt>
      <trkpt lat="22.4239618329" lon="114.1067250771"><ele>112.000</ele></trkpt>
      <trkpt lat="22.4239875183" lon="114.1067250642"><ele>112.000</ele></trkpt>
      <trkpt lat="22.4240132051" lon="114.1067282634"><ele>112.000</ele></trkpt>
      <trkpt lat="22.4240394901" lon="114.1067346746"><ele>110.000</ele></trkpt>
      <trkpt lat="22.4240615960" lon="114.1067455860"><ele>111.000</ele></trkpt>
      <trkpt lat="22.4240795192" lon="114.1067526443"><ele>111.000</ele></trkpt>
      <trkpt lat="22.4240986357" lon="114.1067564899"><ele>110.000</ele></trkpt>
      <trkpt lat="22.4241314891" lon="114.1067577585"><ele>110.000</ele></trkpt>
      <trkpt lat="22.4241959959" lon="114.1067480887"><ele>108.000</ele></trkpt>
      <trkpt lat="22.4242443782" lon="114.1067454942"><ele>108.000</ele></trkpt>
      <trkpt lat="22.4242855894" lon="114.1067345510"><ele>106.000</ele></trkpt>
      <trkpt lat="22.4243124653" lon="114.1067249010"><ele>106.000</ele></trkpt>
      <trkpt lat="22.4243357551" lon="114.1067107537"><ele>106.000</ele></trkpt>
      <trkpt lat="22.4243608357" lon="114.1066946792"><ele>106.000</ele></trkpt>
      <trkpt lat="22.4243829313" lon="114.1066818185"><ele>104.000</ele></trkpt>
      <trkpt lat="22.4244008480" lon="114.1066740991"><ele>104.000</ele></trkpt>
      <trkpt lat="22.4244241414" lon="114.1066683051"><ele>104.000</ele></trkpt>
      <trkpt lat="22.4244420595" lon="114.1066637989"><ele>104.000</ele></trkpt>
      <trkpt lat="22.4244605734" lon="114.1066567222"><ele>104.000</ele></trkpt>
      <trkpt lat="22.4244814751" lon="114.1066457892"><ele>104.000</ele></trkpt>
      <trkpt lat="22.4245077504" lon="114.1066297141"><ele>102.000</ele></trkpt>
      <trkpt lat="22.4245519402" lon="114.1066007794"><ele>102.000</ele></trkpt>
      <trkpt lat="22.4245883680" lon="114.1065795590"><ele>102.000</ele></trkpt>
      <trkpt lat="22.4246206153" lon="114.1065596247"><ele>102.000</ele></trkpt>
      <trkpt lat="22.4246421142" lon="114.1065474073"><ele>100.000</ele></trkpt>
      <trkpt lat="22.4246618243" lon="114.1065435422"><ele>100.000</ele></trkpt>
      <trkpt lat="22.4246779510" lon="114.1065416069"><ele>98.000</ele></trkpt>
      <trkpt lat="22.4246922880" lon="114.1065441689"><ele>98.000</ele></trkpt>
      <trkpt lat="22.4247006547" lon="114.1065525171"><ele>99.000</ele></trkpt>
      <trkpt lat="22.4247084267" lon="114.1065679330"><ele>99.000</ele></trkpt>
      <trkpt lat="22.4247162007" lon="114.1065878471"><ele>96.000</ele></trkpt>
      <trkpt lat="22.4247197868" lon="114.1065923425"><ele>96.000</ele></trkpt>
      <trkpt lat="22.4247842998" lon="114.1065968073"><ele>94.000</ele></trkpt>
      <trkpt lat="22.4248249185" lon="114.1065980720"><ele>94.000</ele></trkpt>
    </trkseg>
  </trk>
</gpx>
