<?xml version="1.0" encoding="UTF-8"?>
<gpx xmlns:xsi="http://www.w3.org/2001/XMLSchema-instance"
     xsi:schemaLocation="http://www.topografix.com/GPX/1/1 http://www.topografix.com/GPX/1/1/gpx.xsd"
     version="1.1" creator="json3d_batch_to_gpx"
     xmlns="http://www.topografix.com/GPX/1/1">
  <metadata>
    <name>TeiTongTsaiCountryTrail</name>
  </metadata>
  <trk>
    <name>TeiTongTsaiCountryTrail</name>
    <type>hike</type>
    <trkseg>
      <trkpt lat="22.2521489076" lon="113.9406051424"><ele>260.000</ele></trkpt>
      <trkpt lat="22.2521374607" lon="113.9405705853"><ele>260.000</ele></trkpt>
      <trkpt lat="22.2521344125" lon="113.9405293484"><ele>264.000</ele></trkpt>
      <trkpt lat="22.2521382736" lon="113.9404967438"><ele>265.000</ele></trkpt>
      <trkpt lat="22.2521529296" lon="113.9404584409"><ele>265.000</ele></trkpt>
      <trkpt lat="22.2521751869" lon="113.9404295102"><ele>264.000</ele></trkpt>
      <trkpt lat="22.2522077687" lon="113.9403874733"><ele>262.000</ele></trkpt>
      <trkpt lat="22.2522295698" lon="113.9403610124"><ele>262.000</ele></trkpt>
      <trkpt lat="22.2522518178" lon="113.9403264006"><ele>260.000</ele></trkpt>
      <trkpt lat="22.2522673988" lon="113.9402913073"><ele>262.000</ele></trkpt>
      <trkpt lat="22.2522838806" lon="113.9402436172"><ele>266.000</ele></trkpt>
      <trkpt lat="22.2522994482" lon="113.9401993853"><ele>263.000</ele></trkpt>
      <trkpt lat="22.2523156361" lon="113.9401705811"><ele>263.000</ele></trkpt>
      <trkpt lat="22.2523324841" lon="113.9401529023"><ele>262.000</ele></trkpt>
      <trkpt lat="22.2523490170" lon="113.9401402803"><ele>263.000</ele></trkpt>
      <trkpt lat="22.2523610304" lon="113.9401328067"><ele>263.000</ele></trkpt>
      <trkpt lat="22.2524593820" lon="113.9400535264"><ele>261.000</ele></trkpt>
      <trkpt lat="22.2524804151" lon="113.9400323839"><ele>259.000</ele></trkpt>
      <trkpt lat="22.2524919133" lon="113.9400016678"><ele>261.000</ele></trkpt>
      <trkpt lat="22.2525011010" lon="113.9399700659"><ele>261.000</ele></trkpt>
      <trkpt lat="22.2525079208" lon="113.9399377802"><ele>263.000</ele></trkpt>
      <trkpt lat="22.2525123297" lon="113.9399050134"><ele>262.000</ele></trkpt>
      <trkpt lat="22.2525142990" lon="113.9398719743"><ele>262.000</ele></trkpt>
      <trkpt lat="22.2525088033" lon="113.9398307453"><ele>259.000</ele></trkpt>
      <trkpt lat="22.2524986824" lon="113.9397915041"><ele>257.000</ele></trkpt>
      <trkpt lat="22.2524927974" lon="113.9397545570"><ele>257.000</ele></trkpt>
      <trkpt lat="22.2524943100" lon="113.9396982015"><ele>257.000</ele></trkpt>
      <trkpt lat="22.2525021113" lon="113.9396082623"><ele>255.000</ele></trkpt>
      <trkpt lat="22.2525153357" lon="113.9394623161"><ele>250.000</ele></trkpt>
      <trkpt lat="22.2525101985" lon="113.9393852480"><ele>250.000</ele></trkpt>
      <trkpt lat="22.2525146756" lon="113.9393448384"><ele>247.000</ele></trkpt>
      <trkpt lat="22.2525296926" lon="113.9393158014"><ele>246.000</ele></trkpt>
      <trkpt lat="22.2525941914" lon="113.9392338729"><ele>244.000</ele></trkpt>
      <trkpt lat="22.2526822569" lon="113.9390644748"><ele>244.000</ele></trkpt>
      <trkpt lat="22.2526881768" lon="113.9390530877"><ele>244.000</ele></trkpt>
      <trkpt lat="22.2527010238" lon="113.9390179453"><ele>244.000</ele></trkpt>
      <trkpt lat="22.2526981263" lon="113.9389756923"><ele>246.000</ele></trkpt>
      <trkpt lat="22.2526826639" lon="113.9389051676"><ele>248.000</ele></trkpt>
      <trkpt lat="22.2526757065" lon="113.9388544532"><ele>250.000</ele></trkpt>
      <trkpt lat="22.2526809804" lon="113.9388403085"><ele>251.000</ele></trkpt>
      <trkpt lat="22.2527015894" lon="113.9388084117"><ele>251.000</ele></trkpt>
      <trkpt lat="22.2527043390" lon="113.9387965656"><ele>254.000</ele></trkpt>
      <trkpt lat="22.2526994350" lon="113.9387839506"><ele>253.000</ele></trkpt>
      <trkpt lat="22.2526538324" lon="113.9387464759"><ele>254.000</ele></trkpt>
      <trkpt lat="22.2526297701" lon="113.9387142694"><ele>254.000</ele></trkpt>
      <trkpt lat="22.2526108226" lon="113.9386714460"><ele>257.000</ele></trkpt>
      <trkpt lat="22.2525873368" lon="113.9385982167"><ele>258.000</ele></trkpt>
      <trkpt lat="22.2525316073" lon="113.9385108635"><ele>262.000</ele></trkpt>
      <trkpt lat="22.2525266855" lon="113.9384929196"><ele>263.000</ele></trkpt>
      <trkpt lat="22.2525243473" lon="113.9384743824"><ele>263.000</ele></trkpt>
      <trkpt lat="22.2525246477" lon="113.9384556778"><ele>264.000</ele></trkpt>
      <trkpt lat="22.2525275800" lon="113.9384372385"><ele>264.000</ele></trkpt>
      <trkpt lat="22.2525330753" lon="113.9384194874"><ele>264.000</ele></trkpt>
      <trkpt lat="22.2525410077" lon="113.9384028343"><ele>265.000</ele></trkpt>
      <trkpt lat="22.2525511955" lon="113.9383876627"><ele>265.000</ele></trkpt>
      <trkpt lat="22.2525634025" lon="113.9383743222"><ele>265.000</ele></trkpt>
      <trkpt lat="22.2526520364" lon="113.9383425361"><ele>262.000</ele></trkpt>
      <trkpt lat="22.2527252717" lon="113.9382974175"><ele>265.000</ele></trkpt>
      <trkpt lat="22.2527496832" lon="113.9382684711"><ele>265.000</ele></trkpt>
      <trkpt lat="22.2527771578" lon="113.9382234774"><ele>268.000</ele></trkpt>
      <trkpt lat="22.2527919527" lon="113.9382001246"><ele>270.000</ele></trkpt>
      <trkpt lat="22.2528059922" lon="113.9381900231"><ele>270.000</ele></trkpt>
      <trkpt lat="22.2528252980" lon="113.9381858440"><ele>270.000</ele></trkpt>
      <trkpt lat="22.2529808671" lon="113.9381819366"><ele>269.000</ele></trkpt>
      <trkpt lat="22.2530673801" lon="113.9381817124"><ele>269.000</ele></trkpt>
      <trkpt lat="22.2531031915" lon="113.9381728768"><ele>269.000</ele></trkpt>
      <trkpt lat="22.2532132936" lon="113.9381322939"><ele>269.000</ele></trkpt>
      <trkpt lat="22.2532512186" lon="113.9381218637"><ele>268.000</ele></trkpt>
      <trkpt lat="22.2532895413" lon="113.9381196479"><ele>268.000</ele></trkpt>
      <trkpt lat="22.2534658275" lon="113.9381255648"><ele>268.000</ele></trkpt>
      <trkpt lat="22.2536231934" lon="113.9381282424"><ele>266.000</ele></trkpt>
      <trkpt lat="22.2536705386" lon="113.9381353266"><ele>268.000</ele></trkpt>
      <trkpt lat="22.2537296795" lon="113.9381496834"><ele>268.000</ele></trkpt>
      <trkpt lat="22.2539034713" lon="113.9382024993"><ele>268.000</ele></trkpt>
      <trkpt lat="22.2539173625" lon="113.9382067209"><ele>268.000</ele></trkpt>
      <trkpt lat="22.2539683275" lon="113.9382183315"><ele>268.000</ele></trkpt>
      <trkpt lat="22.2540259530" lon="113.9382184851"><ele>266.000</ele></trkpt>
      <trkpt lat="22.2540804662" lon="113.9382190505"><ele>266.000</ele></trkpt>
      <trkpt lat="22.2541211077" lon="113.9382124167"><ele>269.000</ele></trkpt>
      <trkpt lat="22.2541597200" lon="113.9381890999"><ele>268.000</ele></trkpt>
      <trkpt lat="22.2542052694" lon="113.9381570769"><ele>270.000</ele></trkpt>
      <trkpt lat="22.2542536546" lon="113.9381049042"><ele>270.000</ele></trkpt>
      <trkpt lat="22.2542883696" lon="113.9380461916"><ele>268.000</ele></trkpt>
      <trkpt lat="22.2543120807" lon="113.9379929090"><ele>269.000</ele></trkpt>
      <trkpt lat="22.2543344593" lon="113.9379504177"><ele>270.000</ele></trkpt>
      <trkpt lat="22.2543655035" lon="113.9379225374"><ele>273.000</ele></trkpt>
      <trkpt lat="22.2544130288" lon="113.9378862521"><ele>270.000</ele></trkpt>
      <trkpt lat="22.2544521918" lon="113.9378635056"><ele>272.000</ele></trkpt>
      <trkpt lat="22.2544881296" lon="113.9378497278"><ele>271.000</ele></trkpt>
      <trkpt lat="22.2545504558" lon="113.9378476138"><ele>270.000</ele></trkpt>
      <trkpt lat="22.2545654878" lon="113.9378467559"><ele>270.000</ele></trkpt>
      <trkpt lat="22.2546115412" lon="113.9378301776"><ele>272.000</ele></trkpt>
      <trkpt lat="22.2546319802" lon="113.9378265398"><ele>272.000</ele></trkpt>
      <trkpt lat="22.2546417337" lon="113.9378329708"><ele>272.000</ele></trkpt>
      <trkpt lat="22.2547016849" lon="113.9379034209"><ele>272.000</ele></trkpt>
      <trkpt lat="22.2547237663" lon="113.9379241454"><ele>270.000</ele></trkpt>
      <trkpt lat="22.2547631661" lon="113.9379340410"><ele>270.000</ele></trkpt>
      <trkpt lat="22.2548574766" lon="113.9379458555"><ele>270.000</ele></trkpt>
      <trkpt lat="22.2548952110" lon="113.9379539097"><ele>272.000</ele></trkpt>
      <trkpt lat="22.2549512763" lon="113.9379843858"><ele>270.000</ele></trkpt>
      <trkpt lat="22.2549861772" lon="113.9379974799"><ele>271.000</ele></trkpt>
      <trkpt lat="22.2550328580" lon="113.9379973338"><ele>272.000</ele></trkpt>
      <trkpt lat="22.2550762803" lon="113.9379927091"><ele>272.000</ele></trkpt>
      <trkpt lat="22.2551433156" lon="113.9379879387"><ele>276.000</ele></trkpt>
      <trkpt lat="22.2552220260" lon="113.9379888695"><ele>276.000</ele></trkpt>
      <trkpt lat="22.2553006173" lon="113.9379935995"><ele>276.000</ele></trkpt>
      <trkpt lat="22.2553535003" lon="113.9379774859"><ele>276.000</ele></trkpt>
      <trkpt lat="22.2554054412" lon="113.9379581549"><ele>276.000</ele></trkpt>
      <trkpt lat="22.2554562704" lon="113.9379356699"><ele>276.000</ele></trkpt>
      <trkpt lat="22.2555058217" lon="113.9379101048"><ele>278.000</ele></trkpt>
      <trkpt lat="22.2555539336" lon="113.9378815425"><ele>278.000</ele></trkpt>
      <trkpt lat="22.2556004491" lon="113.9378500753"><ele>280.000</ele></trkpt>
      <trkpt lat="22.2556452167" lon="113.9378158073"><ele>281.000</ele></trkpt>
      <trkpt lat="22.2556705518" lon="113.9378002148"><ele>281.000</ele></trkpt>
      <trkpt lat="22.2556944727" lon="113.9377822283"><ele>280.000</ele></trkpt>
      <trkpt lat="22.2557167846" lon="113.9377619958"><ele>282.000</ele></trkpt>
      <trkpt lat="22.2557373046" lon="113.9377396814"><ele>282.000</ele></trkpt>
      <trkpt lat="22.2557558657" lon="113.9377154679"><ele>283.000</ele></trkpt>
      <trkpt lat="22.2557723165" lon="113.9376895534"><ele>282.000</ele></trkpt>
      <trkpt lat="22.2557865220" lon="113.9376621487"><ele>284.000</ele></trkpt>
      <trkpt lat="22.2557983668" lon="113.9376334780"><ele>284.000</ele></trkpt>
      <trkpt lat="22.2558077537" lon="113.9376037764"><ele>285.000</ele></trkpt>
      <trkpt lat="22.2558031271" lon="113.9375159176"><ele>289.000</ele></trkpt>
      <trkpt lat="22.2558099681" lon="113.9374094270"><ele>294.000</ele></trkpt>
      <trkpt lat="22.2558100065" lon="113.9373987553"><ele>294.000</ele></trkpt>
      <trkpt lat="22.2558102250" lon="113.9373380573"><ele>294.000</ele></trkpt>
      <trkpt lat="22.2558028308" lon="113.9372915366"><ele>296.000</ele></trkpt>
      <trkpt lat="22.2557815260" lon="113.9372102091"><ele>298.000</ele></trkpt>
      <trkpt lat="22.2557791256" lon="113.9371617367"><ele>296.000</ele></trkpt>
      <trkpt lat="22.2557919746" lon="113.9371123283"><ele>298.000</ele></trkpt>
      <trkpt lat="22.2558580190" lon="113.9369684907"><ele>298.000</ele></trkpt>
      <trkpt lat="22.2558826127" lon="113.9368900246"><ele>294.000</ele></trkpt>
      <trkpt lat="22.2558794878" lon="113.9368023136"><ele>294.000</ele></trkpt>
      <trkpt lat="22.2558721187" lon="113.9367014197"><ele>296.000</ele></trkpt>
      <trkpt lat="22.2558647210" lon="113.9366501559"><ele>294.000</ele></trkpt>
      <trkpt lat="22.2558513403" lon="113.9366183849"><ele>294.000</ele></trkpt>
      <trkpt lat="22.2558410073" lon="113.9365834596"><ele>294.000</ele></trkpt>
      <trkpt lat="22.2558448946" lon="113.9365575159"><ele>293.000</ele></trkpt>
      <trkpt lat="22.2558539320" lon="113.9365358322"><ele>293.000</ele></trkpt>
      <trkpt lat="22.2558776710" lon="113.9365164944"><ele>292.000</ele></trkpt>
      <trkpt lat="22.2558900885" lon="113.9364978181"><ele>290.000</ele></trkpt>
      <trkpt lat="22.2558924556" lon="113.9364863129"><ele>290.000</ele></trkpt>
      <trkpt lat="22.2558886803" lon="113.9364402333"><ele>290.000</ele></trkpt>
      <trkpt lat="22.2558882291" lon="113.9364068404"><ele>288.000</ele></trkpt>
      <trkpt lat="22.2558891691" lon="113.9363176993"><ele>288.000</ele></trkpt>
      <trkpt lat="22.2558944204" lon="113.9362884324"><ele>288.000</ele></trkpt>
      <trkpt lat="22.2558991780" lon="113.9362806990"><ele>288.000</ele></trkpt>
      <trkpt lat="22.2559192826" lon="113.9362664403"><ele>287.000</ele></trkpt>
      <trkpt lat="22.2559260472" lon="113.9362590313"><ele>287.000</ele></trkpt>
      <trkpt lat="22.2559261489" lon="113.9362539116"><ele>287.000</ele></trkpt>
      <trkpt lat="22.2559256028" lon="113.9362431022"><ele>287.000</ele></trkpt>
      <trkpt lat="22.2559096326" lon="113.9361482466"><ele>288.000</ele></trkpt>
      <trkpt lat="22.2558997249" lon="113.9361078586"><ele>288.000</ele></trkpt>
      <trkpt lat="22.2558745650" lon="113.9360726327"><ele>288.000</ele></trkpt>
      <trkpt lat="22.2557944544" lon="113.9359866726"><ele>288.000</ele></trkpt>
      <trkpt lat="22.2557536332" lon="113.9359347811"><ele>289.000</ele></trkpt>
      <trkpt lat="22.2557402883" lon="113.9358894708"><ele>287.000</ele></trkpt>
      <trkpt lat="22.2557316714" lon="113.9358438670"><ele>286.000</ele></trkpt>
      <trkpt lat="22.2557275962" lon="113.9357807560"><ele>286.000</ele></trkpt>
      <trkpt lat="22.2557222556" lon="113.9357485173"><ele>288.000</ele></trkpt>
      <trkpt lat="22.2557052550" lon="113.9357153624"><ele>286.000</ele></trkpt>
      <trkpt lat="22.2556667205" lon="113.9356532757"><ele>285.000</ele></trkpt>
      <trkpt lat="22.2556294124" lon="113.9355662880"><ele>286.000</ele></trkpt>
      <trkpt lat="22.2556240255" lon="113.9355564298"><ele>286.000</ele></trkpt>
      <trkpt lat="22.2556203049" lon="113.9355473333"><ele>286.000</ele></trkpt>
      <trkpt lat="22.2556176435" lon="113.9355388024"><ele>286.000</ele></trkpt>
      <trkpt lat="22.2556183425" lon="113.9355308674"><ele>286.000</ele></trkpt>
      <trkpt lat="22.2556234548" lon="113.9355291201"><ele>286.000</ele></trkpt>
      <trkpt lat="22.2556366963" lon="113.9355296669"><ele>286.000</ele></trkpt>
      <trkpt lat="22.2557634145" lon="113.9355636039"><ele>285.000</ele></trkpt>
      <trkpt lat="22.2558022082" lon="113.9355690770"><ele>285.000</ele></trkpt>
      <trkpt lat="22.2558322629" lon="113.9355617785"><ele>284.000</ele></trkpt>
      <trkpt lat="22.2558646163" lon="113.9355492275"><ele>284.000</ele></trkpt>
      <trkpt lat="22.2559206265" lon="113.9355234768"><ele>284.000</ele></trkpt>
      <trkpt lat="22.2559709038" lon="113.9354974798"><ele>284.000</ele></trkpt>
      <trkpt lat="22.2559974113" lon="113.9354877580"><ele>287.000</ele></trkpt>
      <trkpt lat="22.2560357274" lon="113.9354878340"><ele>287.000</ele></trkpt>
      <trkpt lat="22.2560756533" lon="113.9354895468"><ele>288.000</ele></trkpt>
      <trkpt lat="22.2561270728" lon="113.9354962818"><ele>287.000</ele></trkpt>
      <trkpt lat="22.2561510980" lon="113.9354994663"><ele>286.000</ele></trkpt>
      <trkpt lat="22.2561801167" lon="113.9354956534"><ele>286.000</ele></trkpt>
      <trkpt lat="22.2562310661" lon="113.9354801939"><ele>287.000</ele></trkpt>
      <trkpt lat="22.2562488358" lon="113.9354742174"><ele>287.000</ele></trkpt>
      <trkpt lat="22.2562703499" lon="113.9354714922"><ele>287.000</ele></trkpt>
      <trkpt lat="22.2563159976" lon="113.9354731700"><ele>286.000</ele></trkpt>
      <trkpt lat="22.2563268952" lon="113.9354697829"><ele>286.000</ele></trkpt>
      <trkpt lat="22.2563347568" lon="113.9354628348"><ele>286.000</ele></trkpt>
      <trkpt lat="22.2563605577" lon="113.9354327448"><ele>288.000</ele></trkpt>
      <trkpt lat="22.2563831473" lon="113.9354050664"><ele>288.000</ele></trkpt>
      <trkpt lat="22.2564028710" lon="113.9353752391"><ele>289.000</ele></trkpt>
      <trkpt lat="22.2564292277" lon="113.9353424317"><ele>288.000</ele></trkpt>
      <trkpt lat="22.2564538781" lon="113.9353080983"><ele>288.000</ele></trkpt>
      <trkpt lat="22.2564753610" lon="113.9352844061"><ele>289.000</ele></trkpt>
      <trkpt lat="22.2564923660" lon="113.9352779264"><ele>288.000</ele></trkpt>
      <trkpt lat="22.2565290659" lon="113.9352727294"><ele>288.000</ele></trkpt>
      <trkpt lat="22.2565453971" lon="113.9352686956"><ele>288.000</ele></trkpt>
      <trkpt lat="22.2565704014" lon="113.9352573629"><ele>288.000</ele></trkpt>
      <trkpt lat="22.2566013998" lon="113.9352384936"><ele>290.000</ele></trkpt>
      <trkpt lat="22.2566293979" lon="113.9352212427"><ele>291.000</ele></trkpt>
      <trkpt lat="22.2566591400" lon="113.9351998657"><ele>292.000</ele></trkpt>
      <trkpt lat="22.2567016130" lon="113.9351690533"><ele>292.000</ele></trkpt>
      <trkpt lat="22.2567528910" lon="113.9350915952"><ele>294.000</ele></trkpt>
      <trkpt lat="22.2567743769" lon="113.9350474539"><ele>292.000</ele></trkpt>
      <trkpt lat="22.2567854701" lon="113.9350280899"><ele>292.000</ele></trkpt>
      <trkpt lat="22.2567977770" lon="113.9350153122"><ele>292.000</ele></trkpt>
      <trkpt lat="22.2568414245" lon="113.9349988415"><ele>292.000</ele></trkpt>
      <trkpt lat="22.2569213924" lon="113.9349637009"><ele>290.000</ele></trkpt>
      <trkpt lat="22.2569823858" lon="113.9349477980"><ele>292.000</ele></trkpt>
      <trkpt lat="22.2570029026" lon="113.9349394039"><ele>291.000</ele></trkpt>
      <trkpt lat="22.2570204828" lon="113.9349238346"><ele>291.000</ele></trkpt>
      <trkpt lat="22.2570347556" lon="113.9349056031"><ele>292.000</ele></trkpt>
      <trkpt lat="22.2570480339" lon="113.9348945049"><ele>292.000</ele></trkpt>
      <trkpt lat="22.2570616661" lon="113.9348869744"><ele>292.000</ele></trkpt>
      <trkpt lat="22.2571133694" lon="113.9348696051"><ele>292.000</ele></trkpt>
      <trkpt lat="22.2572312534" lon="113.9347776349"><ele>298.000</ele></trkpt>
      <trkpt lat="22.2572693998" lon="113.9347420323"><ele>300.000</ele></trkpt>
      <trkpt lat="22.2572864409" lon="113.9347337886"><ele>300.000</ele></trkpt>
      <trkpt lat="22.2573171491" lon="113.9347274764"><ele>302.000</ele></trkpt>
      <trkpt lat="22.2573340993" lon="113.9347205969"><ele>302.000</ele></trkpt>
      <trkpt lat="22.2573510124" lon="113.9347052286"><ele>302.000</ele></trkpt>
      <trkpt lat="22.2573743171" lon="113.9346812168"><ele>302.000</ele></trkpt>
      <trkpt lat="22.2573875197" lon="113.9346569206"><ele>304.000</ele></trkpt>
      <trkpt lat="22.2574047604" lon="113.9346274853"><ele>304.000</ele></trkpt>
      <trkpt lat="22.2574139758" lon="113.9346242000"><ele>304.000</ele></trkpt>
      <trkpt lat="22.2574176877" lon="113.9346183726"><ele>304.000</ele></trkpt>
      <trkpt lat="22.2574363737" lon="113.9345771086"><ele>304.000</ele></trkpt>
      <trkpt lat="22.2574429446" lon="113.9345627098"><ele>306.000</ele></trkpt>
      <trkpt lat="22.2574410828" lon="113.9345435231"><ele>306.000</ele></trkpt>
      <trkpt lat="22.2574366591" lon="113.9345201983"><ele>308.000</ele></trkpt>
      <trkpt lat="22.2574457691" lon="113.9345067944"><ele>308.000</ele></trkpt>
      <trkpt lat="22.2574524603" lon="113.9345004283"><ele>308.000</ele></trkpt>
      <trkpt lat="22.2574653070" lon="113.9344857082"><ele>308.000</ele></trkpt>
      <trkpt lat="22.2574983345" lon="113.9344510942"><ele>310.000</ele></trkpt>
      <trkpt lat="22.2575121738" lon="113.9344237894"><ele>310.000</ele></trkpt>
      <trkpt lat="22.2575208419" lon="113.9343866463"><ele>310.000</ele></trkpt>
      <trkpt lat="22.2575205645" lon="113.9343459969"><ele>312.000</ele></trkpt>
      <trkpt lat="22.2575191255" lon="113.9343014883"><ele>312.000</ele></trkpt>
      <trkpt lat="22.2575265489" lon="113.9342593316"><ele>314.000</ele></trkpt>
      <trkpt lat="22.2575326318" lon="113.9341902649"><ele>314.000</ele></trkpt>
      <trkpt lat="22.2575242366" lon="113.9341743299"><ele>316.000</ele></trkpt>
      <trkpt lat="22.2575229958" lon="113.9341598572"><ele>316.000</ele></trkpt>
      <trkpt lat="22.2575227580" lon="113.9341578008"><ele>316.000</ele></trkpt>
      <trkpt lat="22.2575300311" lon="113.9341419940"><ele>314.000</ele></trkpt>
      <trkpt lat="22.2575534059" lon="113.9341141489"><ele>315.000</ele></trkpt>
      <trkpt lat="22.2575653021" lon="113.9340798428"><ele>316.000</ele></trkpt>
      <trkpt lat="22.2575659665" lon="113.9340349619"><ele>316.000</ele></trkpt>
      <trkpt lat="22.2575572636" lon="113.9340034039"><ele>316.000</ele></trkpt>
      <trkpt lat="22.2575505806" lon="113.9339615315"><ele>317.000</ele></trkpt>
      <trkpt lat="22.2575549594" lon="113.9339378160"><ele>318.000</ele></trkpt>
      <trkpt lat="22.2575674262" lon="113.9339125062"><ele>318.000</ele></trkpt>
      <trkpt lat="22.2575960437" lon="113.9338650411"><ele>318.000</ele></trkpt>
      <trkpt lat="22.2576170125" lon="113.9338328954"><ele>318.000</ele></trkpt>
      <trkpt lat="22.2576426264" lon="113.9338047843"><ele>318.000</ele></trkpt>
      <trkpt lat="22.2576718200" lon="113.9337911419"><ele>318.000</ele></trkpt>
      <trkpt lat="22.2577061686" lon="113.9337704569"><ele>318.000</ele></trkpt>
      <trkpt lat="22.2577326929" lon="113.9337352136"><ele>320.000</ele></trkpt>
      <trkpt lat="22.2577589150" lon="113.9337092164"><ele>320.000</ele></trkpt>
      <trkpt lat="22.2577939834" lon="113.9336867935"><ele>322.000</ele></trkpt>
      <trkpt lat="22.2578259264" lon="113.9336758628"><ele>320.000</ele></trkpt>
      <trkpt lat="22.2578533220" lon="113.9336495240"><ele>320.000</ele></trkpt>
      <trkpt lat="22.2578733148" lon="113.9336127299"><ele>322.000</ele></trkpt>
      <trkpt lat="22.2578843127" lon="113.9335756214"><ele>324.000</ele></trkpt>
      <trkpt lat="22.2578757915" lon="113.9335358303"><ele>324.000</ele></trkpt>
      <trkpt lat="22.2578888140" lon="113.9334999116"><ele>324.000</ele></trkpt>
      <trkpt lat="22.2579082268" lon="113.9334617311"><ele>324.000</ele></trkpt>
      <trkpt lat="22.2579296213" lon="113.9334202001"><ele>326.000</ele></trkpt>
      <trkpt lat="22.2579318488" lon="113.9333819329"><ele>326.000</ele></trkpt>
      <trkpt lat="22.2579022975" lon="113.9333497260"><ele>326.000</ele></trkpt>
      <trkpt lat="22.2578886146" lon="113.9333004750"><ele>326.000</ele></trkpt>
      <trkpt lat="22.2578729606" lon="113.9332707276"><ele>328.000</ele></trkpt>
      <trkpt lat="22.2578616832" lon="113.9332405798"><ele>328.000</ele></trkpt>
      <trkpt lat="22.2578578406" lon="113.9332176372"><ele>328.000</ele></trkpt>
      <trkpt lat="22.2578602314" lon="113.9332089064"><ele>328.000</ele></trkpt>
      <trkpt lat="22.2578707337" lon="113.9331900331"><ele>328.000</ele></trkpt>
      <trkpt lat="22.2578774119" lon="113.9331587628"><ele>326.000</ele></trkpt>
      <trkpt lat="22.2578685362" lon="113.9331289475"><ele>326.000</ele></trkpt>
      <trkpt lat="22.2578513058" lon="113.9331054586"><ele>328.000</ele></trkpt>
      <trkpt lat="22.2577869659" lon="113.9330654245"><ele>334.000</ele></trkpt>
      <trkpt lat="22.2577631249" lon="113.9330574813"><ele>334.000</ele></trkpt>
      <trkpt lat="22.2577546901" lon="113.9330507087"><ele>334.000</ele></trkpt>
      <trkpt lat="22.2577493941" lon="113.9330383249"><ele>335.000</ele></trkpt>
      <trkpt lat="22.2577450553" lon="113.9330031320"><ele>334.000</ele></trkpt>
      <trkpt lat="22.2577496867" lon="113.9329396616"><ele>334.000</ele></trkpt>
      <trkpt lat="22.2577485830" lon="113.9328830029"><ele>333.000</ele></trkpt>
      <trkpt lat="22.2577400934" lon="113.9328457536"><ele>332.000</ele></trkpt>
      <trkpt lat="22.2577167067" lon="113.9327999345"><ele>334.000</ele></trkpt>
      <trkpt lat="22.2577139643" lon="113.9327862395"><ele>334.000</ele></trkpt>
      <trkpt lat="22.2577137997" lon="113.9327722316"><ele>335.000</ele></trkpt>
      <trkpt lat="22.2577162191" lon="113.9327584666"><ele>335.000</ele></trkpt>
      <trkpt lat="22.2577211267" lon="113.9327454889"><ele>335.000</ele></trkpt>
      <trkpt lat="22.2577283291" lon="113.9327338102"><ele>335.000</ele></trkpt>
      <trkpt lat="22.2577375399" lon="113.9327238956"><ele>334.000</ele></trkpt>
      <trkpt lat="22.2577483956" lon="113.9327161349"><ele>334.000</ele></trkpt>
      <trkpt lat="22.2577777055" lon="113.9327162257"><ele>332.000</ele></trkpt>
      <trkpt lat="22.2578155349" lon="113.9327313908"><ele>330.000</ele></trkpt>
      <trkpt lat="22.2578712534" lon="113.9327317938"><ele>331.000</ele></trkpt>
      <trkpt lat="22.2579328537" lon="113.9327058234"><ele>330.000</ele></trkpt>
      <trkpt lat="22.2579926755" lon="113.9326754301"><ele>330.000</ele></trkpt>
      <trkpt lat="22.2580296818" lon="113.9326302250"><ele>328.000</ele></trkpt>
      <trkpt lat="22.2580642710" lon="113.9325828626"><ele>328.000</ele></trkpt>
      <trkpt lat="22.2580963349" lon="113.9325334914"><ele>328.000</ele></trkpt>
      <trkpt lat="22.2581257717" lon="113.9324822679"><ele>328.000</ele></trkpt>
      <trkpt lat="22.2581524904" lon="113.9324293512"><ele>328.000</ele></trkpt>
      <trkpt lat="22.2581628827" lon="113.9323944295"><ele>326.000</ele></trkpt>
      <trkpt lat="22.2581705790" lon="113.9323587101"><ele>326.000</ele></trkpt>
      <trkpt lat="22.2581755265" lon="113.9323224337"><ele>326.000</ele></trkpt>
      <trkpt lat="22.2581776920" lon="113.9322858439"><ele>326.000</ele></trkpt>
      <trkpt lat="22.2581770616" lon="113.9322491872"><ele>326.000</ele></trkpt>
      <trkpt lat="22.2581736401" lon="113.9322127090"><ele>324.000</ele></trkpt>
      <trkpt lat="22.2581674486" lon="113.9321766538"><ele>323.000</ele></trkpt>
      <trkpt lat="22.2581585309" lon="113.9321412640"><ele>322.000</ele></trkpt>
      <trkpt lat="22.2581469451" lon="113.9321067782"><ele>324.000</ele></trkpt>
      <trkpt lat="22.2581327701" lon="113.9320734271"><ele>322.000</ele></trkpt>
      <trkpt lat="22.2581161002" lon="113.9320414348"><ele>322.000</ele></trkpt>
      <trkpt lat="22.2580711120" lon="113.9319332870"><ele>322.000</ele></trkpt>
      <trkpt lat="22.2580286777" lon="113.9318239551"><ele>324.000</ele></trkpt>
      <trkpt lat="22.2579888252" lon="113.9317135069"><ele>326.000</ele></trkpt>
      <trkpt lat="22.2579834746" lon="113.9316829967"><ele>328.000</ele></trkpt>
      <trkpt lat="22.2579807477" lon="113.9316520881"><ele>328.000</ele></trkpt>
      <trkpt lat="22.2579806674" lon="113.9316210410"><ele>328.000</ele></trkpt>
      <trkpt lat="22.2579832342" lon="113.9315901163"><ele>330.000</ele></trkpt>
      <trkpt lat="22.2579884268" lon="113.9315595752"><ele>330.000</ele></trkpt>
      <trkpt lat="22.2579992048" lon="113.9315326595"><ele>330.000</ele></trkpt>
      <trkpt lat="22.2580064930" lon="113.9315006604"><ele>330.000</ele></trkpt>
      <trkpt lat="22.2580049598" lon="113.9314661543"><ele>330.000</ele></trkpt>
      <trkpt lat="22.2580152258" lon="113.9314230707"><ele>330.000</ele></trkpt>
      <trkpt lat="22.2580345106" lon="113.9313901484"><ele>330.000</ele></trkpt>
      <trkpt lat="22.2580581588" lon="113.9313463526"><ele>330.000</ele></trkpt>
      <trkpt lat="22.2580758997" lon="113.9313076703"><ele>330.000</ele></trkpt>
      <trkpt lat="22.2580888334" lon="113.9312610991"><ele>330.000</ele></trkpt>
      <trkpt lat="22.2581023471" lon="113.9312159239"><ele>329.000</ele></trkpt>
      <trkpt lat="22.2580984869" lon="113.9311773665"><ele>329.000</ele></trkpt>
      <trkpt lat="22.2580959502" lon="113.9311659909"><ele>328.000</ele></trkpt>
      <trkpt lat="22.2580993908" lon="113.9311480368"><ele>328.000</ele></trkpt>
      <trkpt lat="22.2581043740" lon="113.9311409168"><ele>328.000</ele></trkpt>
      <trkpt lat="22.2581151628" lon="113.9311271507"><ele>326.000</ele></trkpt>
      <trkpt lat="22.2581254028" lon="113.9311087772"><ele>326.000</ele></trkpt>
      <trkpt lat="22.2581362959" lon="113.9310863279"><ele>326.000</ele></trkpt>
      <trkpt lat="22.2581383767" lon="113.9310709180"><ele>326.000</ele></trkpt>
      <trkpt lat="22.2581361338" lon="113.9310567575"><ele>326.000</ele></trkpt>
      <trkpt lat="22.2581313806" lon="113.9310427663"><ele>326.000</ele></trkpt>
      <trkpt lat="22.2581231604" lon="113.9310173235"><ele>328.000</ele></trkpt>
      <trkpt lat="22.2581211116" lon="113.9310002036"><ele>328.000</ele></trkpt>
      <trkpt lat="22.2581229182" lon="113.9309826016"><ele>328.000</ele></trkpt>
      <trkpt lat="22.2581291705" lon="113.9309608298"><ele>328.000</ele></trkpt>
      <trkpt lat="22.2581325433" lon="113.9309398198"><ele>328.000</ele></trkpt>
      <trkpt lat="22.2581445626" lon="113.9309037668"><ele>326.000</ele></trkpt>
      <trkpt lat="22.2581529725" lon="113.9308814673"><ele>328.000</ele></trkpt>
      <trkpt lat="22.2581618346" lon="113.9308596522"><ele>324.000</ele></trkpt>
      <trkpt lat="22.2581613681" lon="113.9308437908"><ele>324.000</ele></trkpt>
      <trkpt lat="22.2581606952" lon="113.9308228266"><ele>325.000</ele></trkpt>
      <trkpt lat="22.2581613162" lon="113.9308035289"><ele>325.000</ele></trkpt>
      <trkpt lat="22.2581671223" lon="113.9307852408"><ele>323.000</ele></trkpt>
      <trkpt lat="22.2581758826" lon="113.9307617862"><ele>323.000</ele></trkpt>
      <trkpt lat="22.2581836019" lon="113.9307426798"><ele>323.000</ele></trkpt>
      <trkpt lat="22.2581967038" lon="113.9307178109"><ele>323.000</ele></trkpt>
      <trkpt lat="22.2582043475" lon="113.9306976947"><ele>321.000</ele></trkpt>
      <trkpt lat="22.2582230988" lon="113.9306512792"><ele>320.000</ele></trkpt>
      <trkpt lat="22.2582351716" lon="113.9306029049"><ele>320.000</ele></trkpt>
      <trkpt lat="22.2582426632" lon="113.9305229111"><ele>323.000</ele></trkpt>
      <trkpt lat="22.2582555845" lon="113.9305064422"><ele>321.000</ele></trkpt>
      <trkpt lat="22.2582948077" lon="113.9304800103"><ele>318.000</ele></trkpt>
      <trkpt lat="22.2583181433" lon="113.9304529852"><ele>318.000</ele></trkpt>
      <trkpt lat="22.2583186632" lon="113.9304331734"><ele>319.000</ele></trkpt>
      <trkpt lat="22.2583105453" lon="113.9303709979"><ele>318.000</ele></trkpt>
      <trkpt lat="22.2582958752" lon="113.9302930918"><ele>312.000</ele></trkpt>
      <trkpt lat="22.2582796236" lon="113.9302365110"><ele>313.000</ele></trkpt>
      <trkpt lat="22.2582539327" lon="113.9301896338"><ele>312.000</ele></trkpt>
      <trkpt lat="22.2582436474" lon="113.9301477454"><ele>311.000</ele></trkpt>
      <trkpt lat="22.2582476953" lon="113.9301224179"><ele>311.000</ele></trkpt>
      <trkpt lat="22.2582611283" lon="113.9300802133"><ele>309.000</ele></trkpt>
      <trkpt lat="22.2582775434" lon="113.9300434414"><ele>308.000</ele></trkpt>
      <trkpt lat="22.2583334437" lon="113.9300678208"><ele>307.000</ele></trkpt>
      <trkpt lat="22.2583598522" lon="113.9300484041"><ele>306.000</ele></trkpt>
      <trkpt lat="22.2583856304" lon="113.9300230918"><ele>304.000</ele></trkpt>
      <trkpt lat="22.2584025536" lon="113.9299956064"><ele>302.000</ele></trkpt>
      <trkpt lat="22.2584091433" lon="113.9299468952"><ele>300.000</ele></trkpt>
      <trkpt lat="22.2584037977" lon="113.9299110151"><ele>298.000</ele></trkpt>
      <trkpt lat="22.2584125313" lon="113.9298938181"><ele>298.000</ele></trkpt>
      <trkpt lat="22.2584298119" lon="113.9298674671"><ele>298.000</ele></trkpt>
      <trkpt lat="22.2584451418" lon="113.9298350559"><ele>296.000</ele></trkpt>
      <trkpt lat="22.2584529696" lon="113.9298101671"><ele>294.000</ele></trkpt>
      <trkpt lat="22.2584562873" lon="113.9297946288"><ele>294.000</ele></trkpt>
      <trkpt lat="22.2584607758" lon="113.9297770027"><ele>294.000</ele></trkpt>
      <trkpt lat="22.2584722302" lon="113.9297496917"><ele>293.000</ele></trkpt>
      <trkpt lat="22.2584906461" lon="113.9297335158"><ele>293.000</ele></trkpt>
      <trkpt lat="22.2585098222" lon="113.9297183863"><ele>293.000</ele></trkpt>
      <trkpt lat="22.2585200394" lon="113.9296970537"><ele>290.000</ele></trkpt>
      <trkpt lat="22.2585251396" lon="113.9296778160"><ele>290.000</ele></trkpt>
      <trkpt lat="22.2585279651" lon="113.9296593196"><ele>289.000</ele></trkpt>
      <trkpt lat="22.2585314322" lon="113.9296410743"><ele>289.000</ele></trkpt>
      <trkpt lat="22.2585410969" lon="113.9296245644"><ele>289.000</ele></trkpt>
      <trkpt lat="22.2585540318" lon="113.9296087958"><ele>288.000</ele></trkpt>
      <trkpt lat="22.2585646271" lon="113.9295984643"><ele>286.000</ele></trkpt>
      <trkpt lat="22.2585777566" lon="113.9295918732"><ele>286.000</ele></trkpt>
      <trkpt lat="22.2585837337" lon="113.9295911448"><ele>286.000</ele></trkpt>
      <trkpt lat="22.2585990245" lon="113.9295983845"><ele>286.000</ele></trkpt>
      <trkpt lat="22.2586198149" lon="113.9296174604"><ele>286.000</ele></trkpt>
      <trkpt lat="22.2586370643" lon="113.9296299744"><ele>289.000</ele></trkpt>
      <trkpt lat="22.2586511697" lon="113.9296356348"><ele>288.000</ele></trkpt>
      <trkpt lat="22.2586591324" lon="113.9296282281"><ele>288.000</ele></trkpt>
      <trkpt lat="22.2586623723" lon="113.9296209336"><ele>288.000</ele></trkpt>
      <trkpt lat="22.2586685431" lon="113.9296050110"><ele>286.000</ele></trkpt>
      <trkpt lat="22.2586661382" lon="113.9295770917"><ele>286.000</ele></trkpt>
      <trkpt lat="22.2586413599" lon="113.9294618459"><ele>281.000</ele></trkpt>
      <trkpt lat="22.2586399069" lon="113.9294197508"><ele>278.000</ele></trkpt>
      <trkpt lat="22.2586516792" lon="113.9293711459"><ele>276.000</ele></trkpt>
      <trkpt lat="22.2587576830" lon="113.9294321677"><ele>278.000</ele></trkpt>
      <trkpt lat="22.2588249294" lon="113.9293877418"><ele>276.000</ele></trkpt>
      <trkpt lat="22.2589046018" lon="113.9292898375"><ele>272.000</ele></trkpt>
      <trkpt lat="22.2589396432" lon="113.9292264236"><ele>270.000</ele></trkpt>
      <trkpt lat="22.2589349152" lon="113.9291869585"><ele>270.000</ele></trkpt>
      <trkpt lat="22.2589099240" lon="113.9290845105"><ele>267.000</ele></trkpt>
      <trkpt lat="22.2589157415" lon="113.9290092963"><ele>266.000</ele></trkpt>
      <trkpt lat="22.2589379697" lon="113.9289461533"><ele>266.000</ele></trkpt>
      <trkpt lat="22.2589604618" lon="113.9288949846"><ele>266.000</ele></trkpt>
      <trkpt lat="22.2589926939" lon="113.9288565584"><ele>265.000</ele></trkpt>
      <trkpt lat="22.2591516703" lon="113.9287644729"><ele>259.000</ele></trkpt>
      <trkpt lat="22.2591644756" lon="113.9287570555"><ele>259.000</ele></trkpt>
      <trkpt lat="22.2591718427" lon="113.9287439937"><ele>256.000</ele></trkpt>
      <trkpt lat="22.2591752227" lon="113.9287219871"><ele>256.000</ele></trkpt>
      <trkpt lat="22.2591703148" lon="113.9286837292"><ele>254.000</ele></trkpt>
      <trkpt lat="22.2591382825" lon="113.9286607226"><ele>255.000</ele></trkpt>
      <trkpt lat="22.2591149129" lon="113.9286310202"><ele>252.000</ele></trkpt>
      <trkpt lat="22.2590994120" lon="113.9286033219"><ele>252.000</ele></trkpt>
      <trkpt lat="22.2590870909" lon="113.9285727521"><ele>249.000</ele></trkpt>
      <trkpt lat="22.2590632339" lon="113.9285574111"><ele>249.000</ele></trkpt>
      <trkpt lat="22.2590362939" lon="113.9285492374"><ele>248.000</ele></trkpt>
      <trkpt lat="22.2589997323" lon="113.9285046739"><ele>248.000</ele></trkpt>
      <trkpt lat="22.2589978181" lon="113.9285025206"><ele>246.000</ele></trkpt>
      <trkpt lat="22.2589393300" lon="113.9284324618"><ele>242.000</ele></trkpt>
      <trkpt lat="22.2589175080" lon="113.9283984822"><ele>239.000</ele></trkpt>
      <trkpt lat="22.2589032581" lon="113.9283574127"><ele>236.000</ele></trkpt>
    </trkseg>
  </trk>
</gpx>
