<?xml version="1.0" encoding="UTF-8"?>
<gpx xmlns:xsi="http://www.w3.org/2001/XMLSchema-instance"
     xsi:schemaLocation="http://www.topografix.com/GPX/1/1 http://www.topografix.com/GPX/1/1/gpx.xsd"
     version="1.1" creator="json3d_batch_to_gpx"
     xmlns="http://www.topografix.com/GPX/1/1">
  <metadata>
    <name>PottingerPeakCountryTrail</name>
  </metadata>
  <trk>
    <name>PottingerPeakCountryTrail</name>
    <type>hike</type>
    <trkseg>
      <trkpt lat="22.2558713826" lon="114.2402650251"><ele>184.000</ele></trkpt>
      <trkpt lat="22.2558996228" lon="114.2403263004"><ele>188.000</ele></trkpt>
      <trkpt lat="22.2559594864" lon="114.2403741669"><ele>192.000</ele></trkpt>
      <trkpt lat="22.2559821014" lon="114.2404007915"><ele>193.000</ele></trkpt>
      <trkpt lat="22.2559768439" lon="114.2404096932"><ele>192.000</ele></trkpt>
      <trkpt lat="22.2559692241" lon="114.2404182854"><ele>192.000</ele></trkpt>
      <trkpt lat="22.2559459621" lon="114.2404570997"><ele>192.000</ele></trkpt>
      <trkpt lat="22.2559206943" lon="114.2405263381"><ele>190.000</ele></trkpt>
      <trkpt lat="22.2558832393" lon="114.2406583345"><ele>196.000</ele></trkpt>
      <trkpt lat="22.2558293740" lon="114.2408435361"><ele>189.000</ele></trkpt>
      <trkpt lat="22.2557972368" lon="114.2409540305"><ele>188.000</ele></trkpt>
      <trkpt lat="22.2557709994" lon="114.2410471964"><ele>191.000</ele></trkpt>
      <trkpt lat="22.2557530952" lon="114.2411064619"><ele>192.000</ele></trkpt>
      <trkpt lat="22.2557428636" lon="114.2411404855"><ele>192.000</ele></trkpt>
      <trkpt lat="22.2557270117" lon="114.2411777992"><ele>192.000</ele></trkpt>
      <trkpt lat="22.2556983811" lon="114.2412321207"><ele>192.000</ele></trkpt>
      <trkpt lat="22.2556677033" lon="114.2412952232"><ele>192.000</ele></trkpt>
      <trkpt lat="22.2556360036" lon="114.2413572269"><ele>192.000</ele></trkpt>
      <trkpt lat="22.2556140182" lon="114.2414011231"><ele>192.000</ele></trkpt>
      <trkpt lat="22.2556037931" lon="114.2414208767"><ele>192.000</ele></trkpt>
      <trkpt lat="22.2555991879" lon="114.2414378891"><ele>192.000</ele></trkpt>
      <trkpt lat="22.2555971388" lon="114.2414538036"><ele>192.000</ele></trkpt>
      <trkpt lat="22.2555966220" lon="114.2414680734"><ele>192.000</ele></trkpt>
      <trkpt lat="22.2555966170" lon="114.2414806971"><ele>192.000</ele></trkpt>
      <trkpt lat="22.2555996757" lon="114.2414966149"><ele>192.000</ele></trkpt>
      <trkpt lat="22.2556057992" lon="114.2415152776"><ele>192.000</ele></trkpt>
      <trkpt lat="22.2556231532" lon="114.2415542529"><ele>191.000</ele></trkpt>
      <trkpt lat="22.2556415291" lon="114.2415943259"><ele>189.000</ele></trkpt>
      <trkpt lat="22.2556527573" lon="114.2416228711"><ele>189.000</ele></trkpt>
      <trkpt lat="22.2556558168" lon="114.2416365935"><ele>189.000</ele></trkpt>
      <trkpt lat="22.2556578530" lon="114.2416552544"><ele>189.000</ele></trkpt>
      <trkpt lat="22.2556583567" lon="114.2416739156"><ele>189.000</ele></trkpt>
      <trkpt lat="22.2556506823" lon="114.2417013529"><ele>190.000</ele></trkpt>
      <trkpt lat="22.2556337980" lon="114.2417639134"><ele>192.000</ele></trkpt>
      <trkpt lat="22.2556153783" lon="114.2418336068"><ele>192.000</ele></trkpt>
      <trkpt lat="22.2556005402" lon="114.2418917763"><ele>190.000</ele></trkpt>
      <trkpt lat="22.2555908171" lon="114.2419318373"><ele>190.000</ele></trkpt>
      <trkpt lat="22.2555892769" lon="114.2419510457"><ele>190.000</ele></trkpt>
      <trkpt lat="22.2555887598" lon="114.2419658636"><ele>190.000</ele></trkpt>
      <trkpt lat="22.2555892648" lon="114.2419812311"><ele>190.000</ele></trkpt>
      <trkpt lat="22.2555902791" lon="114.2419987943"><ele>190.000</ele></trkpt>
      <trkpt lat="22.2555928260" lon="114.2420185537"><ele>190.000</ele></trkpt>
      <trkpt lat="22.2555969049" lon="114.2420394120"><ele>190.000</ele></trkpt>
      <trkpt lat="22.2555999622" lon="114.2420586225"><ele>190.000</ele></trkpt>
      <trkpt lat="22.2556004652" lon="114.2420789291"><ele>190.000</ele></trkpt>
      <trkpt lat="22.2555989225" lon="114.2421019793"><ele>190.000</ele></trkpt>
      <trkpt lat="22.2555948255" lon="114.2421261265"><ele>190.000</ele></trkpt>
      <trkpt lat="22.2555861284" lon="114.2421568570"><ele>190.000</ele></trkpt>
      <trkpt lat="22.2555677163" lon="114.2422095367"><ele>190.000</ele></trkpt>
      <trkpt lat="22.2555564632" lon="114.2422430106"><ele>190.000</ele></trkpt>
      <trkpt lat="22.2555457195" lon="114.2422786801"><ele>190.000</ele></trkpt>
      <trkpt lat="22.2555334456" lon="114.2423110553"><ele>191.000</ele></trkpt>
      <trkpt lat="22.2555155522" lon="114.2423423306"><ele>188.000</ele></trkpt>
      <trkpt lat="22.2554961277" lon="114.2423703125"><ele>190.000</ele></trkpt>
      <trkpt lat="22.2554639267" lon="114.2424070693"><ele>190.000</ele></trkpt>
      <trkpt lat="22.2554317262" lon="114.2424449243"><ele>188.000</ele></trkpt>
      <trkpt lat="22.2554010581" lon="114.2424827791"><ele>190.000</ele></trkpt>
      <trkpt lat="22.2553918555" lon="114.2424992402"><ele>190.000</ele></trkpt>
      <trkpt lat="22.2553852060" lon="114.2425200925"><ele>190.000</ele></trkpt>
      <trkpt lat="22.2553841748" lon="114.2425420457"><ele>190.000</ele></trkpt>
      <trkpt lat="22.2553872334" lon="114.2425601589"><ele>190.000</ele></trkpt>
      <trkpt lat="22.2553928434" lon="114.2425843097"><ele>192.000</ele></trkpt>
      <trkpt lat="22.2553948786" lon="114.2426051670"><ele>192.000</ele></trkpt>
      <trkpt lat="22.2553943601" lon="114.2426232776"><ele>192.000</ele></trkpt>
      <trkpt lat="22.2553897553" lon="114.2426391918"><ele>190.000</ele></trkpt>
      <trkpt lat="22.2553831081" lon="114.2426540078"><ele>190.000</ele></trkpt>
      <trkpt lat="22.2553713521" lon="114.2426671741"><ele>190.000</ele></trkpt>
      <trkpt lat="22.2553498888" lon="114.2426830804"><ele>190.000</ele></trkpt>
      <trkpt lat="22.2553084976" lon="114.2427077583"><ele>192.000</ele></trkpt>
      <trkpt lat="22.2552752814" lon="114.2427291472"><ele>190.000</ele></trkpt>
      <trkpt lat="22.2552604630" lon="114.2427357267"><ele>190.000</ele></trkpt>
      <trkpt lat="22.2552436048" lon="114.2427351697"><ele>190.000</ele></trkpt>
      <trkpt lat="22.2552298131" lon="114.2427285769"><ele>190.000</ele></trkpt>
      <trkpt lat="22.2552185776" lon="114.2427208880"><ele>190.000</ele></trkpt>
      <trkpt lat="22.2552124531" lon="114.2427049698"><ele>190.000</ele></trkpt>
      <trkpt lat="22.2552053100" lon="114.2426824637"><ele>189.000</ele></trkpt>
      <trkpt lat="22.2551976555" lon="114.2426605065"><ele>189.000</ele></trkpt>
      <trkpt lat="22.2551859128" lon="114.2426429383"><ele>188.000</ele></trkpt>
      <trkpt lat="22.2551685492" lon="114.2426259167"><ele>188.000</ele></trkpt>
      <trkpt lat="22.2551496511" lon="114.2426138333"><ele>188.000</ele></trkpt>
      <trkpt lat="22.2551302408" lon="114.2426066897"><ele>188.000</ele></trkpt>
      <trkpt lat="22.2551067403" lon="114.2426066788"><ele>188.000</ele></trkpt>
      <trkpt lat="22.2550832371" lon="114.2426132532"><ele>188.000</ele></trkpt>
      <trkpt lat="22.2550587115" lon="114.2426225726"><ele>188.000</ele></trkpt>
      <trkpt lat="22.2550321400" lon="114.2426351829"><ele>188.000</ele></trkpt>
      <trkpt lat="22.2549958595" lon="114.2426549240"><ele>190.000</ele></trkpt>
      <trkpt lat="22.2549483371" lon="114.2426801481"><ele>188.000</ele></trkpt>
      <trkpt lat="22.2549192104" lon="114.2426960507"><ele>189.000</ele></trkpt>
      <trkpt lat="22.2548962168" lon="114.2427064681"><ele>189.000</ele></trkpt>
      <trkpt lat="22.2548798688" lon="114.2427059114"><ele>188.000</ele></trkpt>
      <trkpt lat="22.2548558592" lon="114.2427009611"><ele>188.000</ele></trkpt>
      <trkpt lat="22.2548292968" lon="114.2426932641"><ele>186.000</ele></trkpt>
      <trkpt lat="22.2548078395" lon="114.2426943523"><ele>188.000</ele></trkpt>
      <trkpt lat="22.2547914896" lon="114.2426987356"><ele>188.000</ele></trkpt>
      <trkpt lat="22.2547725819" lon="114.2427102521"><ele>188.000</ele></trkpt>
      <trkpt lat="22.2547531629" lon="114.2427245120"><ele>187.000</ele></trkpt>
      <trkpt lat="22.2547092140" lon="114.2427563240"><ele>188.000</ele></trkpt>
      <trkpt lat="22.2546438021" lon="114.2428034931"><ele>187.000</ele></trkpt>
      <trkpt lat="22.2545865660" lon="114.2428451778"><ele>186.000</ele></trkpt>
      <trkpt lat="22.2545410839" lon="114.2428786344"><ele>186.000</ele></trkpt>
      <trkpt lat="22.2545231974" lon="114.2428928959"><ele>185.000</ele></trkpt>
      <trkpt lat="22.2545078634" lon="114.2429126468"><ele>185.000</ele></trkpt>
      <trkpt lat="22.2544966151" lon="114.2429340459"><ele>185.000</ele></trkpt>
      <trkpt lat="22.2544899635" lon="114.2429576426"><ele>188.000</ele></trkpt>
      <trkpt lat="22.2544848434" lon="114.2429856299"><ele>188.000</ele></trkpt>
      <trkpt lat="22.2544802303" lon="114.2430240466"><ele>188.000</ele></trkpt>
      <trkpt lat="22.2544720448" lon="114.2430509353"><ele>188.000</ele></trkpt>
      <trkpt lat="22.2544633522" lon="114.2430701401"><ele>188.000</ele></trkpt>
      <trkpt lat="22.2544275749" lon="114.2431090902"><ele>188.000</ele></trkpt>
      <trkpt lat="22.2543733992" lon="114.2431617525"><ele>187.000</ele></trkpt>
      <trkpt lat="22.2542854927" lon="114.2432484267"><ele>186.000</ele></trkpt>
      <trkpt lat="22.2542042305" lon="114.2433274194"><ele>187.000</ele></trkpt>
      <trkpt lat="22.2541791868" lon="114.2433515565"><ele>187.000</ele></trkpt>
      <trkpt lat="22.2541602768" lon="114.2433707564"><ele>186.000</ele></trkpt>
      <trkpt lat="22.2541388119" lon="114.2433905043"><ele>187.000</ele></trkpt>
      <trkpt lat="22.2541234749" lon="114.2434151950"><ele>186.000</ele></trkpt>
      <trkpt lat="22.2541127357" lon="114.2434415333"><ele>187.000</ele></trkpt>
      <trkpt lat="22.2541076178" lon="114.2434640324"><ele>187.000</ele></trkpt>
      <trkpt lat="22.2541070952" lon="114.2434920228"><ele>188.000</ele></trkpt>
      <trkpt lat="22.2541091276" lon="114.2435194653"><ele>188.000</ele></trkpt>
      <trkpt lat="22.2541132018" lon="114.2435512997"><ele>188.000</ele></trkpt>
      <trkpt lat="22.2541198258" lon="114.2435930133"><ele>188.000</ele></trkpt>
      <trkpt lat="22.2541223709" lon="114.2436166142"><ele>188.000</ele></trkpt>
      <trkpt lat="22.2541198073" lon="114.2436380173"><ele>188.000</ele></trkpt>
      <trkpt lat="22.2541141805" lon="114.2436550291"><ele>188.000</ele></trkpt>
      <trkpt lat="22.2541008901" lon="114.2436725853"><ele>189.000</ele></trkpt>
      <trkpt lat="22.2540860701" lon="114.2436830054"><ele>189.000</ele></trkpt>
      <trkpt lat="22.2540666520" lon="114.2436950706"><ele>188.000</ele></trkpt>
      <trkpt lat="22.2540482545" lon="114.2437087827"><ele>188.000</ele></trkpt>
      <trkpt lat="22.2540329209" lon="114.2437252407"><ele>187.000</ele></trkpt>
      <trkpt lat="22.2540186050" lon="114.2437548699"><ele>187.000</ele></trkpt>
      <trkpt lat="22.2540042864" lon="114.2437866955"><ele>189.000</ele></trkpt>
      <trkpt lat="22.2539899694" lon="114.2438168747"><ele>188.000</ele></trkpt>
      <trkpt lat="22.2539771842" lon="114.2438487001"><ele>188.000</ele></trkpt>
      <trkpt lat="22.2539710460" lon="114.2438684551"><ele>189.000</ele></trkpt>
      <trkpt lat="22.2539684849" lon="114.2438838210"><ele>189.000</ele></trkpt>
      <trkpt lat="22.2539694966" lon="114.2439096167"><ele>190.000</ele></trkpt>
      <trkpt lat="22.2539684661" lon="114.2439293741"><ele>190.000</ele></trkpt>
      <trkpt lat="22.2539643732" lon="114.2439430930"><ele>190.000</ele></trkpt>
      <trkpt lat="22.2539567048" lon="114.2439573592"><ele>192.000</ele></trkpt>
      <trkpt lat="22.2539464827" lon="114.2439666842"><ele>192.000</ele></trkpt>
      <trkpt lat="22.2539301300" lon="114.2439776526"><ele>190.000</ele></trkpt>
      <trkpt lat="22.2539117368" lon="114.2439809375"><ele>190.000</ele></trkpt>
      <trkpt lat="22.2538872142" lon="114.2439825721"><ele>189.000</ele></trkpt>
      <trkpt lat="22.2538540058" lon="114.2439847517"><ele>188.000</ele></trkpt>
      <trkpt lat="22.2538146666" lon="114.2439885747"><ele>188.000</ele></trkpt>
      <trkpt lat="22.2537732816" lon="114.2439978848"><ele>186.000</ele></trkpt>
      <trkpt lat="22.2537390481" lon="114.2440066493"><ele>188.000</ele></trkpt>
      <trkpt lat="22.2537007247" lon="114.2440241935"><ele>186.000</ele></trkpt>
      <trkpt lat="22.2536736412" lon="114.2440406458"><ele>184.000</ele></trkpt>
      <trkpt lat="22.2536475764" lon="114.2440658794"><ele>186.000</ele></trkpt>
      <trkpt lat="22.2536276405" lon="114.2440938604"><ele>184.000</ele></trkpt>
      <trkpt lat="22.2536174103" lon="114.2441229433"><ele>186.000</ele></trkpt>
      <trkpt lat="22.2536112655" lon="114.2441586145"><ele>187.000</ele></trkpt>
      <trkpt lat="22.2536035825" lon="114.2442058092"><ele>188.000</ele></trkpt>
      <trkpt lat="22.2535912881" lon="114.2442864813"><ele>189.000</ele></trkpt>
      <trkpt lat="22.2535841208" lon="114.2443227010"><ele>188.000</ele></trkpt>
      <trkpt lat="22.2535764469" lon="114.2443457479"><ele>188.000</ele></trkpt>
      <trkpt lat="22.2535646877" lon="114.2443682438"><ele>188.000</ele></trkpt>
      <trkpt lat="22.2535524188" lon="114.2443874467"><ele>188.000</ele></trkpt>
      <trkpt lat="22.2535345308" lon="114.2444050006"><ele>188.000</ele></trkpt>
      <trkpt lat="22.2535186860" lon="114.2444214582"><ele>188.000</ele></trkpt>
      <trkpt lat="22.2535038632" lon="114.2444406599"><ele>188.000</ele></trkpt>
      <trkpt lat="22.2534946579" lon="114.2444609625"><ele>188.000</ele></trkpt>
      <trkpt lat="22.2534910754" lon="114.2444785233"><ele>186.000</ele></trkpt>
      <trkpt lat="22.2534895349" lon="114.2444977313"><ele>187.000</ele></trkpt>
      <trkpt lat="22.2534895248" lon="114.2445218791"><ele>187.000</ele></trkpt>
      <trkpt lat="22.2534966636" lon="114.2445542639"><ele>190.000</ele></trkpt>
      <trkpt lat="22.2535073802" lon="114.2445828077"><ele>190.000</ele></trkpt>
      <trkpt lat="22.2535237139" lon="114.2446173924"><ele>188.000</ele></trkpt>
      <trkpt lat="22.2535451504" lon="114.2446662484"><ele>190.000</ele></trkpt>
      <trkpt lat="22.2535650546" lon="114.2447145546"><ele>189.000</ele></trkpt>
      <trkpt lat="22.2536002721" lon="114.2447952496"><ele>190.000</ele></trkpt>
      <trkpt lat="22.2536125185" lon="114.2448298314"><ele>190.000</ele></trkpt>
      <trkpt lat="22.2536211925" lon="114.2448556307"><ele>190.000</ele></trkpt>
      <trkpt lat="22.2536262899" lon="114.2448825255"><ele>190.000</ele></trkpt>
      <trkpt lat="22.2536262777" lon="114.2449116132"><ele>190.000</ele></trkpt>
      <trkpt lat="22.2536262540" lon="114.2449681425"><ele>190.000</ele></trkpt>
      <trkpt lat="22.2536272480" lon="114.2450356484"><ele>190.000</ele></trkpt>
      <trkpt lat="22.2536261990" lon="114.2450993125"><ele>190.000</ele></trkpt>
      <trkpt lat="22.2536272051" lon="114.2451377306"><ele>192.000</ele></trkpt>
      <trkpt lat="22.2536220872" lon="114.2451574861"><ele>192.000</ele></trkpt>
      <trkpt lat="22.2536133948" lon="114.2451755934"><ele>192.000</ele></trkpt>
      <trkpt lat="22.2535985708" lon="114.2451953442"><ele>192.000</ele></trkpt>
      <trkpt lat="22.2535760839" lon="114.2452139929"><ele>190.000</ele></trkpt>
      <trkpt lat="22.2535428645" lon="114.2452441628"><ele>191.000</ele></trkpt>
      <trkpt lat="22.2535244643" lon="114.2452639108"><ele>188.000</ele></trkpt>
      <trkpt lat="22.2535101515" lon="114.2452836617"><ele>190.000</ele></trkpt>
      <trkpt lat="22.2535019700" lon="114.2453001230"><ele>190.000</ele></trkpt>
      <trkpt lat="22.2534942966" lon="114.2453237189"><ele>192.000</ele></trkpt>
      <trkpt lat="22.2534871286" lon="114.2453632312"><ele>191.000</ele></trkpt>
      <trkpt lat="22.2534809817" lon="114.2454010968"><ele>191.000</ele></trkpt>
      <trkpt lat="22.2534743220" lon="114.2454450002"><ele>192.000</ele></trkpt>
      <trkpt lat="22.2534717570" lon="114.2454691467"><ele>192.000</ele></trkpt>
      <trkpt lat="22.2534727716" lon="114.2454872588"><ele>192.000</ele></trkpt>
      <trkpt lat="22.2534753169" lon="114.2455075670"><ele>191.000</ele></trkpt>
      <trkpt lat="22.2534839894" lon="114.2455366580"><ele>191.000</ele></trkpt>
      <trkpt lat="22.2534957243" lon="114.2455739851"><ele>192.000</ele></trkpt>
      <trkpt lat="22.2535054200" lon="114.2456008822"><ele>192.000</ele></trkpt>
      <trkpt lat="22.2535120521" lon="114.2456222896"><ele>194.000</ele></trkpt>
      <trkpt lat="22.2535125581" lon="114.2456343643"><ele>194.000</ele></trkpt>
      <trkpt lat="22.2535094880" lon="114.2456442417"><ele>194.000</ele></trkpt>
      <trkpt lat="22.2535028422" lon="114.2456552146"><ele>194.000</ele></trkpt>
      <trkpt lat="22.2534864878" lon="114.2456700246"><ele>191.000</ele></trkpt>
      <trkpt lat="22.2534614432" lon="114.2456952593"><ele>191.000</ele></trkpt>
      <trkpt lat="22.2534384440" lon="114.2457182986"><ele>190.000</ele></trkpt>
      <trkpt lat="22.2534123783" lon="114.2457451782"><ele>190.000</ele></trkpt>
      <trkpt lat="22.2534041963" lon="114.2457627366"><ele>190.000</ele></trkpt>
      <trkpt lat="22.2534006122" lon="114.2457813946"><ele>189.000</ele></trkpt>
      <trkpt lat="22.2533985590" lon="114.2458038960"><ele>188.000</ele></trkpt>
      <trkpt lat="22.2533985469" lon="114.2458324346"><ele>188.000</ele></trkpt>
      <trkpt lat="22.2533939170" lon="114.2459087194"><ele>188.000</ele></trkpt>
      <trkpt lat="22.2533903138" lon="114.2459723821"><ele>189.000</ele></trkpt>
      <trkpt lat="22.2533872231" lon="114.2460305561"><ele>189.000</ele></trkpt>
      <trkpt lat="22.2533815645" lon="114.2461238537"><ele>189.000</ele></trkpt>
      <trkpt lat="22.2533769314" lon="114.2462050774"><ele>190.000</ele></trkpt>
      <trkpt lat="22.2533738373" lon="114.2462731303"><ele>190.000</ele></trkpt>
      <trkpt lat="22.2533707609" lon="114.2462978266"><ele>191.000</ele></trkpt>
      <trkpt lat="22.2533646196" lon="114.2463241667"><ele>191.000</ele></trkpt>
      <trkpt lat="22.2533523382" lon="114.2463719091"><ele>188.000</ele></trkpt>
      <trkpt lat="22.2533400560" lon="114.2464196504"><ele>188.000</ele></trkpt>
      <trkpt lat="22.2533282881" lon="114.2464619049"><ele>190.000</ele></trkpt>
      <trkpt lat="22.2533216354" lon="114.2464865984"><ele>190.000</ele></trkpt>
      <trkpt lat="22.2533195845" lon="114.2465058062"><ele>190.000</ele></trkpt>
      <trkpt lat="22.2533195772" lon="114.2465228205"><ele>190.000</ele></trkpt>
      <trkpt lat="22.2533195687" lon="114.2465425774"><ele>190.000</ele></trkpt>
      <trkpt lat="22.2533236471" lon="114.2465612401"><ele>190.000</ele></trkpt>
      <trkpt lat="22.2533297688" lon="114.2465826473"><ele>188.000</ele></trkpt>
      <trkpt lat="22.2533353796" lon="114.2466035052"><ele>188.000</ele></trkpt>
      <trkpt lat="22.2533455875" lon="114.2466254636"><ele>186.000</ele></trkpt>
      <trkpt lat="22.2533578404" lon="114.2466441294"><ele>191.000</ele></trkpt>
      <trkpt lat="22.2533746905" lon="114.2466655429"><ele>191.000</ele></trkpt>
      <trkpt lat="22.2533920539" lon="114.2466820158"><ele>189.000</ele></trkpt>
      <trkpt lat="22.2534278014" lon="114.2467144139"><ele>191.000</ele></trkpt>
      <trkpt lat="22.2534497612" lon="114.2467336346"><ele>191.000</ele></trkpt>
      <trkpt lat="22.2534620162" lon="114.2467473613"><ele>191.000</ele></trkpt>
      <trkpt lat="22.2534701860" lon="114.2467583416"><ele>191.000</ele></trkpt>
      <trkpt lat="22.2534732463" lon="114.2467693193"><ele>191.000</ele></trkpt>
      <trkpt lat="22.2534747722" lon="114.2467846881"><ele>191.000</ele></trkpt>
      <trkpt lat="22.2534716999" lon="114.2468016999"><ele>191.000</ele></trkpt>
      <trkpt lat="22.2534665863" lon="114.2468132226"><ele>191.000</ele></trkpt>
      <trkpt lat="22.2534594309" lon="114.2468203535"><ele>192.000</ele></trkpt>
      <trkpt lat="22.2534461420" lon="114.2468335185"><ele>188.000</ele></trkpt>
      <trkpt lat="22.2534226359" lon="114.2468466794"><ele>188.000</ele></trkpt>
      <trkpt lat="22.2533975958" lon="114.2468631312"><ele>188.000</ele></trkpt>
      <trkpt lat="22.2533725553" lon="114.2468784858"><ele>190.000</ele></trkpt>
      <trkpt lat="22.2533541561" lon="114.2468954909"><ele>188.000</ele></trkpt>
      <trkpt lat="22.2533393337" lon="114.2469130460"><ele>188.000</ele></trkpt>
      <trkpt lat="22.2533306393" lon="114.2469333477"><ele>190.000</ele></trkpt>
      <trkpt lat="22.2533265448" lon="114.2469520063"><ele>190.000</ele></trkpt>
      <trkpt lat="22.2533260259" lon="114.2469701166"><ele>190.000</ele></trkpt>
      <trkpt lat="22.2533280406" lon="114.2470370748"><ele>190.000</ele></trkpt>
      <trkpt lat="22.2533300612" lon="114.2470903123"><ele>192.000</ele></trkpt>
      <trkpt lat="22.2533320759" lon="114.2471572704"><ele>190.000</ele></trkpt>
      <trkpt lat="22.2533340935" lon="114.2472154469"><ele>190.000</ele></trkpt>
      <trkpt lat="22.2533361105" lon="114.2472769160"><ele>190.000</ele></trkpt>
      <trkpt lat="22.2533376339" lon="114.2472977728"><ele>190.000</ele></trkpt>
      <trkpt lat="22.2533427349" lon="114.2473175332"><ele>190.000</ele></trkpt>
      <trkpt lat="22.2533529439" lon="114.2473367471"><ele>190.000</ele></trkpt>
      <trkpt lat="22.2533631531" lon="114.2473554119"><ele>192.000</ele></trkpt>
      <trkpt lat="22.2533830624" lon="114.2473899977"><ele>192.000</ele></trkpt>
      <trkpt lat="22.2533932696" lon="114.2474152498"><ele>191.000</ele></trkpt>
      <trkpt lat="22.2533988787" lon="114.2474399495"><ele>191.000</ele></trkpt>
      <trkpt lat="22.2533978466" lon="114.2474624504"><ele>192.000</ele></trkpt>
      <trkpt lat="22.2533901744" lon="114.2474827535"><ele>192.000</ele></trkpt>
      <trkpt lat="22.2533743271" lon="114.2475063452"><ele>192.000</ele></trkpt>
      <trkpt lat="22.2533513291" lon="114.2475260916"><ele>190.000</ele></trkpt>
      <trkpt lat="22.2532986912" lon="114.2475655799"><ele>191.000</ele></trkpt>
      <trkpt lat="22.2532353214" lon="114.2476127473"><ele>190.000</ele></trkpt>
      <trkpt lat="22.2531739956" lon="114.2476571722"><ele>189.000</ele></trkpt>
      <trkpt lat="22.2531525306" lon="114.2476758210"><ele>189.000</ele></trkpt>
      <trkpt lat="22.2531387295" lon="114.2476933765"><ele>192.000</ele></trkpt>
      <trkpt lat="22.2531126563" lon="114.2477345254"><ele>190.000</ele></trkpt>
      <trkpt lat="22.2530824955" lon="114.2477784158"><ele>192.000</ele></trkpt>
      <trkpt lat="22.2530564220" lon="114.2478201137"><ele>192.000</ele></trkpt>
      <trkpt lat="22.2530283051" lon="114.2478634570"><ele>191.000</ele></trkpt>
      <trkpt lat="22.2530017219" lon="114.2479018611"><ele>191.000</ele></trkpt>
      <trkpt lat="22.2529771839" lon="114.2479386198"><ele>190.000</ele></trkpt>
      <trkpt lat="22.2529674678" lon="114.2479594709"><ele>190.000</ele></trkpt>
      <trkpt lat="22.2529618415" lon="114.2479742860"><ele>190.000</ele></trkpt>
      <trkpt lat="22.2529567249" lon="114.2479923949"><ele>192.000</ele></trkpt>
      <trkpt lat="22.2529521075" lon="114.2480357500"><ele>192.000</ele></trkpt>
      <trkpt lat="22.2529403043" lon="114.2481575826"><ele>195.000</ele></trkpt>
      <trkpt lat="22.2529310681" lon="114.2482492317"><ele>196.000</ele></trkpt>
      <trkpt lat="22.2529300280" lon="114.2482898440"><ele>196.000</ele></trkpt>
      <trkpt lat="22.2529320613" lon="114.2483134446"><ele>196.000</ele></trkpt>
      <trkpt lat="22.2529402177" lon="114.2483546107"><ele>196.000</ele></trkpt>
      <trkpt lat="22.2529529571" lon="114.2484287086"><ele>197.000</ele></trkpt>
      <trkpt lat="22.2529702858" lon="114.2485214694"><ele>200.000</ele></trkpt>
      <trkpt lat="22.2529758911" lon="114.2485544016"><ele>200.000</ele></trkpt>
      <trkpt lat="22.2529789461" lon="114.2485791000"><ele>200.000</ele></trkpt>
      <trkpt lat="22.2529768964" lon="114.2485928196"><ele>200.000</ele></trkpt>
      <trkpt lat="22.2529738251" lon="114.2486048923"><ele>200.000</ele></trkpt>
      <trkpt lat="22.2529753487" lon="114.2486252000"><ele>200.000</ele></trkpt>
      <trkpt lat="22.2529835080" lon="114.2486597799"><ele>200.000</ele></trkpt>
      <trkpt lat="22.2529998246" lon="114.2487311351"><ele>197.000</ele></trkpt>
      <trkpt lat="22.2530181786" lon="114.2488167621"><ele>197.000</ele></trkpt>
      <trkpt lat="22.2530278710" lon="114.2488496965"><ele>197.000</ele></trkpt>
      <trkpt lat="22.2530350160" lon="114.2488661643"><ele>196.000</ele></trkpt>
      <trkpt lat="22.2530447161" lon="114.2488798900"><ele>196.000</ele></trkpt>
      <trkpt lat="22.2530574833" lon="114.2488908736"><ele>196.000</ele></trkpt>
      <trkpt lat="22.2530646346" lon="114.2488930717"><ele>196.000</ele></trkpt>
      <trkpt lat="22.2530789204" lon="114.2489353392"><ele>196.000</ele></trkpt>
      <trkpt lat="22.2530881066" lon="114.2489572972"><ele>198.000</ele></trkpt>
      <trkpt lat="22.2531289317" lon="114.2490604972"><ele>198.000</ele></trkpt>
      <trkpt lat="22.2531513846" lon="114.2491175859"><ele>200.000</ele></trkpt>
      <trkpt lat="22.2531850637" lon="114.2492065136"><ele>202.000</ele></trkpt>
      <trkpt lat="22.2532121122" lon="114.2492696428"><ele>202.000</ele></trkpt>
      <trkpt lat="22.2532524299" lon="114.2493640611"><ele>202.000</ele></trkpt>
      <trkpt lat="22.2532738640" lon="114.2494151131"><ele>202.000</ele></trkpt>
      <trkpt lat="22.2532968234" lon="114.2494820821"><ele>202.000</ele></trkpt>
      <trkpt lat="22.2533182532" lon="114.2495446594"><ele>202.000</ele></trkpt>
      <trkpt lat="22.2533284597" lon="114.2495688125"><ele>202.000</ele></trkpt>
      <trkpt lat="22.2533340620" lon="114.2496077820"><ele>202.000</ele></trkpt>
      <trkpt lat="22.2533523909" lon="114.2497482911"><ele>202.000</ele></trkpt>
      <trkpt lat="22.2533590069" lon="114.2498042755"><ele>204.000</ele></trkpt>
      <trkpt lat="22.2533492885" lon="114.2498295165"><ele>202.000</ele></trkpt>
      <trkpt lat="22.2533600151" lon="114.2498355592"><ele>204.000</ele></trkpt>
      <trkpt lat="22.2533671654" lon="114.2498399538"><ele>204.000</ele></trkpt>
      <trkpt lat="22.2533686950" lon="114.2498465399"><ele>204.000</ele></trkpt>
      <trkpt lat="22.2533661348" lon="114.2498586129"><ele>204.000</ele></trkpt>
      <trkpt lat="22.2533625522" lon="114.2498728809"><ele>204.000</ele></trkpt>
      <trkpt lat="22.2533656118" lon="114.2498849568"><ele>204.000</ele></trkpt>
      <trkpt lat="22.2533732715" lon="114.2498931924"><ele>204.000</ele></trkpt>
      <trkpt lat="22.2533896172" lon="114.2498986900"><ele>204.000</ele></trkpt>
      <trkpt lat="22.2534085131" lon="114.2499146149"><ele>206.000</ele></trkpt>
      <trkpt lat="22.2534396651" lon="114.2499409753"><ele>206.000</ele></trkpt>
      <trkpt lat="22.2534652043" lon="114.2499519647"><ele>206.000</ele></trkpt>
      <trkpt lat="22.2535024903" lon="114.2499695466"><ele>208.000</ele></trkpt>
      <trkpt lat="22.2535341572" lon="114.2499876746"><ele>207.000</ele></trkpt>
      <trkpt lat="22.2535576501" lon="114.2500025047"><ele>208.000</ele></trkpt>
      <trkpt lat="22.2535872724" lon="114.2500228271"><ele>208.000</ele></trkpt>
      <trkpt lat="22.2536158713" lon="114.2500475389"><ele>208.000</ele></trkpt>
      <trkpt lat="22.2536393648" lon="114.2500629182"><ele>210.000</ele></trkpt>
      <trkpt lat="22.2536597966" lon="114.2500711615"><ele>210.000</ele></trkpt>
      <trkpt lat="22.2536899284" lon="114.2500931305"><ele>212.000</ele></trkpt>
      <trkpt lat="22.2537195516" lon="114.2501112575"><ele>213.000</ele></trkpt>
      <trkpt lat="22.2537353832" lon="114.2501233401"><ele>212.000</ele></trkpt>
      <trkpt lat="22.2537425301" lon="114.2501354173"><ele>212.000</ele></trkpt>
      <trkpt lat="22.2537486539" lon="114.2501491412"><ele>212.000</ele></trkpt>
      <trkpt lat="22.2537573351" lon="114.2501590247"><ele>212.000</ele></trkpt>
      <trkpt lat="22.2537665276" lon="114.2501667130"><ele>214.000</ele></trkpt>
      <trkpt lat="22.2537741850" lon="114.2501798896"><ele>214.000</ele></trkpt>
      <trkpt lat="22.2537762193" lon="114.2501985504"><ele>214.000</ele></trkpt>
      <trkpt lat="22.2537751893" lon="114.2502177587"><ele>216.000</ele></trkpt>
      <trkpt lat="22.2537767141" lon="114.2502347729"><ele>216.000</ele></trkpt>
      <trkpt lat="22.2537828361" lon="114.2502545341"><ele>216.000</ele></trkpt>
      <trkpt lat="22.2537945735" lon="114.2502819817"><ele>216.000</ele></trkpt>
      <trkpt lat="22.2538027357" lon="114.2503094274"><ele>216.000</ele></trkpt>
      <trkpt lat="22.2538129410" lon="114.2503357770"><ele>218.000</ele></trkpt>
      <trkpt lat="22.2538604186" lon="114.2504120890"><ele>220.000</ele></trkpt>
      <trkpt lat="22.2538731765" lon="114.2504433790"><ele>220.000</ele></trkpt>
      <trkpt lat="22.2538925780" lon="114.2504691833"><ele>220.000</ele></trkpt>
      <trkpt lat="22.2539087853" lon="114.2504872287"><ele>222.000</ele></trkpt>
      <trkpt lat="22.2539189347" lon="114.2504975010"><ele>222.000</ele></trkpt>
      <trkpt lat="22.2539362486" lon="114.2505186864"><ele>222.000</ele></trkpt>
      <trkpt lat="22.2539553522" lon="114.2505424397"><ele>224.000</ele></trkpt>
      <trkpt lat="22.2539637088" lon="114.2505572039"><ele>224.000</ele></trkpt>
      <trkpt lat="22.2539726579" lon="114.2505815932"><ele>224.000</ele></trkpt>
      <trkpt lat="22.2539845915" lon="114.2506104767"><ele>224.000</ele></trkpt>
      <trkpt lat="22.2540013032" lon="114.2506412876"><ele>224.000</ele></trkpt>
      <trkpt lat="22.2540156274" lon="114.2506676054"><ele>224.000</ele></trkpt>
      <trkpt lat="22.2540329421" lon="114.2506849403"><ele>224.000</ele></trkpt>
      <trkpt lat="22.2540538403" lon="114.2507042029"><ele>224.000</ele></trkpt>
      <trkpt lat="22.2540836974" lon="114.2507260371"><ele>226.000</ele></trkpt>
      <trkpt lat="22.2541165408" lon="114.2507485142"><ele>227.000</ele></trkpt>
      <trkpt lat="22.2541499825" lon="114.2507697081"><ele>228.000</ele></trkpt>
      <trkpt lat="22.2541780512" lon="114.2507844817"><ele>230.000</ele></trkpt>
      <trkpt lat="22.2542001476" lon="114.2507960448"><ele>230.000</ele></trkpt>
      <trkpt lat="22.2542282195" lon="114.2508018348"><ele>230.000</ele></trkpt>
      <trkpt lat="22.2542521119" lon="114.2508056979"><ele>230.000</ele></trkpt>
      <trkpt lat="22.2542837707" lon="114.2508057145"><ele>229.000</ele></trkpt>
      <trkpt lat="22.2543124442" lon="114.2508031626"><ele>228.000</ele></trkpt>
      <trkpt lat="22.2543417188" lon="114.2507935522"><ele>230.000</ele></trkpt>
      <trkpt lat="22.2543662134" lon="114.2507858640"><ele>229.000</ele></trkpt>
      <trkpt lat="22.2543919017" lon="114.2507788187"><ele>229.000</ele></trkpt>
      <trkpt lat="22.2544134078" lon="114.2507756217"><ele>228.000</ele></trkpt>
      <trkpt lat="22.2544343147" lon="114.2507756327"><ele>228.000</ele></trkpt>
      <trkpt lat="22.2544528306" lon="114.2507788507"><ele>226.000</ele></trkpt>
      <trkpt lat="22.2544803047" lon="114.2507865662"><ele>226.000</ele></trkpt>
      <trkpt lat="22.2545340590" lon="114.2508019955"><ele>224.000</ele></trkpt>
      <trkpt lat="22.2545716863" lon="114.2508135659"><ele>224.000</ele></trkpt>
      <trkpt lat="22.2546170759" lon="114.2508321991"><ele>224.000</ele></trkpt>
      <trkpt lat="22.2546439506" lon="114.2508431226"><ele>224.000</ele></trkpt>
      <trkpt lat="22.2546660502" lon="114.2508476260"><ele>222.000</ele></trkpt>
      <trkpt lat="22.2546899436" lon="114.2508495643"><ele>222.000</ele></trkpt>
      <trkpt lat="22.2547257841" lon="114.2508482996"><ele>221.000</ele></trkpt>
      <trkpt lat="22.2547693916" lon="114.2508457555"><ele>220.000</ele></trkpt>
      <trkpt lat="22.2548034396" lon="114.2508464147"><ele>220.000</ele></trkpt>
      <trkpt lat="22.2548518229" lon="114.2508490071"><ele>220.000</ele></trkpt>
      <trkpt lat="22.2548792988" lon="114.2508528721"><ele>220.000</ele></trkpt>
      <trkpt lat="22.2549043851" lon="114.2508586606"><ele>218.000</ele></trkpt>
      <trkpt lat="22.2549270799" lon="114.2508670149"><ele>218.000</ele></trkpt>
      <trkpt lat="22.2549617202" lon="114.2508798672"><ele>216.000</ele></trkpt>
      <trkpt lat="22.2549885982" lon="114.2508856576"><ele>216.000</ele></trkpt>
      <trkpt lat="22.2550136854" lon="114.2508875956"><ele>216.000</ele></trkpt>
      <trkpt lat="22.2550638606" lon="114.2508895468"><ele>215.000</ele></trkpt>
      <trkpt lat="22.2551134378" lon="114.2508959904"><ele>212.000</ele></trkpt>
      <trkpt lat="22.2551648046" lon="114.2509050011"><ele>212.000</ele></trkpt>
      <trkpt lat="22.2552060168" lon="114.2509152908"><ele>212.000</ele></trkpt>
      <trkpt lat="22.2552472269" lon="114.2509300715"><ele>212.000</ele></trkpt>
      <trkpt lat="22.2552717116" lon="114.2509422772"><ele>209.000</ele></trkpt>
      <trkpt lat="22.2553033622" lon="114.2509621869"><ele>208.000</ele></trkpt>
      <trkpt lat="22.2553368053" lon="114.2509801727"><ele>208.000</ele></trkpt>
      <trkpt lat="22.2553708463" lon="114.2509962341"><ele>207.000</ele></trkpt>
      <trkpt lat="22.2553804002" lon="114.2510032980"><ele>207.000</ele></trkpt>
      <trkpt lat="22.2553887591" lon="114.2510129283"><ele>206.000</ele></trkpt>
      <trkpt lat="22.2553983087" lon="114.2510296170"><ele>206.000</ele></trkpt>
      <trkpt lat="22.2554078588" lon="114.2510450243"><ele>205.000</ele></trkpt>
      <trkpt lat="22.2554263668" lon="114.2510655683"><ele>205.000</ele></trkpt>
      <trkpt lat="22.2554502501" lon="114.2510893245"><ele>202.000</ele></trkpt>
      <trkpt lat="22.2554801075" lon="114.2511105168"><ele>202.000</ele></trkpt>
      <trkpt lat="22.2555165357" lon="114.2511317135"><ele>202.000</ele></trkpt>
      <trkpt lat="22.2555672958" lon="114.2511619005"><ele>200.000</ele></trkpt>
      <trkpt lat="22.2556258194" lon="114.2511965844"><ele>198.000</ele></trkpt>
      <trkpt lat="22.2556670210" lon="114.2512280509"><ele>196.000</ele></trkpt>
      <trkpt lat="22.2556998660" lon="114.2512486026"><ele>196.000</ele></trkpt>
      <trkpt lat="22.2557356992" lon="114.2512653062"><ele>195.000</ele></trkpt>
      <trkpt lat="22.2557715333" lon="114.2512781594"><ele>194.000</ele></trkpt>
      <trkpt lat="22.2558211072" lon="114.2512897373"><ele>192.000</ele></trkpt>
      <trkpt lat="22.2558694891" lon="114.2512974630"><ele>192.000</ele></trkpt>
      <trkpt lat="22.2559184687" lon="114.2513013395"><ele>190.000</ele></trkpt>
      <trkpt lat="22.2559710344" lon="114.2513032921"><ele>188.000</ele></trkpt>
      <trkpt lat="22.2560182252" lon="114.2513007500"><ele>188.000</ele></trkpt>
      <trkpt lat="22.2560558613" lon="114.2512930697"><ele>186.000</ele></trkpt>
      <trkpt lat="22.2560928975" lon="114.2512898810"><ele>184.000</ele></trkpt>
      <trkpt lat="22.2561311282" lon="114.2512892590"><ele>182.000</ele></trkpt>
      <trkpt lat="22.2561580091" lon="114.2512886319"><ele>179.000</ele></trkpt>
      <trkpt lat="22.2561729413" lon="114.2512905646"><ele>179.000</ele></trkpt>
      <trkpt lat="22.2561842920" lon="114.2512886458"><ele>179.000</ele></trkpt>
      <trkpt lat="22.2562069952" lon="114.2512783897"><ele>176.000</ele></trkpt>
      <trkpt lat="22.2562374657" lon="114.2512662138"><ele>176.000</ele></trkpt>
      <trkpt lat="22.2562643484" lon="114.2512598104"><ele>174.000</ele></trkpt>
      <trkpt lat="22.2562834642" lon="114.2512585369"><ele>174.000</ele></trkpt>
      <trkpt lat="22.2563007850" lon="114.2512623967"><ele>172.000</ele></trkpt>
      <trkpt lat="22.2563181065" lon="114.2512668977"><ele>172.000</ele></trkpt>
      <trkpt lat="22.2563306468" lon="114.2512739632"><ele>172.000</ele></trkpt>
      <trkpt lat="22.2563491595" lon="114.2512861660"><ele>170.000</ele></trkpt>
      <trkpt lat="22.2563622995" lon="114.2512893812"><ele>170.000</ele></trkpt>
      <trkpt lat="22.2563766353" lon="114.2512900311"><ele>170.000</ele></trkpt>
      <trkpt lat="22.2563885832" lon="114.2512874703"><ele>168.000</ele></trkpt>
      <trkpt lat="22.2564059069" lon="114.2512849124"><ele>168.000</ele></trkpt>
      <trkpt lat="22.2564256185" lon="114.2512862064"><ele>168.000</ele></trkpt>
      <trkpt lat="22.2564459267" lon="114.2512900677"><ele>165.000</ele></trkpt>
      <trkpt lat="22.2564662337" lon="114.2512964951"><ele>165.000</ele></trkpt>
      <trkpt lat="22.2564901220" lon="114.2513074172"><ele>164.000</ele></trkpt>
      <trkpt lat="22.2565074405" lon="114.2513164101"><ele>164.000</ele></trkpt>
      <trkpt lat="22.2565265486" lon="114.2513318225"><ele>161.000</ele></trkpt>
      <trkpt lat="22.2565396821" lon="114.2513491556"><ele>161.000</ele></trkpt>
      <trkpt lat="22.2565558005" lon="114.2513716243"><ele>161.000</ele></trkpt>
      <trkpt lat="22.2565725171" lon="114.2513915264"><ele>158.000</ele></trkpt>
      <trkpt lat="22.2565940076" lon="114.2514204156"><ele>158.000</ele></trkpt>
      <trkpt lat="22.2566059493" lon="114.2514313314"><ele>158.000</ele></trkpt>
      <trkpt lat="22.2566226714" lon="114.2514390405"><ele>158.000</ele></trkpt>
      <trkpt lat="22.2566352135" lon="114.2514441812"><ele>158.000</ele></trkpt>
      <trkpt lat="22.2566495491" lon="114.2514454723"><ele>158.000</ele></trkpt>
      <trkpt lat="22.2566597023" lon="114.2514493283"><ele>158.000</ele></trkpt>
      <trkpt lat="22.2566710479" lon="114.2514563932"><ele>158.000</ele></trkpt>
      <trkpt lat="22.2566806006" lon="114.2514679490"><ele>158.000</ele></trkpt>
      <trkpt lat="22.2566919415" lon="114.2514852812"><ele>158.000</ele></trkpt>
      <trkpt lat="22.2567008920" lon="114.2515064627"><ele>157.000</ele></trkpt>
      <trkpt lat="22.2567110310" lon="114.2515411213"><ele>158.000</ele></trkpt>
      <trkpt lat="22.2567235563" lon="114.2515828402"><ele>159.000</ele></trkpt>
      <trkpt lat="22.2567318002" lon="114.2516146805"><ele>159.000</ele></trkpt>
      <trkpt lat="22.2567363052" lon="114.2516234017"><ele>159.000</ele></trkpt>
      <trkpt lat="22.2567444170" lon="114.2516323189"><ele>157.000</ele></trkpt>
      <trkpt lat="22.2567530719" lon="114.2516383308"><ele>157.000</ele></trkpt>
      <trkpt lat="22.2567665739" lon="114.2516456413"><ele>157.000</ele></trkpt>
    </trkseg>
  </trk>
</gpx>
