<?xml version="1.0" encoding="UTF-8"?>
<gpx xmlns:xsi="http://www.w3.org/2001/XMLSchema-instance"
     xsi:schemaLocation="http://www.topografix.com/GPX/1/1 http://www.topografix.com/GPX/1/1/gpx.xsd"
     version="1.1" creator="json3d_batch_to_gpx"
     xmlns="http://www.topografix.com/GPX/1/1">
  <metadata>
    <name>PakTamCountryTrail</name>
  </metadata>
  <trk>
    <name>PakTamCountryTrail</name>
    <type>hike</type>
    <trkseg>
      <trkpt lat="22.4193900130" lon="114.3311225376"><ele>135.000</ele></trkpt>
      <trkpt lat="22.4193761889" lon="114.3311860931"><ele>143.000</ele></trkpt>
      <trkpt lat="22.4193671949" lon="114.3312207766"><ele>142.000</ele></trkpt>
      <trkpt lat="22.4193504293" lon="114.3312638036"><ele>141.000</ele></trkpt>
      <trkpt lat="22.4193372575" lon="114.3312959124"><ele>141.000</ele></trkpt>
      <trkpt lat="22.4193216944" lon="114.3313299456"><ele>140.000</ele></trkpt>
      <trkpt lat="22.4193049439" lon="114.3313562684"><ele>138.000</ele></trkpt>
      <trkpt lat="22.4192917816" lon="114.3313774551"><ele>138.000</ele></trkpt>
      <trkpt lat="22.4192744440" lon="114.3313934981"><ele>138.000</ele></trkpt>
      <trkpt lat="22.4192535254" lon="114.3314063241"><ele>136.000</ele></trkpt>
      <trkpt lat="22.4192355915" lon="114.3314217234"><ele>136.000</ele></trkpt>
      <trkpt lat="22.4192182499" lon="114.3314409785"><ele>138.000</ele></trkpt>
      <trkpt lat="22.4192021102" lon="114.3314538098"><ele>137.000</ele></trkpt>
      <trkpt lat="22.4191847778" lon="114.3314634277"><ele>138.000</ele></trkpt>
      <trkpt lat="22.4191560951" lon="114.3314749600"><ele>138.000</ele></trkpt>
      <trkpt lat="22.4191333866" lon="114.3314858570"><ele>138.000</ele></trkpt>
      <trkpt lat="22.4190819883" lon="114.3315147104"><ele>136.000</ele></trkpt>
      <trkpt lat="22.4190383568" lon="114.3315429304"><ele>135.000</ele></trkpt>
      <trkpt lat="22.4190018927" lon="114.3315711593"><ele>136.000</ele></trkpt>
      <trkpt lat="22.4189594495" lon="114.3316051626"><ele>138.000</ele></trkpt>
      <trkpt lat="22.4189205935" lon="114.3316359578"><ele>138.000</ele></trkpt>
      <trkpt lat="22.4189044556" lon="114.3316468620"><ele>138.000</ele></trkpt>
      <trkpt lat="22.4188948873" lon="114.3316577735"><ele>138.000</ele></trkpt>
      <trkpt lat="22.4188871106" lon="114.3316706140"><ele>138.000</ele></trkpt>
      <trkpt lat="22.4188817234" lon="114.3316815301"><ele>138.000</ele></trkpt>
      <trkpt lat="22.4188793213" lon="114.3316956616"><ele>136.000</ele></trkpt>
      <trkpt lat="22.4188751159" lon="114.3317200701"><ele>136.000</ele></trkpt>
      <trkpt lat="22.4188703145" lon="114.3317444790"><ele>136.000</ele></trkpt>
      <trkpt lat="22.4188661140" lon="114.3317637485"><ele>136.000</ele></trkpt>
      <trkpt lat="22.4188613163" lon="114.3317843014"><ele>136.000</ele></trkpt>
      <trkpt lat="22.4188565177" lon="114.3318048552"><ele>136.000</ele></trkpt>
      <trkpt lat="22.4188523242" lon="114.3318176997"><ele>136.000</ele></trkpt>
      <trkpt lat="22.4188427556" lon="114.3318298962"><ele>136.000</ele></trkpt>
      <trkpt lat="22.4188325904" lon="114.3318408070"><ele>136.000</ele></trkpt>
      <trkpt lat="22.4188188416" lon="114.3318510708"><ele>138.000</ele></trkpt>
      <trkpt lat="22.4188062838" lon="114.3318651910"><ele>138.000</ele></trkpt>
      <trkpt lat="22.4187943189" lon="114.3318844519"><ele>138.000</ele></trkpt>
      <trkpt lat="22.4187883240" lon="114.3319075744"><ele>138.000</ele></trkpt>
      <trkpt lat="22.4187835223" lon="114.3319313403"><ele>138.000</ele></trkpt>
      <trkpt lat="22.4187805060" lon="114.3319615322"><ele>140.000</ele></trkpt>
      <trkpt lat="22.4187751052" lon="114.3319885104"><ele>138.000</ele></trkpt>
      <trkpt lat="22.4187708997" lon="114.3320129189"><ele>138.000</ele></trkpt>
      <trkpt lat="22.4187631184" lon="114.3320296144"><ele>138.000</ele></trkpt>
      <trkpt lat="22.4187523495" lon="114.3320475916"><ele>138.000</ele></trkpt>
      <trkpt lat="22.4187350013" lon="114.3320745555"><ele>138.000</ele></trkpt>
      <trkpt lat="22.4187188507" lon="114.3320976668"><ele>138.000</ele></trkpt>
      <trkpt lat="22.4187056948" lon="114.3321130712"><ele>138.000</ele></trkpt>
      <trkpt lat="22.4186889547" lon="114.3321284718"><ele>137.000</ele></trkpt>
      <trkpt lat="22.4186602670" lon="114.3321451440"><ele>138.000</ele></trkpt>
      <trkpt lat="22.4186417432" lon="114.3321521904"><ele>139.000</ele></trkpt>
      <trkpt lat="22.4186172477" lon="114.3321573032"><ele>139.000</ele></trkpt>
      <trkpt lat="22.4185891711" lon="114.3321591990"><ele>141.000</ele></trkpt>
      <trkpt lat="22.4185569180" lon="114.3321572361"><ele>142.000</ele></trkpt>
      <trkpt lat="22.4185318302" lon="114.3321565652"><ele>142.000</ele></trkpt>
      <trkpt lat="22.4185079380" lon="114.3321558957"><ele>143.000</ele></trkpt>
      <trkpt lat="22.4184828542" lon="114.3321520137"><ele>143.000</ele></trkpt>
      <trkpt lat="22.4184601621" lon="114.3321449215"><ele>143.000</ele></trkpt>
      <trkpt lat="22.4184440383" lon="114.3321410485"><ele>143.000</ele></trkpt>
      <trkpt lat="22.4184255214" lon="114.3321410279"><ele>143.000</ele></trkpt>
      <trkpt lat="22.4183920683" lon="114.3321435608"><ele>142.000</ele></trkpt>
      <trkpt lat="22.4183747430" lon="114.3321467535"><ele>140.000</ele></trkpt>
      <trkpt lat="22.4183521901" lon="114.3321601098"><ele>140.000</ele></trkpt>
      <trkpt lat="22.4183441689" lon="114.3321623639"><ele>140.000</ele></trkpt>
      <trkpt lat="22.4183244819" lon="114.3321723462"><ele>139.000</ele></trkpt>
      <trkpt lat="22.4183105289" lon="114.3321828011"><ele>141.000</ele></trkpt>
      <trkpt lat="22.4182984021" lon="114.3321910241"><ele>141.000</ele></trkpt>
      <trkpt lat="22.4182741611" lon="114.3322131520"><ele>140.000</ele></trkpt>
      <trkpt lat="22.4182631964" lon="114.3322243290"><ele>140.000</ele></trkpt>
      <trkpt lat="22.4182526692" lon="114.3322313105"><ele>143.000</ele></trkpt>
      <trkpt lat="22.4182425954" lon="114.3322363014"><ele>143.000</ele></trkpt>
      <trkpt lat="22.4182338867" lon="114.3322397980"><ele>141.000</ele></trkpt>
      <trkpt lat="22.4182141726" lon="114.3322403782"><ele>141.000</ele></trkpt>
      <trkpt lat="22.4182042952" lon="114.3322384344"><ele>141.000</ele></trkpt>
      <trkpt lat="22.4181980939" lon="114.3322357371"><ele>141.000</ele></trkpt>
      <trkpt lat="22.4181932656" lon="114.3322325459"><ele>140.000</ele></trkpt>
      <trkpt lat="22.4181845165" lon="114.3322216870"><ele>138.000</ele></trkpt>
      <trkpt lat="22.4181799015" lon="114.3322127946"><ele>138.000</ele></trkpt>
      <trkpt lat="22.4181595556" lon="114.3321661020"><ele>138.000</ele></trkpt>
      <trkpt lat="22.4181537780" lon="114.3321547414"><ele>138.000</ele></trkpt>
      <trkpt lat="22.4181339497" lon="114.3321238812"><ele>139.000</ele></trkpt>
      <trkpt lat="22.4181254550" lon="114.3321104079"><ele>139.000</ele></trkpt>
      <trkpt lat="22.4181111740" lon="114.3320918649"><ele>139.000</ele></trkpt>
      <trkpt lat="22.4180902904" lon="114.3320680706"><ele>137.000</ele></trkpt>
      <trkpt lat="22.4180610508" lon="114.3320378420"><ele>137.000</ele></trkpt>
      <trkpt lat="22.4180419564" lon="114.3320166197"><ele>136.000</ele></trkpt>
      <trkpt lat="22.4180282428" lon="114.3319902634"><ele>136.000</ele></trkpt>
      <trkpt lat="22.4180163297" lon="114.3319555571"><ele>138.000</ele></trkpt>
      <trkpt lat="22.4179948749" lon="114.3319041371"><ele>140.000</ele></trkpt>
      <trkpt lat="22.4179752076" lon="114.3318578572"><ele>143.000</ele></trkpt>
      <trkpt lat="22.4179597146" lon="114.3318186499"><ele>141.000</ele></trkpt>
      <trkpt lat="22.4179477928" lon="114.3317929386"><ele>141.000</ele></trkpt>
      <trkpt lat="22.4179310873" lon="114.3317723610"><ele>140.000</ele></trkpt>
      <trkpt lat="22.4179095963" lon="114.3317594882"><ele>140.000</ele></trkpt>
      <trkpt lat="22.4178767580" lon="114.3317433907"><ele>142.000</ele></trkpt>
      <trkpt lat="22.4178409299" lon="114.3317317860"><ele>140.000</ele></trkpt>
      <trkpt lat="22.4178021133" lon="114.3317214639"><ele>142.000</ele></trkpt>
      <trkpt lat="22.4177794156" lon="114.3317201537"><ele>142.000</ele></trkpt>
      <trkpt lat="22.4177495569" lon="114.3317130536"><ele>142.000</ele></trkpt>
      <trkpt lat="22.4177185099" lon="114.3316982432"><ele>144.000</ele></trkpt>
      <trkpt lat="22.4176940329" lon="114.3316840811"><ele>144.000</ele></trkpt>
      <trkpt lat="22.4176737412" lon="114.3316654276"><ele>144.000</ele></trkpt>
      <trkpt lat="22.4176528644" lon="114.3316345664"><ele>142.000</ele></trkpt>
      <trkpt lat="22.4176260286" lon="114.3315882797"><ele>143.000</ele></trkpt>
      <trkpt lat="22.4175956090" lon="114.3315426310"><ele>144.000</ele></trkpt>
      <trkpt lat="22.4175646026" lon="114.3314854177"><ele>144.000</ele></trkpt>
      <trkpt lat="22.4175383689" lon="114.3314346347"><ele>144.000</ele></trkpt>
      <trkpt lat="22.4175157111" lon="114.3313915646"><ele>148.000</ele></trkpt>
      <trkpt lat="22.4174864708" lon="114.3313619793"><ele>148.000</ele></trkpt>
      <trkpt lat="22.4174464773" lon="114.3313330241"><ele>150.000</ele></trkpt>
      <trkpt lat="22.4174041072" lon="114.3312905753"><ele>148.000</ele></trkpt>
      <trkpt lat="22.4173796415" lon="114.3312654923"><ele>148.000</ele></trkpt>
      <trkpt lat="22.4173462209" lon="114.3312339754"><ele>148.000</ele></trkpt>
      <trkpt lat="22.4173104116" lon="114.3312018129"><ele>146.000</ele></trkpt>
      <trkpt lat="22.4172817558" lon="114.3311850773"><ele>146.000</ele></trkpt>
      <trkpt lat="22.4172608562" lon="114.3311779872"><ele>146.000</ele></trkpt>
      <trkpt lat="22.4172411482" lon="114.3311741105"><ele>146.000</ele></trkpt>
      <trkpt lat="22.4172196427" lon="114.3311753717"><ele>146.000</ele></trkpt>
      <trkpt lat="22.4171802151" lon="114.3311798251"><ele>146.000</ele></trkpt>
      <trkpt lat="22.4171473531" lon="114.3311894258"><ele>146.000</ele></trkpt>
      <trkpt lat="22.4171103774" lon="114.3311965092"><ele>147.000</ele></trkpt>
      <trkpt lat="22.4170984567" lon="114.3311970205"><ele>147.000</ele></trkpt>
      <trkpt lat="22.4170821679" lon="114.3311947977"><ele>147.000</ele></trkpt>
      <trkpt lat="22.4170688574" lon="114.3311943168"><ele>147.000</ele></trkpt>
      <trkpt lat="22.4170415614" lon="114.3311911106"><ele>147.000</ele></trkpt>
      <trkpt lat="22.4170300856" lon="114.3311891359"><ele>147.000</ele></trkpt>
      <trkpt lat="22.4170086157" lon="114.3311824697"><ele>144.000</ele></trkpt>
      <trkpt lat="22.4170062252" lon="114.3311817279"><ele>144.000</ele></trkpt>
      <trkpt lat="22.4169940656" lon="114.3311770329"><ele>144.000</ele></trkpt>
      <trkpt lat="22.4169809930" lon="114.3311733277"><ele>144.000</ele></trkpt>
      <trkpt lat="22.4169708977" lon="114.3311725881"><ele>144.000</ele></trkpt>
      <trkpt lat="22.4169461176" lon="114.3311730949"><ele>144.000</ele></trkpt>
      <trkpt lat="22.4169337340" lon="114.3311760824"><ele>144.000</ele></trkpt>
      <trkpt lat="22.4169183684" lon="114.3311810383"><ele>144.000</ele></trkpt>
      <trkpt lat="22.4169002469" lon="114.3311877395"><ele>144.000</ele></trkpt>
      <trkpt lat="22.4168805156" lon="114.3311969156"><ele>146.000</ele></trkpt>
      <trkpt lat="22.4168658442" lon="114.3312031156"><ele>146.000</ele></trkpt>
      <trkpt lat="22.4168461151" lon="114.3312100675"><ele>147.000</ele></trkpt>
      <trkpt lat="22.4168362517" lon="114.3312123002"><ele>150.000</ele></trkpt>
      <trkpt lat="22.4168236342" lon="114.3312142871"><ele>150.000</ele></trkpt>
      <trkpt lat="22.4167995485" lon="114.3312157951"><ele>150.000</ele></trkpt>
      <trkpt lat="22.4167754564" lon="114.3312145738"><ele>150.000</ele></trkpt>
      <trkpt lat="22.4167674276" lon="114.3312153225"><ele>150.000</ele></trkpt>
      <trkpt lat="22.4167605450" lon="114.3312168106"><ele>150.000</ele></trkpt>
      <trkpt lat="22.4167502286" lon="114.3312205289"><ele>152.000</ele></trkpt>
      <trkpt lat="22.4167385280" lon="114.3312269749"><ele>152.000</ele></trkpt>
      <trkpt lat="22.4167279812" lon="114.3312356561"><ele>152.000</ele></trkpt>
      <trkpt lat="22.4167155962" lon="114.3312495316"><ele>152.000</ele></trkpt>
      <trkpt lat="22.4167036741" lon="114.3312609308"><ele>154.000</ele></trkpt>
      <trkpt lat="22.4166931249" lon="114.3312720790"><ele>154.000</ele></trkpt>
      <trkpt lat="22.4166688121" lon="114.3312938863"><ele>154.000</ele></trkpt>
      <trkpt lat="22.4166541331" lon="114.3313080117"><ele>154.000</ele></trkpt>
      <trkpt lat="22.4166266126" lon="114.3313318065"><ele>154.000</ele></trkpt>
      <trkpt lat="22.4166176661" lon="114.3313384984"><ele>154.000</ele></trkpt>
      <trkpt lat="22.4165945004" lon="114.3313506427"><ele>154.000</ele></trkpt>
      <trkpt lat="22.4165678976" lon="114.3313590828"><ele>152.000</ele></trkpt>
      <trkpt lat="22.4165568875" lon="114.3313610714"><ele>152.000</ele></trkpt>
      <trkpt lat="22.4165470163" lon="114.3313620706"><ele>152.000</ele></trkpt>
      <trkpt lat="22.4165369295" lon="114.3313618263"><ele>152.000</ele></trkpt>
      <trkpt lat="22.4165279822" lon="114.3313598545"><ele>152.000</ele></trkpt>
      <trkpt lat="22.4165185750" lon="114.3313571342"><ele>151.000</ele></trkpt>
      <trkpt lat="22.4164912683" lon="114.3313462550"><ele>148.000</ele></trkpt>
      <trkpt lat="22.4164781900" lon="114.3313390823"><ele>150.000</ele></trkpt>
      <trkpt lat="22.4164357438" lon="114.3313138601"><ele>151.000</ele></trkpt>
      <trkpt lat="22.4164033931" lon="114.3312893581"><ele>144.000</ele></trkpt>
      <trkpt lat="22.4163822816" lon="114.3312685788"><ele>147.000</ele></trkpt>
      <trkpt lat="22.4163751620" lon="114.3312628793"><ele>147.000</ele></trkpt>
      <trkpt lat="22.4163643820" lon="114.3312510082"><ele>144.000</ele></trkpt>
      <trkpt lat="22.4163471682" lon="114.3312339240"><ele>144.000</ele></trkpt>
      <trkpt lat="22.4163196297" lon="114.3312104181"><ele>147.000</ele></trkpt>
      <trkpt lat="22.4162719111" lon="114.3311743022"><ele>149.000</ele></trkpt>
      <trkpt lat="22.4162599718" lon="114.3311658876"><ele>149.000</ele></trkpt>
      <trkpt lat="22.4162455218" lon="114.3311577227"><ele>147.000</ele></trkpt>
      <trkpt lat="22.4162225708" lon="114.3311436237"><ele>145.000</ele></trkpt>
      <trkpt lat="22.4162122537" lon="114.3311386783"><ele>145.000</ele></trkpt>
      <trkpt lat="22.4161867832" lon="114.3311245862"><ele>142.000</ele></trkpt>
      <trkpt lat="22.4161450238" lon="114.3310988598"><ele>142.000</ele></trkpt>
      <trkpt lat="22.4161294212" lon="114.3310872263"><ele>142.000</ele></trkpt>
      <trkpt lat="22.4161096841" lon="114.3310741118"><ele>142.000</ele></trkpt>
      <trkpt lat="22.4160741208" lon="114.3310471491"><ele>142.000</ele></trkpt>
      <trkpt lat="22.4160493430" lon="114.3310263658"><ele>142.000</ele></trkpt>
      <trkpt lat="22.4159823389" lon="114.3309674721"><ele>150.000</ele></trkpt>
      <trkpt lat="22.4159630633" lon="114.3309533675"><ele>148.000</ele></trkpt>
      <trkpt lat="22.4159511250" lon="114.3309439622"><ele>148.000</ele></trkpt>
      <trkpt lat="22.4159229039" lon="114.3309259044"><ele>144.000</ele></trkpt>
      <trkpt lat="22.4159089145" lon="114.3309177498"><ele>144.000</ele></trkpt>
      <trkpt lat="22.4158972081" lon="114.3309113168"><ele>142.000</ele></trkpt>
      <trkpt lat="22.4158772503" lon="114.3309024175"><ele>144.000</ele></trkpt>
      <trkpt lat="22.4158565961" lon="114.3308945080"><ele>144.000</ele></trkpt>
      <trkpt lat="22.4158352625" lon="114.3308888220"><ele>146.000</ele></trkpt>
      <trkpt lat="22.4158198955" lon="114.3308858622"><ele>146.000</ele></trkpt>
      <trkpt lat="22.4157921303" lon="114.3308821699"><ele>146.000</ele></trkpt>
      <trkpt lat="22.4157765350" lon="114.3308819293"><ele>146.000</ele></trkpt>
      <trkpt lat="22.4157379957" lon="114.3308789827"><ele>145.000</ele></trkpt>
      <trkpt lat="22.4157136779" lon="114.3308777613"><ele>143.000</ele></trkpt>
      <trkpt lat="22.4156861442" lon="114.3308775366"><ele>143.000</ele></trkpt>
      <trkpt lat="22.4156597650" lon="114.3308787896"><ele>143.000</ele></trkpt>
      <trkpt lat="22.4156407269" lon="114.3308807791"><ele>143.000</ele></trkpt>
      <trkpt lat="22.4156237472" lon="114.3308832663"><ele>138.000</ele></trkpt>
      <trkpt lat="22.4155631878" lon="114.3308939611"><ele>134.000</ele></trkpt>
      <trkpt lat="22.4155503448" lon="114.3308957049"><ele>134.000</ele></trkpt>
      <trkpt lat="22.4155402490" lon="114.3308954607"><ele>134.000</ele></trkpt>
      <trkpt lat="22.4155271759" lon="114.3308922508"><ele>134.000</ele></trkpt>
      <trkpt lat="22.4155157027" lon="114.3308875567"><ele>134.000</ele></trkpt>
      <trkpt lat="22.4154916114" lon="114.3308759332"><ele>134.000</ele></trkpt>
      <trkpt lat="22.4154737137" lon="114.3308657930"><ele>135.000</ele></trkpt>
      <trkpt lat="22.4154542164" lon="114.3308568844"><ele>134.000</ele></trkpt>
      <trkpt lat="22.4154347098" lon="114.3308482381"><ele>137.000</ele></trkpt>
      <trkpt lat="22.4154051176" lon="114.3308381044"><ele>137.000</ele></trkpt>
      <trkpt lat="22.4153908926" lon="114.3308306780"><ele>144.000</ele></trkpt>
      <trkpt lat="22.4153750615" lon="114.3308220261"><ele>144.000</ele></trkpt>
      <trkpt lat="22.4153401792" lon="114.3308005033"><ele>143.000</ele></trkpt>
      <trkpt lat="22.4152988824" lon="114.3307725535"><ele>139.000</ele></trkpt>
      <trkpt lat="22.4152832801" lon="114.3307606773"><ele>136.000</ele></trkpt>
      <trkpt lat="22.4152674450" lon="114.3307465669"><ele>136.000</ele></trkpt>
      <trkpt lat="22.4152555171" lon="114.3307356853"><ele>132.000</ele></trkpt>
      <trkpt lat="22.4152460995" lon="114.3307250397"><ele>132.000</ele></trkpt>
      <trkpt lat="22.4152298084" lon="114.3307062279"><ele>132.000</ele></trkpt>
      <trkpt lat="22.4152029536" lon="114.3306663767"><ele>132.000</ele></trkpt>
      <trkpt lat="22.4151954972" lon="114.3306539266"><ele>132.000</ele></trkpt>
      <trkpt lat="22.4151849445" lon="114.3306403077"><ele>132.000</ele></trkpt>
      <trkpt lat="22.4151753097" lon="114.3306301571"><ele>132.000</ele></trkpt>
      <trkpt lat="22.4151608691" lon="114.3306120758"><ele>133.000</ele></trkpt>
      <trkpt lat="22.4151533031" lon="114.3306009272"><ele>133.000</ele></trkpt>
      <trkpt lat="22.4151367860" lon="114.3305729465"><ele>133.000</ele></trkpt>
      <trkpt lat="22.4151317474" lon="114.3305630341"><ele>134.000</ele></trkpt>
      <trkpt lat="22.4151262439" lon="114.3305481775"><ele>134.000</ele></trkpt>
      <trkpt lat="22.4151177627" lon="114.3305308409"><ele>134.000</ele></trkpt>
      <trkpt lat="22.4151090429" lon="114.3305080553"><ele>134.000</ele></trkpt>
      <trkpt lat="22.4150987263" lon="114.3304835391"><ele>134.000</ele></trkpt>
      <trkpt lat="22.4150854327" lon="114.3304557951"><ele>134.000</ele></trkpt>
      <trkpt lat="22.4150682337" lon="114.3304231031"><ele>136.000</ele></trkpt>
      <trkpt lat="22.4150583706" lon="114.3304060175"><ele>136.000</ele></trkpt>
      <trkpt lat="22.4150482803" lon="114.3303904080"><ele>136.000</ele></trkpt>
      <trkpt lat="22.4150430124" lon="114.3303842153"><ele>136.000</ele></trkpt>
      <trkpt lat="22.4150354427" lon="114.3303770391"><ele>134.000</ele></trkpt>
      <trkpt lat="22.4150125120" lon="114.3303604443"><ele>134.000</ele></trkpt>
      <trkpt lat="22.4149868257" lon="114.3303453421"><ele>134.000</ele></trkpt>
      <trkpt lat="22.4149494377" lon="114.3303282555"><ele>134.000</ele></trkpt>
      <trkpt lat="22.4149210007" lon="114.3303188419"><ele>132.000</ele></trkpt>
      <trkpt lat="22.4149044868" lon="114.3303158711"><ele>132.000</ele></trkpt>
      <trkpt lat="22.4148914211" lon="114.3303143902"><ele>130.000</ele></trkpt>
      <trkpt lat="22.4148317827" lon="114.3303156359"><ele>127.000</ele></trkpt>
      <trkpt lat="22.4148095398" lon="114.3303166312"><ele>129.000</ele></trkpt>
      <trkpt lat="22.4147730724" lon="114.3303191164"><ele>129.000</ele></trkpt>
      <trkpt lat="22.4147579281" lon="114.3303193621"><ele>129.000</ele></trkpt>
      <trkpt lat="22.4147265074" lon="114.3303136748"><ele>129.000</ele></trkpt>
      <trkpt lat="22.4147049495" lon="114.3303064930"><ele>130.000</ele></trkpt>
      <trkpt lat="22.4146852266" lon="114.3302973318"><ele>130.000</ele></trkpt>
      <trkpt lat="22.4146694042" lon="114.3302889131"><ele>131.000</ele></trkpt>
      <trkpt lat="22.4146602340" lon="114.3302839593"><ele>131.000</ele></trkpt>
      <trkpt lat="22.4146536464" lon="114.3302790084"><ele>130.000</ele></trkpt>
      <trkpt lat="22.4146300705" lon="114.3302572361"><ele>134.000</ele></trkpt>
      <trkpt lat="22.4146148653" lon="114.3302454769"><ele>134.000</ele></trkpt>
      <trkpt lat="22.4145994180" lon="114.3302320081"><ele>134.000</ele></trkpt>
      <trkpt lat="22.4145855940" lon="114.3302207361"><ele>130.000</ele></trkpt>
      <trkpt lat="22.4145784400" lon="114.3302131330"><ele>130.000</ele></trkpt>
      <trkpt lat="22.4145707693" lon="114.3302086374"><ele>130.000</ele></trkpt>
      <trkpt lat="22.4145625405" lon="114.3302050561"><ele>130.000</ele></trkpt>
      <trkpt lat="22.4145564835" lon="114.3302072620"><ele>130.000</ele></trkpt>
      <trkpt lat="22.4145335563" lon="114.3302155216"><ele>129.000</ele></trkpt>
      <trkpt lat="22.4145042519" lon="114.3302256973"><ele>129.000</ele></trkpt>
      <trkpt lat="22.4144802462" lon="114.3302380641"><ele>134.000</ele></trkpt>
      <trkpt lat="22.4144478560" lon="114.3302548798"><ele>134.000</ele></trkpt>
      <trkpt lat="22.4144252944" lon="114.3302585846"><ele>134.000</ele></trkpt>
      <trkpt lat="22.4143963102" lon="114.3302547164"><ele>134.000</ele></trkpt>
      <trkpt lat="22.4143669350" lon="114.3302632894"><ele>134.000</ele></trkpt>
      <trkpt lat="22.4143460171" lon="114.3302763201"><ele>134.000</ele></trkpt>
      <trkpt lat="22.4143247558" lon="114.3302896514"><ele>137.000</ele></trkpt>
      <trkpt lat="22.4142929667" lon="114.3303010482"><ele>137.000</ele></trkpt>
      <trkpt lat="22.4142563287" lon="114.3303025425"><ele>137.000</ele></trkpt>
      <trkpt lat="22.4142302085" lon="114.3303068456"><ele>137.000</ele></trkpt>
      <trkpt lat="22.4142054847" lon="114.3303146564"><ele>137.000</ele></trkpt>
      <trkpt lat="22.4141434000" lon="114.3303244076"><ele>138.000</ele></trkpt>
      <trkpt lat="22.4140990469" lon="114.3303386265"><ele>140.000</ele></trkpt>
      <trkpt lat="22.4140674723" lon="114.3303429528"><ele>141.000</ele></trkpt>
      <trkpt lat="22.4140324292" lon="114.3303481493"><ele>142.000</ele></trkpt>
      <trkpt lat="22.4139926120" lon="114.3303500577"><ele>144.000</ele></trkpt>
      <trkpt lat="22.4139600466" lon="114.3303517022"><ele>144.000</ele></trkpt>
      <trkpt lat="22.4139195829" lon="114.3303593306"><ele>146.000</ele></trkpt>
      <trkpt lat="22.4138742285" lon="114.3303628356"><ele>146.000</ele></trkpt>
      <trkpt lat="22.4138437713" lon="114.3303601992"><ele>146.000</ele></trkpt>
      <trkpt lat="22.4138004360" lon="114.3303486811"><ele>148.000</ele></trkpt>
      <trkpt lat="22.4137604826" lon="114.3303419453"><ele>150.000</ele></trkpt>
      <trkpt lat="22.4137376279" lon="114.3303403856"><ele>150.000</ele></trkpt>
      <trkpt lat="22.4137126761" lon="114.3303410963"><ele>150.000</ele></trkpt>
      <trkpt lat="22.4136792189" lon="114.3303403506"><ele>150.000</ele></trkpt>
      <trkpt lat="22.4136462123" lon="114.3303405959"><ele>150.000</ele></trkpt>
      <trkpt lat="22.4136301169" lon="114.3303438611"><ele>150.000</ele></trkpt>
      <trkpt lat="22.4136052553" lon="114.3303446108"><ele>150.000</ele></trkpt>
      <trkpt lat="22.4135611790" lon="114.3303526140"><ele>150.000</ele></trkpt>
      <trkpt lat="22.4135127090" lon="114.3303658668"><ele>150.000</ele></trkpt>
      <trkpt lat="22.4134706848" lon="114.3303810983"><ele>152.000</ele></trkpt>
      <trkpt lat="22.4134243043" lon="114.3304000644"><ele>152.000</ele></trkpt>
      <trkpt lat="22.4133820084" lon="114.3304256005"><ele>152.000</ele></trkpt>
      <trkpt lat="22.4133480583" lon="114.3304589157"><ele>152.000</ele></trkpt>
      <trkpt lat="22.4133121078" lon="114.3304876931"><ele>152.000</ele></trkpt>
      <trkpt lat="22.4132772199" lon="114.3305289715"><ele>154.000</ele></trkpt>
      <trkpt lat="22.4132475564" lon="114.3305653800"><ele>153.000</ele></trkpt>
      <trkpt lat="22.4132218223" lon="114.3305909828"><ele>154.000</ele></trkpt>
      <trkpt lat="22.4131878616" lon="114.3306069224"><ele>154.000</ele></trkpt>
      <trkpt lat="22.4131602503" lon="114.3306028225"><ele>153.000</ele></trkpt>
      <trkpt lat="22.4131162757" lon="114.3305798430"><ele>152.000</ele></trkpt>
      <trkpt lat="22.4130864265" lon="114.3305645519"><ele>152.000</ele></trkpt>
      <trkpt lat="22.4130404361" lon="114.3305437361"><ele>152.000</ele></trkpt>
      <trkpt lat="22.4130097954" lon="114.3305345825"><ele>152.000</ele></trkpt>
      <trkpt lat="22.4129780577" lon="114.3305204160"><ele>150.000</ele></trkpt>
      <trkpt lat="22.4129565269" lon="114.3305132633"><ele>148.000</ele></trkpt>
      <trkpt lat="22.4129062042" lon="114.3305060383"><ele>149.000</ele></trkpt>
      <trkpt lat="22.4128573455" lon="114.3305101327"><ele>151.000</ele></trkpt>
      <trkpt lat="22.4127930495" lon="114.3305252726"><ele>152.000</ele></trkpt>
      <trkpt lat="22.4127422787" lon="114.3305458702"><ele>152.000</ele></trkpt>
      <trkpt lat="22.4127388583" lon="114.3305398205"><ele>152.000</ele></trkpt>
      <trkpt lat="22.4127349340" lon="114.3305356495"><ele>152.000</ele></trkpt>
      <trkpt lat="22.4127303398" lon="114.3305332164"><ele>152.000</ele></trkpt>
      <trkpt lat="22.4127103590" lon="114.3305293871"><ele>152.000</ele></trkpt>
      <trkpt lat="22.4126885536" lon="114.3305260706"><ele>152.000</ele></trkpt>
      <trkpt lat="22.4126655773" lon="114.3305195575"><ele>150.000</ele></trkpt>
      <trkpt lat="22.4126237829" lon="114.3305114308"><ele>150.000</ele></trkpt>
      <trkpt lat="22.4126033430" lon="114.3305061247"><ele>150.000</ele></trkpt>
      <trkpt lat="22.4125842676" lon="114.3304998295"><ele>150.000</ele></trkpt>
      <trkpt lat="22.4125794389" lon="114.3304971436"><ele>150.000</ele></trkpt>
      <trkpt lat="22.4125725188" lon="114.3304905316"><ele>150.000</ele></trkpt>
      <trkpt lat="22.4125697333" lon="114.3304853615"><ele>150.000</ele></trkpt>
      <trkpt lat="22.4125683302" lon="114.3304794451"><ele>150.000</ele></trkpt>
      <trkpt lat="22.4125694454" lon="114.3304747455"><ele>150.000</ele></trkpt>
      <trkpt lat="22.4125726290" lon="114.3304695432"><ele>146.000</ele></trkpt>
      <trkpt lat="22.4125767417" lon="114.3304655656"><ele>146.000</ele></trkpt>
      <trkpt lat="22.4125831386" lon="114.3304620762"><ele>146.000</ele></trkpt>
      <trkpt lat="22.4125918385" lon="114.3304583173"><ele>146.000</ele></trkpt>
      <trkpt lat="22.4126032682" lon="114.3304518226"><ele>146.000</ele></trkpt>
      <trkpt lat="22.4126160639" lon="114.3304428527"><ele>146.000</ele></trkpt>
      <trkpt lat="22.4126247397" lon="114.3304358887"><ele>146.000</ele></trkpt>
      <trkpt lat="22.4126343208" lon="114.3304266919"><ele>146.000</ele></trkpt>
      <trkpt lat="22.4126434348" lon="114.3304147848"><ele>143.000</ele></trkpt>
      <trkpt lat="22.4126543353" lon="114.3303949737"><ele>142.000</ele></trkpt>
      <trkpt lat="22.4126609280" lon="114.3303850549"><ele>142.000</ele></trkpt>
      <trkpt lat="22.4126766501" lon="114.3303659484"><ele>140.000</ele></trkpt>
      <trkpt lat="22.4126809726" lon="114.3303597470"><ele>140.000</ele></trkpt>
      <trkpt lat="22.4126832277" lon="114.3303528245"><ele>140.000</ele></trkpt>
      <trkpt lat="22.4126856860" lon="114.3303412111"><ele>140.000</ele></trkpt>
      <trkpt lat="22.4126828388" lon="114.3303249397"><ele>138.000</ele></trkpt>
      <trkpt lat="22.4126800466" lon="114.3303173027"><ele>138.000</ele></trkpt>
      <trkpt lat="22.4126691415" lon="114.3302944180"><ele>138.000</ele></trkpt>
      <trkpt lat="22.4126605756" lon="114.3302806461"><ele>138.000</ele></trkpt>
      <trkpt lat="22.4126577825" lon="114.3302739997"><ele>136.000</ele></trkpt>
      <trkpt lat="22.4126549910" lon="114.3302656246"><ele>136.000</ele></trkpt>
      <trkpt lat="22.4126542582" lon="114.3302574848"><ele>136.000</ele></trkpt>
      <trkpt lat="22.4126548979" lon="114.3302495796"><ele>136.000</ele></trkpt>
      <trkpt lat="22.4126576052" lon="114.3302419097"><ele>136.000</ele></trkpt>
      <trkpt lat="22.4126659934" lon="114.3302240870"><ele>134.000</ele></trkpt>
      <trkpt lat="22.4126719009" lon="114.3302129436"><ele>134.000</ele></trkpt>
      <trkpt lat="22.4126757399" lon="114.3302023030"><ele>134.000</ele></trkpt>
      <trkpt lat="22.4126788690" lon="114.3301879612"><ele>134.000</ele></trkpt>
      <trkpt lat="22.4126790409" lon="114.3301780936"><ele>134.000</ele></trkpt>
      <trkpt lat="22.4126762645" lon="114.3301729235"><ele>134.000</ele></trkpt>
      <trkpt lat="22.4126700385" lon="114.3301675360"><ele>134.000</ele></trkpt>
      <trkpt lat="22.4126649748" lon="114.3301650927"><ele>134.000</ele></trkpt>
      <trkpt lat="22.4126486618" lon="114.3301597718"><ele>134.000</ele></trkpt>
      <trkpt lat="22.4126274964" lon="114.3301480548"><ele>132.000</ele></trkpt>
      <trkpt lat="22.4126201243" lon="114.3301419279"><ele>132.000</ele></trkpt>
      <trkpt lat="22.4126085777" lon="114.3301289200"><ele>132.000</ele></trkpt>
      <trkpt lat="22.4126062456" lon="114.3301217789"><ele>132.000</ele></trkpt>
      <trkpt lat="22.4126055054" lon="114.3301119102"><ele>132.000</ele></trkpt>
      <trkpt lat="22.4126072764" lon="114.3301012868"><ele>132.000</ele></trkpt>
      <trkpt lat="22.4126122547" lon="114.3300891615"><ele>132.000</ele></trkpt>
      <trkpt lat="22.4126181543" lon="114.3300767749"><ele>130.000</ele></trkpt>
      <trkpt lat="22.4126242870" lon="114.3300661271"><ele>130.000</ele></trkpt>
      <trkpt lat="22.4126276814" lon="114.3300577102"><ele>130.000</ele></trkpt>
      <trkpt lat="22.4126283370" lon="114.3300520292"><ele>130.000</ele></trkpt>
      <trkpt lat="22.4126271439" lon="114.3300436460"><ele>130.000</ele></trkpt>
      <trkpt lat="22.4126241333" lon="114.3300377376"><ele>130.000</ele></trkpt>
      <trkpt lat="22.4126188276" lon="114.3300333321"><ele>128.000</ele></trkpt>
      <trkpt lat="22.4126110028" lon="114.3300284478"><ele>128.000</ele></trkpt>
      <trkpt lat="22.4126041063" lon="114.3300255266"><ele>128.000</ele></trkpt>
      <trkpt lat="22.4125871060" lon="114.3300211956"><ele>128.000</ele></trkpt>
      <trkpt lat="22.4125802093" lon="114.3300185171"><ele>128.000</ele></trkpt>
      <trkpt lat="22.4125753810" lon="114.3300153456"><ele>128.000</ele></trkpt>
      <trkpt lat="22.4125716822" lon="114.3300114177"><ele>128.000</ele></trkpt>
      <trkpt lat="22.4125700607" lon="114.3300072299"><ele>128.000</ele></trkpt>
      <trkpt lat="22.4125691167" lon="114.3300027903"><ele>128.000</ele></trkpt>
      <trkpt lat="22.4125695463" lon="114.3299973615"><ele>128.000</ele></trkpt>
      <trkpt lat="22.4125731667" lon="114.3299887020"><ele>128.000</ele></trkpt>
      <trkpt lat="22.4125772622" lon="114.3299837338"><ele>126.000</ele></trkpt>
      <trkpt lat="22.4125873202" lon="114.3299762663"><ele>126.000</ele></trkpt>
      <trkpt lat="22.4125916498" lon="114.3299720461"><ele>126.000</ele></trkpt>
      <trkpt lat="22.4125952861" lon="114.3299656011"><ele>126.000</ele></trkpt>
      <trkpt lat="22.4125959493" lon="114.3299613963"><ele>126.000</ele></trkpt>
      <trkpt lat="22.4125949975" lon="114.3299557329"><ele>126.000</ele></trkpt>
      <trkpt lat="22.4125933593" lon="114.3299500591"><ele>126.000</ele></trkpt>
      <trkpt lat="22.4125855042" lon="114.3299390075"><ele>126.000</ele></trkpt>
      <trkpt lat="22.4125792790" lon="114.3299328721"><ele>121.000</ele></trkpt>
      <trkpt lat="22.4125702683" lon="114.3299215764"><ele>121.000</ele></trkpt>
      <trkpt lat="22.4125670148" lon="114.3299146868"><ele>121.000</ele></trkpt>
      <trkpt lat="22.4125663059" lon="114.3299099949"><ele>121.000</ele></trkpt>
      <trkpt lat="22.4125671877" lon="114.3299038188"><ele>121.000</ele></trkpt>
      <trkpt lat="22.4125696688" lon="114.3298966440"><ele>121.000</ele></trkpt>
      <trkpt lat="22.4125785013" lon="114.3298768404"><ele>116.000</ele></trkpt>
      <trkpt lat="22.4125795952" lon="114.3298659734"><ele>116.000</ele></trkpt>
      <trkpt lat="22.4125781750" lon="114.3298590761"><ele>116.000</ele></trkpt>
      <trkpt lat="22.4125725596" lon="114.3298383728"><ele>111.000</ele></trkpt>
      <trkpt lat="22.4125676524" lon="114.3298230995"><ele>111.000</ele></trkpt>
      <trkpt lat="22.4125639243" lon="114.3298120233"><ele>111.000</ele></trkpt>
      <trkpt lat="22.4125585799" lon="114.3298007025"><ele>111.000</ele></trkpt>
      <trkpt lat="22.4125541805" lon="114.3297928306"><ele>117.000</ele></trkpt>
      <trkpt lat="22.4125525354" lon="114.3297849423"><ele>115.000</ele></trkpt>
      <trkpt lat="22.4125524970" lon="114.3297777843"><ele>115.000</ele></trkpt>
      <trkpt lat="22.4125538311" lon="114.3297708608"><ele>115.000</ele></trkpt>
      <trkpt lat="22.4125574436" lon="114.3297609678"><ele>110.000</ele></trkpt>
      <trkpt lat="22.4125594575" lon="114.3297513256"><ele>110.000</ele></trkpt>
      <trkpt lat="22.4125591845" lon="114.3297439244"><ele>110.000</ele></trkpt>
      <trkpt lat="22.4125571930" lon="114.3297375985"><ele>111.000</ele></trkpt>
      <trkpt lat="22.4125519939" lon="114.3297216528"><ele>116.000</ele></trkpt>
      <trkpt lat="22.4125155045" lon="114.3297492796"><ele>115.000</ele></trkpt>
      <trkpt lat="22.4124467623" lon="114.3298012415"><ele>116.000</ele></trkpt>
      <trkpt lat="22.4124019327" lon="114.3298333142"><ele>114.000</ele></trkpt>
      <trkpt lat="22.4123361915" lon="114.3298698608"><ele>112.000</ele></trkpt>
      <trkpt lat="22.4123116955" lon="114.3298756158"><ele>110.000</ele></trkpt>
      <trkpt lat="22.4122830158" lon="114.3298839370"><ele>108.000</ele></trkpt>
      <trkpt lat="22.4122603190" lon="114.3298826272"><ele>108.000</ele></trkpt>
      <trkpt lat="22.4122430020" lon="114.3298761835"><ele>108.000</ele></trkpt>
      <trkpt lat="22.4121307970" lon="114.3297784104"><ele>120.000</ele></trkpt>
      <trkpt lat="22.4120961316" lon="114.3297995727"><ele>125.000</ele></trkpt>
      <trkpt lat="22.4120680480" lon="114.3298098215"><ele>125.000</ele></trkpt>
      <trkpt lat="22.4120447411" lon="114.3298213595"><ele>123.000</ele></trkpt>
      <trkpt lat="22.4120184504" lon="114.3298303244"><ele>123.000</ele></trkpt>
      <trkpt lat="22.4119784195" lon="114.3298405601"><ele>114.000</ele></trkpt>
      <trkpt lat="22.4119455609" lon="114.3298456629"><ele>112.000</ele></trkpt>
      <trkpt lat="22.4119097132" lon="114.3298546183"><ele>115.000</ele></trkpt>
      <trkpt lat="22.4118816359" lon="114.3298571574"><ele>115.000</ele></trkpt>
      <trkpt lat="22.4118553525" lon="114.3298584126"><ele>118.000</ele></trkpt>
      <trkpt lat="22.4118350466" lon="114.3298545365"><ele>118.000</ele></trkpt>
      <trkpt lat="22.4118171317" lon="114.3298500201"><ele>122.000</ele></trkpt>
      <trkpt lat="22.4117908577" lon="114.3298403547"><ele>122.000</ele></trkpt>
      <trkpt lat="22.4117759341" lon="114.3298307018"><ele>123.000</ele></trkpt>
      <trkpt lat="22.4117532460" lon="114.3298191134"><ele>123.000</ele></trkpt>
      <trkpt lat="22.4117371325" lon="114.3298043194"><ele>122.000</ele></trkpt>
      <trkpt lat="22.4117192307" lon="114.3297850266"><ele>122.000</ele></trkpt>
      <trkpt lat="22.4117019346" lon="114.3297573829"><ele>122.000</ele></trkpt>
      <trkpt lat="22.4116912067" lon="114.3297323162"><ele>122.000</ele></trkpt>
      <trkpt lat="22.4116768963" lon="114.3297053187"><ele>122.000</ele></trkpt>
      <trkpt lat="22.4116589994" lon="114.3296808871"><ele>122.000</ele></trkpt>
      <trkpt lat="22.4116410970" lon="114.3296622364"><ele>122.000</ele></trkpt>
      <trkpt lat="22.4116202039" lon="114.3296480801"><ele>122.000</ele></trkpt>
      <trkpt lat="22.4115993157" lon="114.3296287841"><ele>122.000</ele></trkpt>
      <trkpt lat="22.4115617156" lon="114.3295953374"><ele>120.000</ele></trkpt>
      <trkpt lat="22.4115293050" lon="114.3295697751"><ele>120.000</ele></trkpt>
      <trkpt lat="22.4115096048" lon="114.3295575471"><ele>122.000</ele></trkpt>
      <trkpt lat="22.4114851239" lon="114.3295472418"><ele>119.000</ele></trkpt>
      <trkpt lat="22.4114576518" lon="114.3295420720"><ele>119.000</ele></trkpt>
      <trkpt lat="22.4114206218" lon="114.3295368917"><ele>119.000</ele></trkpt>
      <trkpt lat="22.4113865834" lon="114.3295272189"><ele>119.000</ele></trkpt>
      <trkpt lat="22.4113388194" lon="114.3295033968"><ele>117.000</ele></trkpt>
      <trkpt lat="22.4112779112" lon="114.3294827722"><ele>115.000</ele></trkpt>
      <trkpt lat="22.4112402973" lon="114.3294647429"><ele>118.000</ele></trkpt>
      <trkpt lat="22.4111985091" lon="114.3294377155"><ele>120.000</ele></trkpt>
      <trkpt lat="22.4111519513" lon="114.3294016884"><ele>120.000</ele></trkpt>
      <trkpt lat="22.4111125679" lon="114.3293592453"><ele>120.000</ele></trkpt>
      <trkpt lat="22.4110678111" lon="114.3293142256"><ele>118.000</ele></trkpt>
      <trkpt lat="22.4110349847" lon="114.3292852811"><ele>118.000</ele></trkpt>
      <trkpt lat="22.4110123108" lon="114.3292595586"><ele>115.000</ele></trkpt>
      <trkpt lat="22.4109950038" lon="114.3292434795"><ele>114.000</ele></trkpt>
      <trkpt lat="22.4109759017" lon="114.3292299673"><ele>114.000</ele></trkpt>
      <trkpt lat="22.4109579895" lon="114.3292215962"><ele>114.000</ele></trkpt>
      <trkpt lat="22.4109376861" lon="114.3292151503"><ele>114.000</ele></trkpt>
      <trkpt lat="22.4109161888" lon="114.3292087022"><ele>116.000</ele></trkpt>
      <trkpt lat="22.4108940913" lon="114.3292048233"><ele>116.000</ele></trkpt>
      <trkpt lat="22.4108737872" lon="114.3291990194"><ele>112.000</ele></trkpt>
      <trkpt lat="22.4108600549" lon="114.3291919378"><ele>112.000</ele></trkpt>
      <trkpt lat="22.4108457309" lon="114.3291803587"><ele>112.000</ele></trkpt>
      <trkpt lat="22.4108260319" lon="114.3291668459"><ele>105.000</ele></trkpt>
      <trkpt lat="22.4108075213" lon="114.3291591171"><ele>105.000</ele></trkpt>
      <trkpt lat="22.4107776627" lon="114.3291507330"><ele>104.000</ele></trkpt>
      <trkpt lat="22.4107430286" lon="114.3291397737"><ele>104.000</ele></trkpt>
      <trkpt lat="22.4107221312" lon="114.3291301145"><ele>104.000</ele></trkpt>
      <trkpt lat="22.4107060119" lon="114.3291204604"><ele>104.000</ele></trkpt>
      <trkpt lat="22.4106893017" lon="114.3291043810"><ele>104.000</ele></trkpt>
      <trkpt lat="22.4106791651" lon="114.3290850979"><ele>104.000</ele></trkpt>
      <trkpt lat="22.4106714186" lon="114.3290651744"><ele>104.000</ele></trkpt>
      <trkpt lat="22.4106666684" lon="114.3290356167"><ele>104.000</ele></trkpt>
      <trkpt lat="22.4106631126" lon="114.3290054193"><ele>104.000</ele></trkpt>
      <trkpt lat="22.4106607449" lon="114.3289822889"><ele>104.000</ele></trkpt>
      <trkpt lat="22.4106535980" lon="114.3289604392"><ele>109.000</ele></trkpt>
      <trkpt lat="22.4106416695" lon="114.3289405102"><ele>109.000</ele></trkpt>
      <trkpt lat="22.4106255607" lon="114.3289205777"><ele>109.000</ele></trkpt>
      <trkpt lat="22.4105933332" lon="114.3288903491"><ele>108.000</ele></trkpt>
      <trkpt lat="22.4105551402" lon="114.3288524035"><ele>102.000</ele></trkpt>
      <trkpt lat="22.4105235090" lon="114.3288228176"><ele>101.000</ele></trkpt>
      <trkpt lat="22.4104793423" lon="114.3287848665"><ele>102.000</ele></trkpt>
      <trkpt lat="22.4104399437" lon="114.3287584840"><ele>105.000</ele></trkpt>
      <trkpt lat="22.4103987381" lon="114.3287475187"><ele>103.000</ele></trkpt>
      <trkpt lat="22.4103563355" lon="114.3287397631"><ele>100.000</ele></trkpt>
      <trkpt lat="22.4103061674" lon="114.3287313570"><ele>98.000</ele></trkpt>
      <trkpt lat="22.4102518110" lon="114.3287306559"><ele>97.000</ele></trkpt>
      <trkpt lat="22.4101831181" lon="114.3287305812"><ele>97.000</ele></trkpt>
      <trkpt lat="22.4101383225" lon="114.3287266777"><ele>99.000</ele></trkpt>
      <trkpt lat="22.4100911434" lon="114.3287163470"><ele>96.000</ele></trkpt>
      <trkpt lat="22.4100439702" lon="114.3286989507"><ele>96.000</ele></trkpt>
      <trkpt lat="22.4100099347" lon="114.3286860654"><ele>95.000</ele></trkpt>
      <trkpt lat="22.4099770981" lon="114.3286686837"><ele>96.000</ele></trkpt>
      <trkpt lat="22.4099514315" lon="114.3286487409"><ele>96.000</ele></trkpt>
      <trkpt lat="22.4099329357" lon="114.3286262360"><ele>95.000</ele></trkpt>
      <trkpt lat="22.4099150391" lon="114.3286011620"><ele>96.000</ele></trkpt>
      <trkpt lat="22.4098965457" lon="114.3285760873"><ele>96.000</ele></trkpt>
      <trkpt lat="22.4098780535" lon="114.3285497276"><ele>96.000</ele></trkpt>
      <trkpt lat="22.4098661206" lon="114.3285342965"><ele>96.000</ele></trkpt>
      <trkpt lat="22.4098482274" lon="114.3285066536"><ele>96.000</ele></trkpt>
      <trkpt lat="22.4098339175" lon="114.3284790137"><ele>94.000</ele></trkpt>
      <trkpt lat="22.4098196045" lon="114.3284545855"><ele>96.000</ele></trkpt>
      <trkpt lat="22.4098070826" lon="114.3284308022"><ele>96.000</ele></trkpt>
      <trkpt lat="22.4097987394" lon="114.3284095934"><ele>96.000</ele></trkpt>
      <trkpt lat="22.4097892071" lon="114.3283832435"><ele>96.000</ele></trkpt>
      <trkpt lat="22.4097748978" lon="114.3283549616"><ele>101.000</ele></trkpt>
      <trkpt lat="22.4097576062" lon="114.3283221797"><ele>106.000</ele></trkpt>
      <trkpt lat="22.4097391161" lon="114.3282926083"><ele>103.000</ele></trkpt>
      <trkpt lat="22.4097164433" lon="114.3282656013"><ele>105.000</ele></trkpt>
      <trkpt lat="22.4096943656" lon="114.3282405228"><ele>98.000</ele></trkpt>
      <trkpt lat="22.4096764642" lon="114.3282205885"><ele>96.000</ele></trkpt>
      <trkpt lat="22.4096615507" lon="114.3282000145"><ele>96.000</ele></trkpt>
      <trkpt lat="22.4096460417" lon="114.3281768710"><ele>96.000</ele></trkpt>
      <trkpt lat="22.4096365025" lon="114.3281569458"><ele>96.000</ele></trkpt>
      <trkpt lat="22.4096251744" lon="114.3281350908"><ele>95.000</ele></trkpt>
      <trkpt lat="22.4096150461" lon="114.3281068135"><ele>94.000</ele></trkpt>
      <trkpt lat="22.4096073013" lon="114.3280849623"><ele>95.000</ele></trkpt>
      <trkpt lat="22.4095989526" lon="114.3280695352"><ele>95.000</ele></trkpt>
      <trkpt lat="22.4095882099" lon="114.3280598871"><ele>95.000</ele></trkpt>
      <trkpt lat="22.4095685120" lon="114.3280450906"><ele>94.000</ele></trkpt>
      <trkpt lat="22.4095488154" lon="114.3280290083"><ele>94.000</ele></trkpt>
      <trkpt lat="22.4095207628" lon="114.3280052083"><ele>94.000</ele></trkpt>
      <trkpt lat="22.4094933080" lon="114.3279814090"><ele>94.000</ele></trkpt>
      <trkpt lat="22.4094610762" lon="114.3279556776"><ele>94.000</ele></trkpt>
      <trkpt lat="22.4094383919" lon="114.3279408769"><ele>94.000</ele></trkpt>
      <trkpt lat="22.4094174969" lon="114.3279286481"><ele>94.000</ele></trkpt>
      <trkpt lat="22.4093960010" lon="114.3279196314"><ele>94.000</ele></trkpt>
      <trkpt lat="22.4093763002" lon="114.3279080467"><ele>94.000</ele></trkpt>
      <trkpt lat="22.4093601823" lon="114.3278977499"><ele>94.000</ele></trkpt>
      <trkpt lat="22.4093392884" lon="114.3278842371"><ele>92.000</ele></trkpt>
      <trkpt lat="22.4093183931" lon="114.3278713653"><ele>92.000</ele></trkpt>
      <trkpt lat="22.4092998828" lon="114.3278642787"><ele>94.000</ele></trkpt>
      <trkpt lat="22.4092885405" lon="114.3278565579"><ele>94.000</ele></trkpt>
      <trkpt lat="22.4092777990" lon="114.3278456250"><ele>94.000</ele></trkpt>
      <trkpt lat="22.4092664591" lon="114.3278353343"><ele>92.000</ele></trkpt>
      <trkpt lat="22.4092461613" lon="114.3278237481"><ele>92.000</ele></trkpt>
      <trkpt lat="22.4092198899" lon="114.3278121564"><ele>92.000</ele></trkpt>
      <trkpt lat="22.4091524151" lon="114.3277870290"><ele>92.000</ele></trkpt>
      <trkpt lat="22.4091070342" lon="114.3277696350"><ele>92.000</ele></trkpt>
      <trkpt lat="22.4090789726" lon="114.3277554716"><ele>92.000</ele></trkpt>
      <trkpt lat="22.4090526969" lon="114.3277483767"><ele>92.000</ele></trkpt>
      <trkpt lat="22.4090246347" lon="114.3277348552"><ele>92.000</ele></trkpt>
      <trkpt lat="22.4089882578" lon="114.3277168338"><ele>92.000</ele></trkpt>
      <trkpt lat="22.4089706710" lon="114.3277041968"><ele>92.000</ele></trkpt>
      <trkpt lat="22.4089443683" lon="114.3276884017"><ele>96.000</ele></trkpt>
      <trkpt lat="22.4089189019" lon="114.3276695142"><ele>95.000</ele></trkpt>
      <trkpt lat="22.4088740889" lon="114.3276435742"><ele>98.000</ele></trkpt>
      <trkpt lat="22.4088511838" lon="114.3276379942"><ele>96.000</ele></trkpt>
      <trkpt lat="22.4088357061" lon="114.3276365022"><ele>96.000</ele></trkpt>
      <trkpt lat="22.4088121543" lon="114.3276368468"><ele>96.000</ele></trkpt>
      <trkpt lat="22.4087927975" lon="114.3276416334"><ele>94.000</ele></trkpt>
      <trkpt lat="22.4087695639" lon="114.3276493790"><ele>94.000</ele></trkpt>
      <trkpt lat="22.4087611729" lon="114.3276512153"><ele>93.000</ele></trkpt>
      <trkpt lat="22.4087305511" lon="114.3276313025"><ele>92.000</ele></trkpt>
      <trkpt lat="22.4087186174" lon="114.3276253749"><ele>92.000</ele></trkpt>
      <trkpt lat="22.4086999101" lon="114.3276212863"><ele>90.000</ele></trkpt>
      <trkpt lat="22.4086624993" lon="114.3276186537"><ele>88.000</ele></trkpt>
      <trkpt lat="22.4086499125" lon="114.3276167958"><ele>88.000</ele></trkpt>
      <trkpt lat="22.4086283090" lon="114.3276090028"><ele>84.000</ele></trkpt>
      <trkpt lat="22.4085811157" lon="114.3275896840"><ele>83.000</ele></trkpt>
      <trkpt lat="22.4085720852" lon="114.3275896752"><ele>83.000</ele></trkpt>
      <trkpt lat="22.4085598170" lon="114.3275948386"><ele>83.000</ele></trkpt>
      <trkpt lat="22.4085459310" lon="114.3276111021"><ele>82.000</ele></trkpt>
      <trkpt lat="22.4085246113" lon="114.3276291825"><ele>80.000</ele></trkpt>
      <trkpt lat="22.4084923235" lon="114.3276535659"><ele>79.000</ele></trkpt>
      <trkpt lat="22.4084706971" lon="114.3276712963"><ele>79.000</ele></trkpt>
      <trkpt lat="22.4084555253" lon="114.3276816340"><ele>79.000</ele></trkpt>
      <trkpt lat="22.4084435818" lon="114.3276871764"><ele>76.000</ele></trkpt>
      <trkpt lat="22.4084297086" lon="114.3276897458"><ele>76.000</ele></trkpt>
      <trkpt lat="22.4084084252" lon="114.3276882466"><ele>76.000</ele></trkpt>
      <trkpt lat="22.4083742320" lon="114.3276826651"><ele>74.000</ele></trkpt>
      <trkpt lat="22.4083377862" lon="114.3276804026"><ele>74.000</ele></trkpt>
      <trkpt lat="22.4083187496" lon="114.3276807521"><ele>74.000</ele></trkpt>
      <trkpt lat="22.4083003622" lon="114.3276822192"><ele>71.000</ele></trkpt>
      <trkpt lat="22.4082845519" lon="114.3276799780"><ele>71.000</ele></trkpt>
      <trkpt lat="22.4082400561" lon="114.3276625463"><ele>68.000</ele></trkpt>
      <trkpt lat="22.4082164838" lon="114.3276558691"><ele>67.000</ele></trkpt>
      <trkpt lat="22.4082019722" lon="114.3276554843"><ele>67.000</ele></trkpt>
      <trkpt lat="22.4081755202" lon="114.3276573118"><ele>66.000</ele></trkpt>
      <trkpt lat="22.4081429386" lon="114.3276568988"><ele>66.000</ele></trkpt>
      <trkpt lat="22.4081203598" lon="114.3276491154"><ele>64.000</ele></trkpt>
      <trkpt lat="22.4080713486" lon="114.3276220542"><ele>62.000</ele></trkpt>
      <trkpt lat="22.4080165444" lon="114.3275901899"><ele>61.000</ele></trkpt>
      <trkpt lat="22.4079604381" lon="114.3275601686"><ele>58.000</ele></trkpt>
      <trkpt lat="22.4079075277" lon="114.3275310161"><ele>58.000</ele></trkpt>
      <trkpt lat="22.4078614209" lon="114.3275076680"><ele>58.000</ele></trkpt>
      <trkpt lat="22.4078188648" lon="114.3274824688"><ele>58.000</ele></trkpt>
      <trkpt lat="22.4077946832" lon="114.3274706047"><ele>58.000</ele></trkpt>
      <trkpt lat="22.4077601695" lon="114.3274591083"><ele>56.000</ele></trkpt>
      <trkpt lat="22.4077282451" lon="114.3274513052"><ele>56.000</ele></trkpt>
      <trkpt lat="22.4076940592" lon="114.3274368372"><ele>54.000</ele></trkpt>
      <trkpt lat="22.4076240385" lon="114.3274050829"><ele>52.000</ele></trkpt>
      <trkpt lat="22.4075690023" lon="114.3273652935"><ele>51.000</ele></trkpt>
      <trkpt lat="22.4075540573" lon="114.3273648472"><ele>51.000</ele></trkpt>
      <trkpt lat="22.4075338793" lon="114.3273632754"><ele>48.000</ele></trkpt>
      <trkpt lat="22.4075194701" lon="114.3273586088"><ele>48.000</ele></trkpt>
      <trkpt lat="22.4074941442" lon="114.3273332476"><ele>48.000</ele></trkpt>
      <trkpt lat="22.4074786310" lon="114.3273146013"><ele>48.000</ele></trkpt>
      <trkpt lat="22.4074493818" lon="114.3272927274"><ele>46.000</ele></trkpt>
      <trkpt lat="22.4074135647" lon="114.3272689195"><ele>46.000</ele></trkpt>
      <trkpt lat="22.4073747639" lon="114.3272412538"><ele>45.000</ele></trkpt>
      <trkpt lat="22.4073329809" lon="114.3272090892"><ele>44.000</ele></trkpt>
      <trkpt lat="22.4072888133" lon="114.3271717814"><ele>44.000</ele></trkpt>
      <trkpt lat="22.4072530048" lon="114.3271376944"><ele>44.000</ele></trkpt>
      <trkpt lat="22.4072154065" lon="114.3271016797"><ele>45.000</ele></trkpt>
      <trkpt lat="22.4071903476" lon="114.3270708170"><ele>45.000</ele></trkpt>
      <trkpt lat="22.4071712567" lon="114.3270450994"><ele>44.000</ele></trkpt>
      <trkpt lat="22.4071491824" lon="114.3270161679"><ele>42.000</ele></trkpt>
      <trkpt lat="22.4071318864" lon="114.3269878824"><ele>44.000</ele></trkpt>
      <trkpt lat="22.4071116049" lon="114.3269576679"><ele>43.000</ele></trkpt>
      <trkpt lat="22.4070835764" lon="114.3269088144"><ele>42.000</ele></trkpt>
      <trkpt lat="22.4070573415" lon="114.3268567512"><ele>42.000</ele></trkpt>
      <trkpt lat="22.4070376626" lon="114.3268213968"><ele>40.000</ele></trkpt>
      <trkpt lat="22.4070209694" lon="114.3267866895"><ele>40.000</ele></trkpt>
      <trkpt lat="22.4070179962" lon="114.3267725524"><ele>40.000</ele></trkpt>
      <trkpt lat="22.4070162361" lon="114.3267385031"><ele>40.000</ele></trkpt>
      <trkpt lat="22.4070126781" lon="114.3267102334"><ele>40.000</ele></trkpt>
      <trkpt lat="22.4070091106" lon="114.3266922419"><ele>40.000</ele></trkpt>
      <trkpt lat="22.4070019628" lon="114.3266710349"><ele>42.000</ele></trkpt>
      <trkpt lat="22.4069942159" lon="114.3266511121"><ele>42.000</ele></trkpt>
      <trkpt lat="22.4069858689" lon="114.3266337575"><ele>42.000</ele></trkpt>
      <trkpt lat="22.4069751297" lon="114.3266202550"><ele>41.000</ele></trkpt>
      <trkpt lat="22.4069578188" lon="114.3266080313"><ele>40.000</ele></trkpt>
      <trkpt lat="22.4069351317" lon="114.3265951590"><ele>40.000</ele></trkpt>
      <trkpt lat="22.4069088602" lon="114.3265835668"><ele>38.000</ele></trkpt>
      <trkpt lat="22.4068796001" lon="114.3265732572"><ele>40.000</ele></trkpt>
      <trkpt lat="22.4068622856" lon="114.3265648873"><ele>40.000</ele></trkpt>
      <trkpt lat="22.4068491516" lon="114.3265571638"><ele>40.000</ele></trkpt>
      <trkpt lat="22.4068204983" lon="114.3265372187"><ele>38.000</ele></trkpt>
      <trkpt lat="22.4067852781" lon="114.3265134118"><ele>38.000</ele></trkpt>
      <trkpt lat="22.4067590160" lon="114.3264915423"><ele>36.000</ele></trkpt>
      <trkpt lat="22.4067357391" lon="114.3264709600"><ele>36.000</ele></trkpt>
      <trkpt lat="22.4067142581" lon="114.3264458830"><ele>36.000</ele></trkpt>
      <trkpt lat="22.4066987453" lon="114.3264265939"><ele>39.000</ele></trkpt>
      <trkpt lat="22.4066892009" lon="114.3264130927"><ele>39.000</ele></trkpt>
      <trkpt lat="22.4066832409" lon="114.3263983115"><ele>38.000</ele></trkpt>
      <trkpt lat="22.4066731152" lon="114.3263668221"><ele>40.000</ele></trkpt>
      <trkpt lat="22.4066594182" lon="114.3263224819"><ele>40.000</ele></trkpt>
      <trkpt lat="22.4066445267" lon="114.3262768546"><ele>40.000</ele></trkpt>
      <trkpt lat="22.4066254573" lon="114.3262286540"><ele>38.000</ele></trkpt>
      <trkpt lat="22.4066010154" lon="114.3261759500"><ele>38.000</ele></trkpt>
      <trkpt lat="22.4065849131" lon="114.3261476670"><ele>38.000</ele></trkpt>
      <trkpt lat="22.4065688152" lon="114.3261155294"><ele>36.000</ele></trkpt>
      <trkpt lat="22.4065532795" lon="114.3260897158"><ele>34.000</ele></trkpt>
      <trkpt lat="22.4065218330" lon="114.3260434464"><ele>32.000</ele></trkpt>
      <trkpt lat="22.4065009398" lon="114.3260036778"><ele>32.000</ele></trkpt>
      <trkpt lat="22.4064638520" lon="114.3259405705"><ele>30.000</ele></trkpt>
      <trkpt lat="22.4064499239" lon="114.3259272978"><ele>30.000</ele></trkpt>
      <trkpt lat="22.4064129071" lon="114.3259185176"><ele>32.000</ele></trkpt>
      <trkpt lat="22.4063867250" lon="114.3259116913"><ele>32.000</ele></trkpt>
      <trkpt lat="22.4063740841" lon="114.3259097354"><ele>32.000</ele></trkpt>
      <trkpt lat="22.4063632511" lon="114.3259058390"><ele>32.000</ele></trkpt>
      <trkpt lat="22.4063515133" lon="114.3259038841"><ele>32.000</ele></trkpt>
      <trkpt lat="22.4063442907" lon="114.3259019340"><ele>32.000</ele></trkpt>
      <trkpt lat="22.4063298483" lon="114.3258951202"><ele>28.000</ele></trkpt>
      <trkpt lat="22.4063181131" lon="114.3258902517"><ele>27.000</ele></trkpt>
      <trkpt lat="22.4063000567" lon="114.3258853765"><ele>27.000</ele></trkpt>
      <trkpt lat="22.4062865136" lon="114.3258824485"><ele>27.000</ele></trkpt>
      <trkpt lat="22.4062738728" lon="114.3258804926"><ele>28.000</ele></trkpt>
      <trkpt lat="22.4062675532" lon="114.3258785434"><ele>28.000</ele></trkpt>
      <trkpt lat="22.4062359627" lon="114.3258610282"><ele>25.000</ele></trkpt>
      <trkpt lat="22.4062097860" lon="114.3258483748"><ele>22.000</ele></trkpt>
      <trkpt lat="22.4062025670" lon="114.3258425399"><ele>22.000</ele></trkpt>
      <trkpt lat="22.4061908346" lon="114.3258347578"><ele>24.000</ele></trkpt>
      <trkpt lat="22.4061818104" lon="114.3258279498"><ele>24.000</ele></trkpt>
      <trkpt lat="22.4061754944" lon="114.3258221159"><ele>24.000</ele></trkpt>
      <trkpt lat="22.4061682745" lon="114.3258172522"><ele>24.000</ele></trkpt>
      <trkpt lat="22.4061565447" lon="114.3258065566"><ele>24.000</ele></trkpt>
      <trkpt lat="22.4061439146" lon="114.3257929464"><ele>19.000</ele></trkpt>
    </trkseg>
  </trk>
</gpx>
