<?xml version="1.0" encoding="UTF-8"?>
<gpx xmlns:xsi="http://www.w3.org/2001/XMLSchema-instance"
     xsi:schemaLocation="http://www.topografix.com/GPX/1/1 http://www.topografix.com/GPX/1/1/gpx.xsd"
     version="1.1" creator="json3d_batch_to_gpx"
     xmlns="http://www.topografix.com/GPX/1/1">
  <metadata>
    <name>WuKauTangCountryTrail</name>
  </metadata>
  <trk>
    <name>WuKauTangCountryTrail</name>
    <type>hike</type>
    <trkseg>
      <trkpt lat="22.5103144492" lon="114.2443280716"><ele>118.000</ele></trkpt>
      <trkpt lat="22.5103349900" lon="114.2443357890"><ele>120.000</ele></trkpt>
      <trkpt lat="22.5103468349" lon="114.2443428800"><ele>120.000</ele></trkpt>
      <trkpt lat="22.5103605039" lon="114.2443500012"><ele>120.000</ele></trkpt>
      <trkpt lat="22.5103678082" lon="114.2443530760"><ele>120.000</ele></trkpt>
      <trkpt lat="22.5103746522" lon="114.2443556452"><ele>120.000</ele></trkpt>
      <trkpt lat="22.5103892889" lon="114.2443593262"><ele>120.000</ele></trkpt>
      <trkpt lat="22.5104112951" lon="114.2443611252"><ele>120.000</ele></trkpt>
      <trkpt lat="22.5104255089" lon="114.2443613362"><ele>120.000</ele></trkpt>
      <trkpt lat="22.5104333297" lon="114.2443599696"><ele>120.000</ele></trkpt>
      <trkpt lat="22.5104402201" lon="114.2443595744"><ele>120.000</ele></trkpt>
      <trkpt lat="22.5104613896" lon="114.2443539573"><ele>121.000</ele></trkpt>
      <trkpt lat="22.5104899565" lon="114.2443449906"><ele>121.000</ele></trkpt>
      <trkpt lat="22.5105350215" lon="114.2443367511"><ele>122.000</ele></trkpt>
      <trkpt lat="22.5105492445" lon="114.2443364664"><ele>123.000</ele></trkpt>
      <trkpt lat="22.5105873161" lon="114.2443375248"><ele>123.000</ele></trkpt>
      <trkpt lat="22.5106084294" lon="114.2443368450"><ele>124.000</ele></trkpt>
      <trkpt lat="22.5106373265" lon="114.2443372673"><ele>124.000</ele></trkpt>
      <trkpt lat="22.5106593237" lon="114.2443390760"><ele>126.000</ele></trkpt>
      <trkpt lat="22.5106647979" lon="114.2443411586"><ele>126.000</ele></trkpt>
      <trkpt lat="22.5106658742" lon="114.2443415673"><ele>126.000</ele></trkpt>
      <trkpt lat="22.5106711967" lon="114.2443436984"><ele>126.000</ele></trkpt>
      <trkpt lat="22.5106839442" lon="114.2443518008"><ele>128.000</ele></trkpt>
      <trkpt lat="22.5106903276" lon="114.2443543600"><ele>128.000</ele></trkpt>
      <trkpt lat="22.5107035451" lon="114.2443614712"><ele>128.000</ele></trkpt>
      <trkpt lat="22.5107108496" lon="114.2443640504"><ele>128.000</ele></trkpt>
      <trkpt lat="22.5107304501" lon="114.2443747219"><ele>126.000</ele></trkpt>
      <trkpt lat="22.5107427372" lon="114.2443823186"><ele>126.000</ele></trkpt>
      <trkpt lat="22.5107491110" lon="114.2443863650"><ele>126.000</ele></trkpt>
      <trkpt lat="22.5107604581" lon="114.2443959245"><ele>126.000</ele></trkpt>
      <trkpt lat="22.5107727451" lon="114.2444040072"><ele>126.000</ele></trkpt>
      <trkpt lat="22.5107791191" lon="114.2444075675"><ele>127.000</ele></trkpt>
      <trkpt lat="22.5107845623" lon="114.2444125853"><ele>127.000</ele></trkpt>
      <trkpt lat="22.5107963792" lon="114.2444216592"><ele>126.000</ele></trkpt>
      <trkpt lat="22.5108022926" lon="114.2444251998"><ele>126.000</ele></trkpt>
      <trkpt lat="22.5108091456" lon="114.2444277788"><ele>126.000</ele></trkpt>
      <trkpt lat="22.5108150680" lon="114.2444313195"><ele>126.000</ele></trkpt>
      <trkpt lat="22.5108219212" lon="114.2444334027"><ele>126.000</ele></trkpt>
      <trkpt lat="22.5108283044" lon="114.2444364577"><ele>126.000</ele></trkpt>
      <trkpt lat="22.5108497849" lon="114.2444432036"><ele>126.000</ele></trkpt>
      <trkpt lat="22.5108575407" lon="114.2444462786"><ele>126.000</ele></trkpt>
      <trkpt lat="22.5108717353" lon="114.2444489584"><ele>128.000</ele></trkpt>
      <trkpt lat="22.5108928112" lon="114.2444512429"><ele>128.000</ele></trkpt>
      <trkpt lat="22.5108996737" lon="114.2444528305"><ele>128.000</ele></trkpt>
      <trkpt lat="22.5109065455" lon="114.2444534267"><ele>128.000</ele></trkpt>
      <trkpt lat="22.5109179769" lon="114.2444560662"><ele>129.000</ele></trkpt>
      <trkpt lat="22.5109253091" lon="114.2444571583"><ele>129.000</ele></trkpt>
      <trkpt lat="22.5109399926" lon="114.2444568836"><ele>129.000</ele></trkpt>
      <trkpt lat="22.5109611338" lon="114.2444542308"><ele>130.000</ele></trkpt>
      <trkpt lat="22.5109680149" lon="114.2444543313"><ele>130.000</ele></trkpt>
      <trkpt lat="22.5109748868" lon="114.2444549276"><ele>130.000</ele></trkpt>
      <trkpt lat="22.5109886116" lon="114.2444580930"><ele>130.000</ele></trkpt>
      <trkpt lat="22.5109954833" lon="114.2444591849"><ele>130.000</ele></trkpt>
      <trkpt lat="22.5110028157" lon="114.2444597813"><ele>132.000</ele></trkpt>
      <trkpt lat="22.5110165779" lon="114.2444599824"><ele>132.000</ele></trkpt>
      <trkpt lat="22.5110234592" lon="114.2444595970"><ele>132.000</ele></trkpt>
      <trkpt lat="22.5110303590" lon="114.2444582105"><ele>132.000</ele></trkpt>
      <trkpt lat="22.5110372682" lon="114.2444558423"><ele>132.000</ele></trkpt>
      <trkpt lat="22.5110432839" lon="114.2444524727"><ele>132.000</ele></trkpt>
      <trkpt lat="22.5110497326" lon="114.2444500946"><ele>132.000</ele></trkpt>
      <trkpt lat="22.5110557484" lon="114.2444462292"><ele>132.000</ele></trkpt>
      <trkpt lat="22.5110613039" lon="114.2444418680"><ele>132.000</ele></trkpt>
      <trkpt lat="22.5110677711" lon="114.2444384985"><ele>132.000</ele></trkpt>
      <trkpt lat="22.5110802634" lon="114.2444307778"><ele>132.000</ele></trkpt>
      <trkpt lat="22.5110867120" lon="114.2444283997"><ele>132.000</ele></trkpt>
      <trkpt lat="22.5111009814" lon="114.2444251506"><ele>134.000</ele></trkpt>
      <trkpt lat="22.5111083140" lon="114.2444252611"><ele>134.000</ele></trkpt>
      <trkpt lat="22.5111151857" lon="114.2444263433"><ele>134.000</ele></trkpt>
      <trkpt lat="22.5111220387" lon="114.2444289222"><ele>134.000</ele></trkpt>
      <trkpt lat="22.5111416488" lon="114.2444381068"><ele>134.000</ele></trkpt>
      <trkpt lat="22.5111484740" lon="114.2444421631"><ele>134.000</ele></trkpt>
      <trkpt lat="22.5111612121" lon="114.2444512374"><ele>134.000</ele></trkpt>
      <trkpt lat="22.5111857864" lon="114.2444664308"><ele>137.000</ele></trkpt>
      <trkpt lat="22.5111957794" lon="114.2444749790"><ele>135.000</ele></trkpt>
      <trkpt lat="22.5112074235" lon="114.2444828913"><ele>135.000</ele></trkpt>
      <trkpt lat="22.5112251149" lon="114.2444915092"><ele>137.000</ele></trkpt>
      <trkpt lat="22.5112376646" lon="114.2444976317"><ele>137.000</ele></trkpt>
      <trkpt lat="22.5112633456" lon="114.2445072887"><ele>137.000</ele></trkpt>
      <trkpt lat="22.5112985811" lon="114.2445227352"><ele>137.000</ele></trkpt>
      <trkpt lat="22.5113278390" lon="114.2445497507"><ele>140.000</ele></trkpt>
      <trkpt lat="22.5113582936" lon="114.2445696950"><ele>138.000</ele></trkpt>
      <trkpt lat="22.5113899466" lon="114.2445812822"><ele>140.000</ele></trkpt>
      <trkpt lat="22.5114096497" lon="114.2446012222"><ele>141.000</ele></trkpt>
      <trkpt lat="22.5114622043" lon="114.2446256773"><ele>140.000</ele></trkpt>
      <trkpt lat="22.5115064010" lon="114.2446379141"><ele>142.000</ele></trkpt>
      <trkpt lat="22.5115380534" lon="114.2446507872"><ele>142.000</ele></trkpt>
      <trkpt lat="22.5115637312" lon="114.2446681585"><ele>143.000</ele></trkpt>
      <trkpt lat="22.5115876121" lon="114.2446958138"><ele>144.000</ele></trkpt>
      <trkpt lat="22.5116079044" lon="114.2447363261"><ele>146.000</ele></trkpt>
      <trkpt lat="22.5116180398" lon="114.2447819769"><ele>146.000</ele></trkpt>
      <trkpt lat="22.5116269829" lon="114.2448218403"><ele>146.000</ele></trkpt>
      <trkpt lat="22.5116418998" lon="114.2448591358"><ele>149.000</ele></trkpt>
      <trkpt lat="22.5116586105" lon="114.2448932170"><ele>149.000</ele></trkpt>
      <trkpt lat="22.5116723382" lon="114.2449195826"><ele>149.000</ele></trkpt>
      <trkpt lat="22.5117069549" lon="114.2449845324"><ele>152.000</ele></trkpt>
      <trkpt lat="22.5117236667" lon="114.2450160420"><ele>156.000</ele></trkpt>
      <trkpt lat="22.5117326098" lon="114.2450559063"><ele>155.000</ele></trkpt>
      <trkpt lat="22.5117409630" lon="114.2450790541"><ele>155.000</ele></trkpt>
      <trkpt lat="22.5117481290" lon="114.2450822728"><ele>155.000</ele></trkpt>
      <trkpt lat="22.5117552984" lon="114.2450797046"><ele>155.000</ele></trkpt>
      <trkpt lat="22.5117612758" lon="114.2450687781"><ele>155.000</ele></trkpt>
      <trkpt lat="22.5117732316" lon="114.2450462827"><ele>158.000</ele></trkpt>
      <trkpt lat="22.5117875793" lon="114.2450180016"><ele>158.000</ele></trkpt>
      <trkpt lat="22.5117989422" lon="114.2449858634"><ele>158.000</ele></trkpt>
      <trkpt lat="22.5118079174" lon="114.2449498654"><ele>158.000</ele></trkpt>
      <trkpt lat="22.5118139040" lon="114.2449190094"><ele>161.000</ele></trkpt>
      <trkpt lat="22.5118192888" lon="114.2448977967"><ele>161.000</ele></trkpt>
      <trkpt lat="22.5118288554" lon="114.2448746567"><ele>161.000</ele></trkpt>
      <trkpt lat="22.5118402146" lon="114.2448515185"><ele>160.000</ele></trkpt>
      <trkpt lat="22.5118539595" lon="114.2448348099"><ele>160.000</ele></trkpt>
      <trkpt lat="22.5118671050" lon="114.2448264587"><ele>162.000</ele></trkpt>
      <trkpt lat="22.5118814437" lon="114.2448193939"><ele>162.000</ele></trkpt>
      <trkpt lat="22.5118957840" lon="114.2448084706"><ele>162.000</ele></trkpt>
      <trkpt lat="22.5119113253" lon="114.2447827627"><ele>164.000</ele></trkpt>
      <trkpt lat="22.5119304525" lon="114.2447506272"><ele>162.000</ele></trkpt>
      <trkpt lat="22.5119549597" lon="114.2447107801"><ele>164.000</ele></trkpt>
      <trkpt lat="22.5119693030" lon="114.2446927859"><ele>163.000</ele></trkpt>
      <trkpt lat="22.5119812520" lon="114.2446863624"><ele>163.000</ele></trkpt>
      <trkpt lat="22.5119914067" lon="114.2446863674"><ele>163.000</ele></trkpt>
      <trkpt lat="22.5120003647" lon="114.2446908728"><ele>166.000</ele></trkpt>
      <trkpt lat="22.5120045422" lon="114.2446992325"><ele>166.000</ele></trkpt>
      <trkpt lat="22.5120075219" lon="114.2447172342"><ele>167.000</ele></trkpt>
      <trkpt lat="22.5120063177" lon="114.2447397358"><ele>167.000</ele></trkpt>
      <trkpt lat="22.5119991361" lon="114.2447712337"><ele>170.000</ele></trkpt>
      <trkpt lat="22.5119919535" lon="114.2448072327"><ele>166.000</ele></trkpt>
      <trkpt lat="22.5119847686" lon="114.2448464458"><ele>168.000</ele></trkpt>
      <trkpt lat="22.5119865509" lon="114.2448708762"><ele>170.000</ele></trkpt>
      <trkpt lat="22.5119913193" lon="114.2448933799"><ele>170.000</ele></trkpt>
      <trkpt lat="22.5119990764" lon="114.2449126707"><ele>174.000</ele></trkpt>
      <trkpt lat="22.5120038460" lon="114.2449345319"><ele>174.000</ele></trkpt>
      <trkpt lat="22.5120103988" lon="114.2449763235"><ele>174.000</ele></trkpt>
      <trkpt lat="22.5120181488" lon="114.2450123288"><ele>174.000</ele></trkpt>
      <trkpt lat="22.5120187351" lon="114.2450374021"><ele>174.000</ele></trkpt>
      <trkpt lat="22.5120235045" lon="114.2450599057"><ele>174.000</ele></trkpt>
      <trkpt lat="22.5120408116" lon="114.2450952742"><ele>178.000</ele></trkpt>
      <trkpt lat="22.5120718454" lon="114.2451589357"><ele>178.000</ele></trkpt>
      <trkpt lat="22.5120873636" lon="114.2451878740"><ele>181.000</ele></trkpt>
      <trkpt lat="22.5120999055" lon="114.2451930236"><ele>181.000</ele></trkpt>
      <trkpt lat="22.5121088709" lon="114.2451801693"><ele>181.000</ele></trkpt>
      <trkpt lat="22.5121136598" lon="114.2451544562"><ele>181.000</ele></trkpt>
      <trkpt lat="22.5121196454" lon="114.2451261719"><ele>181.000</ele></trkpt>
      <trkpt lat="22.5121238354" lon="114.2451049585"><ele>181.000</ele></trkpt>
      <trkpt lat="22.5121280225" lon="114.2450908169"><ele>184.000</ele></trkpt>
      <trkpt lat="22.5121387769" lon="114.2450863212"><ele>184.000</ele></trkpt>
      <trkpt lat="22.5121477379" lon="114.2450837538"><ele>184.000</ele></trkpt>
      <trkpt lat="22.5121596872" lon="114.2450766879"><ele>184.000</ele></trkpt>
      <trkpt lat="22.5121680547" lon="114.2450638342"><ele>184.000</ele></trkpt>
      <trkpt lat="22.5121758273" lon="114.2450464802"><ele>186.000</ele></trkpt>
      <trkpt lat="22.5121788254" lon="114.2450207652"><ele>186.000</ele></trkpt>
      <trkpt lat="22.5121830168" lon="114.2449963376"><ele>186.000</ele></trkpt>
      <trkpt lat="22.5121878041" lon="114.2449744811"><ele>186.000</ele></trkpt>
      <trkpt lat="22.5121919908" lon="114.2449609830"><ele>186.000</ele></trkpt>
      <trkpt lat="22.5122009547" lon="114.2449539146"><ele>186.000</ele></trkpt>
      <trkpt lat="22.5122117062" lon="114.2449539199"><ele>186.000</ele></trkpt>
      <trkpt lat="22.5122194693" lon="114.2449590672"><ele>188.000</ele></trkpt>
      <trkpt lat="22.5122332020" lon="114.2449712892"><ele>188.000</ele></trkpt>
      <trkpt lat="22.5122481252" lon="114.2449957271"><ele>188.000</ele></trkpt>
      <trkpt lat="22.5122564765" lon="114.2450214467"><ele>190.000</ele></trkpt>
      <trkpt lat="22.5122612376" lon="114.2450632375"><ele>190.000</ele></trkpt>
      <trkpt lat="22.5122683982" lon="114.2450793130"><ele>193.000</ele></trkpt>
      <trkpt lat="22.5122779562" lon="114.2450786752"><ele>193.000</ele></trkpt>
      <trkpt lat="22.5122863219" lon="114.2450703216"><ele>193.000</ele></trkpt>
      <trkpt lat="22.5122958889" lon="114.2450484675"><ele>192.000</ele></trkpt>
      <trkpt lat="22.5123054594" lon="114.2450163273"><ele>192.000</ele></trkpt>
      <trkpt lat="22.5123126398" lon="114.2449854718"><ele>194.000</ele></trkpt>
      <trkpt lat="22.5123204116" lon="114.2449700460"><ele>194.000</ele></trkpt>
      <trkpt lat="22.5123353555" lon="114.2449456237"><ele>194.000</ele></trkpt>
      <trkpt lat="22.5123437306" lon="114.2449147688"><ele>194.000</ele></trkpt>
      <trkpt lat="22.5123473275" lon="114.2448845540"><ele>192.000</ele></trkpt>
      <trkpt lat="22.5123449574" lon="114.2448389067"><ele>192.000</ele></trkpt>
      <trkpt lat="22.5123431850" lon="114.2447932607"><ele>192.000</ele></trkpt>
      <trkpt lat="22.5123437998" lon="114.2447508291"><ele>192.000</ele></trkpt>
      <trkpt lat="22.5123474016" lon="114.2447090434"><ele>190.000</ele></trkpt>
      <trkpt lat="22.5123587713" lon="114.2446608311"><ele>193.000</ele></trkpt>
      <trkpt lat="22.5123779043" lon="114.2446171236"><ele>193.000</ele></trkpt>
      <trkpt lat="22.5123934466" lon="114.2445888439"><ele>193.000</ele></trkpt>
      <trkpt lat="22.5124161561" lon="114.2445612101"><ele>194.000</ele></trkpt>
      <trkpt lat="22.5124370683" lon="114.2445470767"><ele>194.000</ele></trkpt>
      <trkpt lat="22.5124669449" lon="114.2445220171"><ele>196.000</ele></trkpt>
      <trkpt lat="22.5124974189" lon="114.2444982447"><ele>198.000</ele></trkpt>
      <trkpt lat="22.5125243078" lon="114.2444744715"><ele>198.000</ele></trkpt>
      <trkpt lat="22.5125470098" lon="114.2444667673"><ele>199.000</ele></trkpt>
      <trkpt lat="22.5125768781" lon="114.2444616393"><ele>199.000</ele></trkpt>
      <trkpt lat="22.5126145106" lon="114.2444590859"><ele>202.000</ele></trkpt>
      <trkpt lat="22.5126485578" lon="114.2444591024"><ele>204.000</ele></trkpt>
      <trkpt lat="22.5126718556" lon="114.2444539703"><ele>206.000</ele></trkpt>
      <trkpt lat="22.5127005351" lon="114.2444346970"><ele>206.000</ele></trkpt>
      <trkpt lat="22.5127310068" lon="114.2444141397"><ele>208.000</ele></trkpt>
      <trkpt lat="22.5127567027" lon="114.2443884356"><ele>208.000</ele></trkpt>
      <trkpt lat="22.5127746304" lon="114.2443698006"><ele>208.000</ele></trkpt>
      <trkpt lat="22.5127967370" lon="114.2443563101"><ele>208.000</ele></trkpt>
      <trkpt lat="22.5128230241" lon="114.2443441075"><ele>210.000</ele></trkpt>
      <trkpt lat="22.5128582711" lon="114.2443319102"><ele>210.000</ele></trkpt>
      <trkpt lat="22.5128851555" lon="114.2443209938"><ele>210.000</ele></trkpt>
      <trkpt lat="22.5129066643" lon="114.2443075030"><ele>212.000</ele></trkpt>
      <trkpt lat="22.5129257870" lon="114.2442882250"><ele>212.000</ele></trkpt>
      <trkpt lat="22.5129425216" lon="114.2442657317"><ele>212.000</ele></trkpt>
      <trkpt lat="22.5129520870" lon="114.2442451642"><ele>212.000</ele></trkpt>
      <trkpt lat="22.5129574749" lon="114.2442162360"><ele>212.000</ele></trkpt>
      <trkpt lat="22.5129586852" lon="114.2441789480"><ele>212.000</ele></trkpt>
      <trkpt lat="22.5129604882" lon="114.2441538757"><ele>212.000</ele></trkpt>
      <trkpt lat="22.5129664703" lon="114.2441313772"><ele>212.000</ele></trkpt>
      <trkpt lat="22.5129784237" lon="114.2441165968"><ele>212.000</ele></trkpt>
      <trkpt lat="22.5129987369" lon="114.2441050337"><ele>214.000</ele></trkpt>
      <trkpt lat="22.5130315961" lon="114.2440889776"><ele>216.000</ele></trkpt>
      <trkpt lat="22.5130734164" lon="114.2440722823"><ele>216.000</ele></trkpt>
      <trkpt lat="22.5131092655" lon="114.2440478699"><ele>218.000</ele></trkpt>
      <trkpt lat="22.5131451192" lon="114.2440144562"><ele>220.000</ele></trkpt>
      <trkpt lat="22.5131755951" lon="114.2439836117"><ele>223.000</ele></trkpt>
      <trkpt lat="22.5132138384" lon="114.2439476275"><ele>224.000</ele></trkpt>
      <trkpt lat="22.5132425179" lon="114.2439302824"><ele>224.000</ele></trkpt>
      <trkpt lat="22.5132891229" lon="114.2438975173"><ele>226.000</ele></trkpt>
      <trkpt lat="22.5133351327" lon="114.2438583225"><ele>228.000</ele></trkpt>
      <trkpt lat="22.5133727775" lon="114.2438261955"><ele>228.000</ele></trkpt>
      <trkpt lat="22.5133930921" lon="114.2438133474"><ele>230.000</ele></trkpt>
      <trkpt lat="22.5134092245" lon="114.2438011398"><ele>230.000</ele></trkpt>
      <trkpt lat="22.5134247627" lon="114.2437825034"><ele>228.000</ele></trkpt>
      <trkpt lat="22.5134450859" lon="114.2437490821"><ele>230.000</ele></trkpt>
      <trkpt lat="22.5134618174" lon="114.2437317312"><ele>230.000</ele></trkpt>
      <trkpt lat="22.5134797479" lon="114.2437060241"><ele>230.000</ele></trkpt>
      <trkpt lat="22.5134923048" lon="114.2436751709"><ele>230.000</ele></trkpt>
      <trkpt lat="22.5135072455" lon="114.2436558908"><ele>230.000</ele></trkpt>
      <trkpt lat="22.5135287551" lon="114.2436423998"><ele>232.000</ele></trkpt>
      <trkpt lat="22.5135478745" lon="114.2436308370"><ele>230.000</ele></trkpt>
      <trkpt lat="22.5135657996" lon="114.2436160594"><ele>230.000</ele></trkpt>
      <trkpt lat="22.5135956849" lon="114.2435697848"><ele>230.000</ele></trkpt>
      <trkpt lat="22.5136261702" lon="114.2435183669"><ele>231.000</ele></trkpt>
      <trkpt lat="22.5136650223" lon="114.2434553810"><ele>232.000</ele></trkpt>
      <trkpt lat="22.5137020758" lon="114.2434071804"><ele>232.000</ele></trkpt>
      <trkpt lat="22.5137271773" lon="114.2433750472"><ele>232.000</ele></trkpt>
      <trkpt lat="22.5137600441" lon="114.2433403459"><ele>232.000</ele></trkpt>
      <trkpt lat="22.5137833506" lon="114.2433139988"><ele>232.000</ele></trkpt>
      <trkpt lat="22.5138162214" lon="114.2432696539"><ele>233.000</ele></trkpt>
      <trkpt lat="22.5138658222" lon="114.2432137448"><ele>234.000</ele></trkpt>
      <trkpt lat="22.5139016807" lon="114.2431681153"><ele>235.000</ele></trkpt>
      <trkpt lat="22.5139554664" lon="114.2431025646"><ele>236.000</ele></trkpt>
      <trkpt lat="22.5139919271" lon="114.2430440784"><ele>236.000</ele></trkpt>
      <trkpt lat="22.5140271896" lon="114.2429939484"><ele>236.000</ele></trkpt>
      <trkpt lat="22.5140588702" lon="114.2429406024"><ele>236.000</ele></trkpt>
      <trkpt lat="22.5140827733" lon="114.2429148970"><ele>238.000</ele></trkpt>
      <trkpt lat="22.5141126448" lon="114.2429020532"><ele>238.000</ele></trkpt>
      <trkpt lat="22.5141484914" lon="114.2428853546"><ele>238.000</ele></trkpt>
      <trkpt lat="22.5141855357" lon="114.2428590129"><ele>240.000</ele></trkpt>
      <trkpt lat="22.5142207895" lon="114.2428300986"><ele>242.000</ele></trkpt>
      <trkpt lat="22.5142584335" lon="114.2427992570"><ele>242.000</ele></trkpt>
      <trkpt lat="22.5142948836" lon="114.2427664865"><ele>242.000</ele></trkpt>
      <trkpt lat="22.5143313302" lon="114.2427420728"><ele>244.000</ele></trkpt>
      <trkpt lat="22.5143570282" lon="114.2427105830"><ele>244.000</ele></trkpt>
      <trkpt lat="22.5143863111" lon="114.2426771656"><ele>244.000</ele></trkpt>
      <trkpt lat="22.5144245536" lon="114.2426424666"><ele>244.000</ele></trkpt>
      <trkpt lat="22.5144711591" lon="114.2426077714"><ele>244.000</ele></trkpt>
      <trkpt lat="22.5145219487" lon="114.2425653639"><ele>244.000</ele></trkpt>
      <trkpt lat="22.5145619834" lon="114.2425313090"><ele>244.000</ele></trkpt>
      <trkpt lat="22.5145918606" lon="114.2425043203"><ele>244.000</ele></trkpt>
      <trkpt lat="22.5146265142" lon="114.2424811925"><ele>245.000</ele></trkpt>
      <trkpt lat="22.5146611678" lon="114.2424599931"><ele>246.000</ele></trkpt>
      <trkpt lat="22.5146862601" lon="114.2424477894"><ele>246.000</ele></trkpt>
      <trkpt lat="22.5147101567" lon="114.2424400853"><ele>246.000</ele></trkpt>
      <trkpt lat="22.5147394250" lon="114.2424400991"><ele>246.000</ele></trkpt>
      <trkpt lat="22.5147758598" lon="114.2424446174"><ele>248.000</ele></trkpt>
      <trkpt lat="22.5148146851" lon="114.2424465641"><ele>249.000</ele></trkpt>
      <trkpt lat="22.5148684449" lon="114.2424440177"><ele>250.000</ele></trkpt>
      <trkpt lat="22.5149018991" lon="114.2424343897"><ele>252.000</ele></trkpt>
      <trkpt lat="22.5149407296" lon="114.2424234794"><ele>252.000</ele></trkpt>
      <trkpt lat="22.5149855344" lon="114.2424087132"><ele>253.000</ele></trkpt>
      <trkpt lat="22.5150267562" lon="114.2423933028"><ele>254.000</ele></trkpt>
      <trkpt lat="22.5150781361" lon="114.2423695394"><ele>254.000</ele></trkpt>
      <trkpt lat="22.5151223481" lon="114.2423444866"><ele>256.000</ele></trkpt>
      <trkpt lat="22.5151570006" lon="114.2423239295"><ele>254.000</ele></trkpt>
      <trkpt lat="22.5151892627" lon="114.2423078724"><ele>254.000</ele></trkpt>
      <trkpt lat="22.5152298915" lon="114.2422828179"><ele>256.000</ele></trkpt>
      <trkpt lat="22.5152693216" lon="114.2422654773"><ele>254.000</ele></trkpt>
      <trkpt lat="22.5152950100" lon="114.2422571315"><ele>255.000</ele></trkpt>
      <trkpt lat="22.5153296549" lon="114.2422552195"><ele>255.000</ele></trkpt>
      <trkpt lat="22.5153786346" lon="114.2422578143"><ele>255.000</ele></trkpt>
      <trkpt lat="22.5154437419" lon="114.2422597733"><ele>256.000</ele></trkpt>
      <trkpt lat="22.5155213928" lon="114.2422630251"><ele>256.000</ele></trkpt>
      <trkpt lat="22.5155566347" lon="114.2422630417"><ele>256.000</ele></trkpt>
      <trkpt lat="22.5155763480" lon="114.2422585498"><ele>257.000</ele></trkpt>
      <trkpt lat="22.5156109959" lon="114.2422514942"><ele>257.000</ele></trkpt>
      <trkpt lat="22.5156480331" lon="114.2422425112"><ele>257.000</ele></trkpt>
      <trkpt lat="22.5156904480" lon="114.2422309590"><ele>254.000</ele></trkpt>
      <trkpt lat="22.5157286797" lon="114.2422226191"><ele>255.000</ele></trkpt>
      <trkpt lat="22.5157621305" lon="114.2422213489"><ele>256.000</ele></trkpt>
      <trkpt lat="22.5157884125" lon="114.2422213613"><ele>256.000</ele></trkpt>
      <trkpt lat="22.5158111102" lon="114.2422239438"><ele>256.000</ele></trkpt>
      <trkpt lat="22.5158493332" lon="114.2422368198"><ele>256.000</ele></trkpt>
      <trkpt lat="22.5158935278" lon="114.2422548424"><ele>256.000</ele></trkpt>
      <trkpt lat="22.5159353331" lon="114.2422722203"><ele>258.000</ele></trkpt>
      <trkpt lat="22.5159723590" lon="114.2422934538"><ele>258.000</ele></trkpt>
      <trkpt lat="22.5159956512" lon="114.2423018226"><ele>258.000</ele></trkpt>
      <trkpt lat="22.5160070003" lon="114.2423024714"><ele>258.000</ele></trkpt>
      <trkpt lat="22.5160111837" lon="114.2422966863"><ele>258.000</ele></trkpt>
      <trkpt lat="22.5160111884" lon="114.2422851141"><ele>258.000</ele></trkpt>
      <trkpt lat="22.5160100005" lon="114.2422683977"><ele>258.000</ele></trkpt>
      <trkpt lat="22.5160040363" lon="114.2422452505"><ele>258.000</ele></trkpt>
      <trkpt lat="22.5159938926" lon="114.2422182427"><ele>260.000</ele></trkpt>
      <trkpt lat="22.5159730000" lon="114.2421848022"><ele>263.000</ele></trkpt>
      <trkpt lat="22.5159353911" lon="114.2421294934"><ele>264.000</ele></trkpt>
      <trkpt lat="22.5158971865" lon="114.2420709701"><ele>265.000</ele></trkpt>
      <trkpt lat="22.5158559950" lon="114.2420118030"><ele>266.000</ele></trkpt>
      <trkpt lat="22.5158333122" lon="114.2419745030"><ele>267.000</ele></trkpt>
      <trkpt lat="22.5158136189" lon="114.2419294900"><ele>268.000</ele></trkpt>
      <trkpt lat="22.5157933280" lon="114.2418838332"><ele>270.000</ele></trkpt>
      <trkpt lat="22.5157855789" lon="114.2418439694"><ele>270.000</ele></trkpt>
      <trkpt lat="22.5157814191" lon="114.2417912483"><ele>270.000</ele></trkpt>
      <trkpt lat="22.5157808428" lon="114.2417378863"><ele>270.000</ele></trkpt>
      <trkpt lat="22.5157874278" lon="114.2417018860"><ele>273.000</ele></trkpt>
      <trkpt lat="22.5158065577" lon="114.2416639631"><ele>274.000</ele></trkpt>
      <trkpt lat="22.5158191199" lon="114.2416189652"><ele>274.000</ele></trkpt>
      <trkpt lat="22.5158298867" lon="114.2415810384"><ele>274.000</ele></trkpt>
      <trkpt lat="22.5158460293" lon="114.2415431141"><ele>276.000</ele></trkpt>
      <trkpt lat="22.5158693397" lon="114.2415064790"><ele>276.000</ele></trkpt>
      <trkpt lat="22.5159004240" lon="114.2414479881"><ele>277.000</ele></trkpt>
      <trkpt lat="22.5159177632" lon="114.2414074925"><ele>278.000</ele></trkpt>
      <trkpt lat="22.5159243489" lon="114.2413695638"><ele>282.000</ele></trkpt>
      <trkpt lat="22.5159225729" lon="114.2413284159"><ele>282.000</ele></trkpt>
      <trkpt lat="22.5159160178" lon="114.2412898385"><ele>281.000</ele></trkpt>
      <trkpt lat="22.5159076691" lon="114.2412564030"><ele>283.000</ele></trkpt>
      <trkpt lat="22.5158939472" lon="114.2412139637"><ele>283.000</ele></trkpt>
      <trkpt lat="22.5158838126" lon="114.2411638125"><ele>286.000</ele></trkpt>
      <trkpt lat="22.5158706924" lon="114.2411117297"><ele>286.000</ele></trkpt>
      <trkpt lat="22.5158515964" lon="114.2410673605"><ele>286.000</ele></trkpt>
      <trkpt lat="22.5158056302" lon="114.2409966183"><ele>288.000</ele></trkpt>
      <trkpt lat="22.5157566761" lon="114.2409297325"><ele>290.000</ele></trkpt>
      <trkpt lat="22.5157310116" lon="114.2408802167"><ele>292.000</ele></trkpt>
      <trkpt lat="22.5156934028" lon="114.2408236225"><ele>296.000</ele></trkpt>
      <trkpt lat="22.5156420551" lon="114.2407670229"><ele>298.000</ele></trkpt>
      <trkpt lat="22.5155930928" lon="114.2407226392"><ele>300.000</ele></trkpt>
      <trkpt lat="22.5155751814" lon="114.2407014150"><ele>300.000</ele></trkpt>
      <trkpt lat="22.5155656346" lon="114.2406737651"><ele>298.000</ele></trkpt>
      <trkpt lat="22.5155602764" lon="114.2406294024"><ele>300.000</ele></trkpt>
      <trkpt lat="22.5155567092" lon="114.2405888972"><ele>300.000</ele></trkpt>
      <trkpt lat="22.5155585229" lon="114.2405329637"><ele>297.000</ele></trkpt>
      <trkpt lat="22.5155699061" lon="114.2404474626"><ele>296.000</ele></trkpt>
      <trkpt lat="22.5155824701" lon="114.2403947492"><ele>294.000</ele></trkpt>
      <trkpt lat="22.5155938286" lon="114.2403716091"><ele>294.000</ele></trkpt>
      <trkpt lat="22.5156350716" lon="114.2402996221"><ele>292.000</ele></trkpt>
      <trkpt lat="22.5156846821" lon="114.2402186376"><ele>291.000</ele></trkpt>
      <trkpt lat="22.5157295104" lon="114.2401434370"><ele>290.000</ele></trkpt>
      <trkpt lat="22.5157659819" lon="114.2400547319"><ele>288.000</ele></trkpt>
      <trkpt lat="22.5158030459" lon="114.2399795277"><ele>288.000</ele></trkpt>
      <trkpt lat="22.5158407057" lon="114.2399068954"><ele>286.000</ele></trkpt>
      <trkpt lat="22.5158735705" lon="114.2398754071"><ele>286.000</ele></trkpt>
      <trkpt lat="22.5159351105" lon="114.2398342889"><ele>286.000</ele></trkpt>
      <trkpt lat="22.5160044204" lon="114.2397835303"><ele>286.000</ele></trkpt>
      <trkpt lat="22.5160749226" lon="114.2397366290"><ele>286.000</ele></trkpt>
      <trkpt lat="22.5161740819" lon="114.2397263876"><ele>284.000</ele></trkpt>
      <trkpt lat="22.5162559184" lon="114.2397180667"><ele>282.000</ele></trkpt>
      <trkpt lat="22.5163108739" lon="114.2397148773"><ele>280.000</ele></trkpt>
      <trkpt lat="22.5163646339" lon="114.2397116863"><ele>280.000</ele></trkpt>
      <trkpt lat="22.5164058517" lon="114.2397059188"><ele>280.000</ele></trkpt>
      <trkpt lat="22.5164452782" lon="114.2396969353"><ele>278.000</ele></trkpt>
      <trkpt lat="22.5164757452" lon="114.2396866627"><ele>278.000</ele></trkpt>
      <trkpt lat="22.5165133828" lon="114.2396706073"><ele>276.000</ele></trkpt>
      <trkpt lat="22.5165874664" lon="114.2396307794"><ele>276.000</ele></trkpt>
      <trkpt lat="22.5166418364" lon="114.2395960863"><ele>275.000</ele></trkpt>
      <trkpt lat="22.5166932189" lon="114.2395646070"><ele>272.000</ele></trkpt>
      <trkpt lat="22.5167344435" lon="114.2395389092"><ele>274.000</ele></trkpt>
      <trkpt lat="22.5167935914" lon="114.2395067900"><ele>273.000</ele></trkpt>
      <trkpt lat="22.5168336229" lon="114.2394791623"><ele>272.000</ele></trkpt>
      <trkpt lat="22.5168778305" lon="114.2394643947"><ele>273.000</ele></trkpt>
      <trkpt lat="22.5169190525" lon="114.2394476973"><ele>272.000</ele></trkpt>
      <trkpt lat="22.5169626666" lon="114.2394220006"><ele>270.000</ele></trkpt>
      <trkpt lat="22.5169919460" lon="114.2393956539"><ele>272.000</ele></trkpt>
      <trkpt lat="22.5170391520" lon="114.2393500275"><ele>272.000</ele></trkpt>
      <trkpt lat="22.5170875543" lon="114.2392999024"><ele>272.000</ele></trkpt>
      <trkpt lat="22.5171234098" lon="114.2392594145"><ele>272.000</ele></trkpt>
      <trkpt lat="22.5171598618" lon="114.2392195693"><ele>272.000</ele></trkpt>
      <trkpt lat="22.5171897405" lon="114.2391848649"><ele>270.000</ele></trkpt>
      <trkpt lat="22.5172160403" lon="114.2391411583"><ele>272.000</ele></trkpt>
      <trkpt lat="22.5172357702" lon="114.2390935911"><ele>272.000</ele></trkpt>
      <trkpt lat="22.5172501213" lon="114.2390537369"><ele>272.000</ele></trkpt>
      <trkpt lat="22.5172525222" lon="114.2390241628"><ele>274.000</ele></trkpt>
      <trkpt lat="22.5172555214" lon="114.2389907322"><ele>274.000</ele></trkpt>
      <trkpt lat="22.5172585151" lon="114.2389740185"><ele>274.000</ele></trkpt>
      <trkpt lat="22.5172710707" lon="114.2389418771"><ele>274.000</ele></trkpt>
      <trkpt lat="22.5172937883" lon="114.2388930262"><ele>274.000</ele></trkpt>
      <trkpt lat="22.5173051491" lon="114.2388608852"><ele>274.000</ele></trkpt>
      <trkpt lat="22.5173141301" lon="114.2388062410"><ele>274.000</ele></trkpt>
      <trkpt lat="22.5173243169" lon="114.2387226656"><ele>270.000</ele></trkpt>
      <trkpt lat="22.5173380940" lon="114.2386230193"><ele>270.000</ele></trkpt>
      <trkpt lat="22.5173470874" lon="114.2385355855"><ele>270.000</ele></trkpt>
      <trkpt lat="22.5173483139" lon="114.2384526496"><ele>270.000</ele></trkpt>
      <trkpt lat="22.5173513231" lon="114.2383928590"><ele>270.000</ele></trkpt>
      <trkpt lat="22.5173507467" lon="114.2383369246"><ele>268.000</ele></trkpt>
      <trkpt lat="22.5173394259" lon="114.2382642695"><ele>267.000</ele></trkpt>
      <trkpt lat="22.5173358690" lon="114.2381929037"><ele>264.000</ele></trkpt>
      <trkpt lat="22.5173335021" lon="114.2381337542"><ele>264.000</ele></trkpt>
      <trkpt lat="22.5173275454" lon="114.2380893898"><ele>263.000</ele></trkpt>
      <trkpt lat="22.5173156211" lon="114.2380315220"><ele>264.000</ele></trkpt>
      <trkpt lat="22.5173066812" lon="114.2379787983"><ele>264.000</ele></trkpt>
      <trkpt lat="22.5173013169" lon="114.2379485783"><ele>264.000</ele></trkpt>
      <trkpt lat="22.5173025213" lon="114.2379228624"><ele>264.000</ele></trkpt>
      <trkpt lat="22.5173091057" lon="114.2378862190"><ele>264.000</ele></trkpt>
      <trkpt lat="22.5173222662" lon="114.2378347908"><ele>264.000</ele></trkpt>
      <trkpt lat="22.5173408068" lon="114.2377743646"><ele>264.000</ele></trkpt>
      <trkpt lat="22.5173539662" lon="114.2377255083"><ele>266.000</ele></trkpt>
      <trkpt lat="22.5173587525" lon="114.2377036508"><ele>266.000</ele></trkpt>
      <trkpt lat="22.5173539816" lon="114.2376850043"><ele>266.000</ele></trkpt>
      <trkpt lat="22.5173336873" lon="114.2376451338"><ele>266.000</ele></trkpt>
      <trkpt lat="22.5173056298" lon="114.2376001173"><ele>265.000</ele></trkpt>
      <trkpt lat="22.5172793674" lon="114.2375480294"><ele>264.000</ele></trkpt>
      <trkpt lat="22.5172543000" lon="114.2374952987"><ele>264.000</ele></trkpt>
      <trkpt lat="22.5172280377" lon="114.2374432109"><ele>262.000</ele></trkpt>
      <trkpt lat="22.5172035659" lon="114.2373936958"><ele>260.000</ele></trkpt>
      <trkpt lat="22.5171910337" lon="114.2373621868"><ele>258.000</ele></trkpt>
      <trkpt lat="22.5171773081" lon="114.2373293923"><ele>260.000</ele></trkpt>
      <trkpt lat="22.5171570155" lon="114.2372850217"><ele>258.000</ele></trkpt>
      <trkpt lat="22.5171486683" lon="114.2372451565"><ele>258.000</ele></trkpt>
      <trkpt lat="22.5171456936" lon="114.2372117243"><ele>258.000</ele></trkpt>
      <trkpt lat="22.5171415214" lon="114.2371879344"><ele>258.000</ele></trkpt>
      <trkpt lat="22.5171355548" lon="114.2371692865"><ele>260.000</ele></trkpt>
      <trkpt lat="22.5171283934" lon="114.2371532109"><ele>260.000</ele></trkpt>
      <trkpt lat="22.5171164503" lon="114.2371448477"><ele>260.000</ele></trkpt>
      <trkpt lat="22.5170961441" lon="114.2371364809"><ele>258.000</ele></trkpt>
      <trkpt lat="22.5170728533" lon="114.2371236126"><ele>259.000</ele></trkpt>
      <trkpt lat="22.5170525507" lon="114.2371081738"><ele>258.000</ele></trkpt>
      <trkpt lat="22.5170388167" lon="114.2370953086"><ele>258.000</ele></trkpt>
      <trkpt lat="22.5170304615" lon="114.2370766607"><ele>258.000</ele></trkpt>
      <trkpt lat="22.5170215132" lon="114.2370432249"><ele>258.000</ele></trkpt>
      <trkpt lat="22.5170125657" lon="114.2370123609"><ele>259.000</ele></trkpt>
      <trkpt lat="22.5169988365" lon="114.2369866386"><ele>258.000</ele></trkpt>
      <trkpt lat="22.5169779377" lon="114.2369666983"><ele>258.000</ele></trkpt>
      <trkpt lat="22.5169570385" lon="114.2369480450"><ele>258.000</ele></trkpt>
      <trkpt lat="22.5169433047" lon="114.2369345374"><ele>258.000</ele></trkpt>
      <trkpt lat="22.5169343507" lon="114.2369210328"><ele>258.000</ele></trkpt>
      <trkpt lat="22.5169289796" lon="114.2369062430"><ele>258.000</ele></trkpt>
      <trkpt lat="22.5169271973" lon="114.2368811683"><ele>256.000</ele></trkpt>
      <trkpt lat="22.5169218369" lon="114.2368400196"><ele>256.000</ele></trkpt>
      <trkpt lat="22.5169134908" lon="114.2367943684"><ele>256.000</ele></trkpt>
      <trkpt lat="22.5169069352" lon="114.2367545051"><ele>254.000</ele></trkpt>
      <trkpt lat="22.5169039615" lon="114.2367204284"><ele>253.000</ele></trkpt>
      <trkpt lat="22.5169009897" lon="114.2366812092"><ele>252.000</ele></trkpt>
      <trkpt lat="22.5168974118" lon="114.2366644917"><ele>252.000</ele></trkpt>
      <trkpt lat="22.5168902480" lon="114.2366548457"><ele>252.000</ele></trkpt>
      <trkpt lat="22.5168753168" lon="114.2366484097"><ele>252.000</ele></trkpt>
      <trkpt lat="22.5168508291" lon="114.2366413271"><ele>249.000</ele></trkpt>
      <trkpt lat="22.5168281344" lon="114.2366329594"><ele>249.000</ele></trkpt>
      <trkpt lat="22.5168120102" lon="114.2366220226"><ele>248.000</ele></trkpt>
      <trkpt lat="22.5168018617" lon="114.2366078742"><ele>248.000</ele></trkpt>
      <trkpt lat="22.5167791687" lon="114.2365924344"><ele>244.000</ele></trkpt>
      <trkpt lat="22.5167582646" lon="114.2365866393"><ele>244.000</ele></trkpt>
      <trkpt lat="22.5167325800" lon="114.2365853423"><ele>244.000</ele></trkpt>
      <trkpt lat="22.5166997261" lon="114.2365891860"><ele>244.000</ele></trkpt>
      <trkpt lat="22.5166459655" lon="114.2365943055"><ele>242.000</ele></trkpt>
      <trkpt lat="22.5165826478" lon="114.2365974936"><ele>244.000</ele></trkpt>
      <trkpt lat="22.5165384455" lon="114.2365987605"><ele>244.000</ele></trkpt>
      <trkpt lat="22.5165169420" lon="114.2365974653"><ele>244.000</ele></trkpt>
      <trkpt lat="22.5165020127" lon="114.2365884575"><ele>244.000</ele></trkpt>
      <trkpt lat="22.5164745429" lon="114.2365698015"><ele>244.000</ele></trkpt>
      <trkpt lat="22.5164422985" lon="114.2365395701"><ele>242.000</ele></trkpt>
      <trkpt lat="22.5164243875" lon="114.2365157745"><ele>242.000</ele></trkpt>
      <trkpt lat="22.5164064812" lon="114.2364791208"><ele>242.000</ele></trkpt>
      <trkpt lat="22.5163903677" lon="114.2364418244"><ele>240.000</ele></trkpt>
      <trkpt lat="22.5163748458" lon="114.2364186733"><ele>240.000</ele></trkpt>
      <trkpt lat="22.5163491705" lon="114.2363923025"><ele>238.000</ele></trkpt>
      <trkpt lat="22.5163127469" lon="114.2363569258"><ele>238.000</ele></trkpt>
      <trkpt lat="22.5162912540" lon="114.2363292720"><ele>236.000</ele></trkpt>
      <trkpt lat="22.5162709599" lon="114.2362881171"><ele>235.000</ele></trkpt>
      <trkpt lat="22.5162530587" lon="114.2362373184"><ele>234.000</ele></trkpt>
      <trkpt lat="22.5162417279" lon="114.2361871660"><ele>232.000</ele></trkpt>
      <trkpt lat="22.5162303976" lon="114.2361376570"><ele>232.000</ele></trkpt>
      <trkpt lat="22.5162202541" lon="114.2361074353"><ele>230.000</ele></trkpt>
      <trkpt lat="22.5162005509" lon="114.2360849249"><ele>230.000</ele></trkpt>
      <trkpt lat="22.5161814458" lon="114.2360592005"><ele>229.000</ele></trkpt>
      <trkpt lat="22.5161504010" lon="114.2360154693"><ele>229.000</ele></trkpt>
      <trkpt lat="22.5161336881" lon="114.2359820305"><ele>228.000</ele></trkpt>
      <trkpt lat="22.5161205596" lon="114.2359479498"><ele>225.000</ele></trkpt>
      <trkpt lat="22.5161020457" lon="114.2359402274"><ele>225.000</ele></trkpt>
      <trkpt lat="22.5160745690" lon="114.2359402157"><ele>225.000</ele></trkpt>
      <trkpt lat="22.5160476885" lon="114.2359421327"><ele>224.000</ele></trkpt>
      <trkpt lat="22.5160088607" lon="114.2359466164"><ele>222.000</ele></trkpt>
      <trkpt lat="22.5159521145" lon="114.2359472357"><ele>220.000</ele></trkpt>
      <trkpt lat="22.5159318059" lon="114.2359478695"><ele>220.000</ele></trkpt>
      <trkpt lat="22.5159192630" lon="114.2359446499"><ele>218.000</ele></trkpt>
      <trkpt lat="22.5158965727" lon="114.2359240667"><ele>218.000</ele></trkpt>
      <trkpt lat="22.5158810454" lon="114.2359131314"><ele>216.000</ele></trkpt>
      <trkpt lat="22.5158607407" lon="114.2359028355"><ele>216.000</ele></trkpt>
      <trkpt lat="22.5158410342" lon="114.2358893266"><ele>216.000</ele></trkpt>
      <trkpt lat="22.5158147638" lon="114.2358578122"><ele>213.000</ele></trkpt>
      <trkpt lat="22.5158016296" lon="114.2358391624"><ele>213.000</ele></trkpt>
      <trkpt lat="22.5157932743" lon="114.2358179429"><ele>212.000</ele></trkpt>
      <trkpt lat="22.5157897022" lon="114.2357851522"><ele>212.000</ele></trkpt>
      <trkpt lat="22.5157783681" lon="114.2357459297"><ele>208.000</ele></trkpt>
      <trkpt lat="22.5157580677" lon="114.2357214908"><ele>206.000</ele></trkpt>
      <trkpt lat="22.5157282077" lon="114.2357047624"><ele>205.000</ele></trkpt>
      <trkpt lat="22.5156989464" lon="114.2356854624"><ele>205.000</ele></trkpt>
      <trkpt lat="22.5156613284" lon="114.2356488006"><ele>202.000</ele></trkpt>
      <trkpt lat="22.5156326701" lon="114.2356127851"><ele>198.000</ele></trkpt>
      <trkpt lat="22.5156070010" lon="114.2355690564"><ele>196.000</ele></trkpt>
      <trkpt lat="22.5155628097" lon="114.2355401064"><ele>194.000</ele></trkpt>
      <trkpt lat="22.5155502705" lon="114.2355265996"><ele>192.000</ele></trkpt>
      <trkpt lat="22.5155353475" lon="114.2355002337"><ele>192.000</ele></trkpt>
      <trkpt lat="22.5155084770" lon="114.2354745063"><ele>189.000</ele></trkpt>
      <trkpt lat="22.5154720505" lon="114.2354468454"><ele>188.000</ele></trkpt>
      <trkpt lat="22.5154392108" lon="114.2354114717"><ele>186.000</ele></trkpt>
      <trkpt lat="22.5154015907" lon="114.2353805961"><ele>183.000</ele></trkpt>
      <trkpt lat="22.5153753162" lon="114.2353574398"><ele>182.000</ele></trkpt>
      <trkpt lat="22.5153693503" lon="114.2353387932"><ele>182.000</ele></trkpt>
      <trkpt lat="22.5153645861" lon="114.2352982877"><ele>182.000</ele></trkpt>
      <trkpt lat="22.5153651986" lon="114.2352577845"><ele>180.000</ele></trkpt>
      <trkpt lat="22.5153658128" lon="114.2352102093"><ele>178.000</ele></trkpt>
      <trkpt lat="22.5153640326" lon="114.2351787063"><ele>178.000</ele></trkpt>
      <trkpt lat="22.5153520947" lon="114.2351529843"><ele>178.000</ele></trkpt>
      <trkpt lat="22.5153306032" lon="114.2351208296"><ele>176.000</ele></trkpt>
      <trkpt lat="22.5153049277" lon="114.2350944594"><ele>176.000</ele></trkpt>
      <trkpt lat="22.5152816381" lon="114.2350777339"><ele>176.000</ele></trkpt>
      <trkpt lat="22.5152667103" lon="114.2350642271"><ele>176.000</ele></trkpt>
      <trkpt lat="22.5152619394" lon="114.2350423658"><ele>176.000</ele></trkpt>
      <trkpt lat="22.5152643374" lon="114.2350185790"><ele>174.000</ele></trkpt>
      <trkpt lat="22.5152703189" lon="114.2349941514"><ele>174.000</ele></trkpt>
      <trkpt lat="22.5152768971" lon="114.2349729382"><ele>174.000</ele></trkpt>
      <trkpt lat="22.5152745164" lon="114.2349510779"><ele>174.000</ele></trkpt>
      <trkpt lat="22.5152715396" lon="114.2349221453"><ele>172.000</ele></trkpt>
      <trkpt lat="22.5152727464" lon="114.2348887143"><ele>172.000</ele></trkpt>
      <trkpt lat="22.5152775320" lon="114.2348700722"><ele>172.000</ele></trkpt>
      <trkpt lat="22.5152912814" lon="114.2348405042"><ele>170.000</ele></trkpt>
      <trkpt lat="22.5152972627" lon="114.2348167189"><ele>168.000</ele></trkpt>
      <trkpt lat="22.5152984678" lon="114.2347877881"><ele>168.000</ele></trkpt>
      <trkpt lat="22.5153050464" lon="114.2347652890"><ele>168.000</ele></trkpt>
      <trkpt lat="22.5153140135" lon="114.2347453628"><ele>166.000</ele></trkpt>
      <trkpt lat="22.5153110359" lon="114.2347209304"><ele>166.000</ele></trkpt>
      <trkpt lat="22.5153080607" lon="114.2346874976"><ele>165.000</ele></trkpt>
      <trkpt lat="22.5153086687" lon="114.2346592100"><ele>165.000</ele></trkpt>
      <trkpt lat="22.5153164454" lon="114.2346270676"><ele>162.000</ele></trkpt>
      <trkpt lat="22.5153146649" lon="114.2345962072"><ele>160.000</ele></trkpt>
      <trkpt lat="22.5153075143" lon="114.2345467004"><ele>158.000</ele></trkpt>
      <trkpt lat="22.5152991640" lon="114.2345113371"><ele>158.000</ele></trkpt>
      <trkpt lat="22.5152902155" lon="114.2344817586"><ele>158.000</ele></trkpt>
      <trkpt lat="22.5152758872" lon="114.2344611802"><ele>158.000</ele></trkpt>
      <trkpt lat="22.5152454335" lon="114.2344322363"><ele>156.000</ele></trkpt>
      <trkpt lat="22.5152215483" lon="114.2344116529"><ele>156.000</ele></trkpt>
      <trkpt lat="22.5151958738" lon="114.2343820685"><ele>154.000</ele></trkpt>
      <trkpt lat="22.5151755753" lon="114.2343518439"><ele>152.000</ele></trkpt>
      <trkpt lat="22.5151570721" lon="114.2343139037"><ele>152.000</ele></trkpt>
      <trkpt lat="22.5151421507" lon="114.2342823954"><ele>151.000</ele></trkpt>
      <trkpt lat="22.5151122994" lon="114.2342405937"><ele>148.000</ele></trkpt>
      <trkpt lat="22.5150914074" lon="114.2342007242"><ele>147.000</ele></trkpt>
      <trkpt lat="22.5150699146" lon="114.2341692132"><ele>147.000</ele></trkpt>
      <trkpt lat="22.5150466359" lon="114.2341216282"><ele>144.000</ele></trkpt>
      <trkpt lat="22.5150263428" lon="114.2340759729"><ele>143.000</ele></trkpt>
      <trkpt lat="22.5150042634" lon="114.2340155305"><ele>142.000</ele></trkpt>
      <trkpt lat="22.5149887509" lon="114.2339647345"><ele>141.000</ele></trkpt>
      <trkpt lat="22.5149750253" lon="114.2339300115"><ele>142.000</ele></trkpt>
      <trkpt lat="22.5149642827" lon="114.2339049336"><ele>142.000</ele></trkpt>
      <trkpt lat="22.5149433935" lon="114.2338567072"><ele>142.000</ele></trkpt>
      <trkpt lat="22.5149231006" lon="114.2338104085"><ele>144.000</ele></trkpt>
      <trkpt lat="22.5149147469" lon="114.2337866174"><ele>144.000</ele></trkpt>
      <trkpt lat="22.5149117669" lon="114.2337660438"><ele>144.000</ele></trkpt>
      <trkpt lat="22.5149153633" lon="114.2337313280"><ele>144.000</ele></trkpt>
      <trkpt lat="22.5149159712" lon="114.2337004686"><ele>144.000</ele></trkpt>
      <trkpt lat="22.5149106038" lon="114.2336766788"><ele>144.000</ele></trkpt>
      <trkpt lat="22.5148897118" lon="114.2336361669"><ele>144.000</ele></trkpt>
      <trkpt lat="22.5148556834" lon="114.2335827916"><ele>144.000</ele></trkpt>
      <trkpt lat="22.5148103084" lon="114.2335216964"><ele>144.000</ele></trkpt>
      <trkpt lat="22.5147697085" lon="114.2334708903"><ele>142.000</ele></trkpt>
      <trkpt lat="22.5147332859" lon="114.2334310147"><ele>140.000</ele></trkpt>
      <trkpt lat="22.5146968598" lon="114.2334007837"><ele>140.000</ele></trkpt>
      <trkpt lat="22.5146837254" lon="114.2333821334"><ele>138.000</ele></trkpt>
      <trkpt lat="22.5146586469" lon="114.2333544789"><ele>137.000</ele></trkpt>
      <trkpt lat="22.5146096788" lon="114.2333210276"><ele>134.000</ele></trkpt>
      <trkpt lat="22.5145780257" lon="114.2333049416"><ele>134.000</ele></trkpt>
      <trkpt lat="22.5145559307" lon="114.2332882169"><ele>132.000</ele></trkpt>
      <trkpt lat="22.5145212989" lon="114.2332528432"><ele>132.000</ele></trkpt>
      <trkpt lat="22.5144992052" lon="114.2332322609"><ele>130.000</ele></trkpt>
      <trkpt lat="22.5144830844" lon="114.2332110386"><ele>130.000</ele></trkpt>
      <trkpt lat="22.5144609949" lon="114.2331782418"><ele>129.000</ele></trkpt>
      <trkpt lat="22.5144478636" lon="114.2331505912"><ele>129.000</ele></trkpt>
      <trkpt lat="22.5144319359" lon="114.2331297830"><ele>128.000</ele></trkpt>
      <trkpt lat="22.5144117932" lon="114.2331129270"><ele>128.000</ele></trkpt>
      <trkpt lat="22.5143882731" lon="114.2331039221"><ele>128.000</ele></trkpt>
      <trkpt lat="22.5143676508" lon="114.2330977904"><ele>128.000</ele></trkpt>
      <trkpt lat="22.5143320976" lon="114.2330969207"><ele>126.000</ele></trkpt>
      <trkpt lat="22.5143014284" lon="114.2330977636"><ele>126.000</ele></trkpt>
      <trkpt lat="22.5141266070" lon="114.2330863016"><ele>126.000</ele></trkpt>
      <trkpt lat="22.5140927303" lon="114.2330944397"><ele>126.000</ele></trkpt>
      <trkpt lat="22.5140671068" lon="114.2331068149"><ele>124.000</ele></trkpt>
      <trkpt lat="22.5139838992" lon="114.2331636101"><ele>121.000</ele></trkpt>
      <trkpt lat="22.5139088632" lon="114.2332251148"><ele>118.000</ele></trkpt>
      <trkpt lat="22.5138548889" lon="114.2332734571"><ele>116.000</ele></trkpt>
      <trkpt lat="22.5138404818" lon="114.2332839657"><ele>116.000</ele></trkpt>
      <trkpt lat="22.5138244770" lon="114.2332872580"><ele>116.000</ele></trkpt>
      <trkpt lat="22.5138091554" lon="114.2332813881"><ele>116.000</ele></trkpt>
      <trkpt lat="22.5137931846" lon="114.2332727808"><ele>116.000</ele></trkpt>
      <trkpt lat="22.5137720484" lon="114.2332564513"><ele>116.000</ele></trkpt>
      <trkpt lat="22.5137563937" lon="114.2332322551"><ele>116.000</ele></trkpt>
      <trkpt lat="22.5137346149" lon="114.2331915654"><ele>116.000</ele></trkpt>
      <trkpt lat="22.5137233921" lon="114.2331497807"><ele>116.000</ele></trkpt>
      <trkpt lat="22.5137199904" lon="114.2331420824"><ele>112.000</ele></trkpt>
      <trkpt lat="22.5137142020" lon="114.2331391487"><ele>112.000</ele></trkpt>
      <trkpt lat="22.5136951322" lon="114.2331428052"><ele>106.000</ele></trkpt>
      <trkpt lat="22.5136731340" lon="114.2331459804"><ele>114.000</ele></trkpt>
    </trkseg>
  </trk>
</gpx>
