<?xml version="1.0" encoding="UTF-8"?>
<gpx xmlns:xsi="http://www.w3.org/2001/XMLSchema-instance"
     xsi:schemaLocation="http://www.topografix.com/GPX/1/1 http://www.topografix.com/GPX/1/1/gpx.xsd"
     version="1.1" creator="json3d_batch_to_gpx"
     xmlns="http://www.topografix.com/GPX/1/1">
  <metadata>
    <name>HokTauCountryTrail</name>
  </metadata>
  <trk>
    <name>HokTauCountryTrail</name>
    <type>hike</type>
    <trkseg>
      <trkpt lat="22.5040417334" lon="114.1727160450"><ele>44.000</ele></trkpt>
      <trkpt lat="22.5040607681" lon="114.1727340466"><ele>44.000</ele></trkpt>
      <trkpt lat="22.5040918307" lon="114.1728021891"><ele>44.000</ele></trkpt>
      <trkpt lat="22.5041503724" lon="114.1729654741"><ele>46.000</ele></trkpt>
      <trkpt lat="22.5042011477" lon="114.1730831160"><ele>44.000</ele></trkpt>
      <trkpt lat="22.5042166785" lon="114.1730966151"><ele>44.000</ele></trkpt>
      <trkpt lat="22.5042823811" lon="114.1729937561"><ele>48.000</ele></trkpt>
      <trkpt lat="22.5042853680" lon="114.1729763982"><ele>49.000</ele></trkpt>
      <trkpt lat="22.5042967149" lon="114.1728748265"><ele>50.000</ele></trkpt>
      <trkpt lat="22.5043277726" lon="114.1727443241"><ele>52.000</ele></trkpt>
      <trkpt lat="22.5043319530" lon="114.1727192533"><ele>54.000</ele></trkpt>
      <trkpt lat="22.5043433019" lon="114.1727006094"><ele>54.000</ele></trkpt>
      <trkpt lat="22.5043642075" lon="114.1726755371"><ele>55.000</ele></trkpt>
      <trkpt lat="22.5043713745" lon="114.1726601082"><ele>55.000</ele></trkpt>
      <trkpt lat="22.5043797372" lon="114.1726466085"><ele>55.000</ele></trkpt>
      <trkpt lat="22.5043928779" lon="114.1726324643"><ele>56.000</ele></trkpt>
      <trkpt lat="22.5044024344" lon="114.1726183212"><ele>56.000</ele></trkpt>
      <trkpt lat="22.5044060181" lon="114.1726028925"><ele>56.000</ele></trkpt>
      <trkpt lat="22.5044018364" lon="114.1725784643"><ele>58.000</ele></trkpt>
      <trkpt lat="22.5043964600" lon="114.1725553210"><ele>58.000</ele></trkpt>
      <trkpt lat="22.5043946667" lon="114.1725257496"><ele>58.000</ele></trkpt>
      <trkpt lat="22.5043970557" lon="114.1725096785"><ele>58.000</ele></trkpt>
      <trkpt lat="22.5044072100" lon="114.1724948919"><ele>59.000</ele></trkpt>
      <trkpt lat="22.5044221423" lon="114.1724820344"><ele>61.000</ele></trkpt>
      <trkpt lat="22.5044448407" lon="114.1724698191"><ele>61.000</ele></trkpt>
      <trkpt lat="22.5044627603" lon="114.1724569615"><ele>61.000</ele></trkpt>
      <trkpt lat="22.5044812766" lon="114.1724402464"><ele>64.000</ele></trkpt>
      <trkpt lat="22.5044932225" lon="114.1724248174"><ele>64.000</ele></trkpt>
      <trkpt lat="22.5044974031" lon="114.1724074604"><ele>64.000</ele></trkpt>
      <trkpt lat="22.5044956111" lon="114.1723946024"><ele>66.000</ele></trkpt>
      <trkpt lat="22.5044926234" lon="114.1723791739"><ele>66.000</ele></trkpt>
      <trkpt lat="22.5045027780" lon="114.1723740313"><ele>66.000</ele></trkpt>
      <trkpt lat="22.5045218925" lon="114.1723714591"><ele>68.000</ele></trkpt>
      <trkpt lat="22.5045392145" lon="114.1723695294"><ele>68.000</ele></trkpt>
      <trkpt lat="22.5045469796" lon="114.1723618153"><ele>68.000</ele></trkpt>
      <trkpt lat="22.5045493685" lon="114.1723431725"><ele>70.000</ele></trkpt>
      <trkpt lat="22.5045481732" lon="114.1723226007"><ele>70.000</ele></trkpt>
      <trkpt lat="22.5045392126" lon="114.1723013867"><ele>72.000</ele></trkpt>
      <trkpt lat="22.5045230845" lon="114.1722750297"><ele>72.000</ele></trkpt>
      <trkpt lat="22.5045087483" lon="114.1722583158"><ele>70.000</ele></trkpt>
      <trkpt lat="22.5044985932" lon="114.1722422441"><ele>72.000</ele></trkpt>
      <trkpt lat="22.5044920224" lon="114.1722332446"><ele>72.000</ele></trkpt>
      <trkpt lat="22.5044926191" lon="114.1722261732"><ele>72.000</ele></trkpt>
      <trkpt lat="22.5044985925" lon="114.1722178158"><ele>72.000</ele></trkpt>
      <trkpt lat="22.5045099417" lon="114.1722107440"><ele>72.000</ele></trkpt>
      <trkpt lat="22.5045242773" lon="114.1722062437"><ele>73.000</ele></trkpt>
      <trkpt lat="22.5045463782" lon="114.1722043137"><ele>76.000</ele></trkpt>
      <trkpt lat="22.5045732580" lon="114.1722023846"><ele>76.000</ele></trkpt>
      <trkpt lat="22.5045846065" lon="114.1722023842"><ele>76.000</ele></trkpt>
      <trkpt lat="22.5045929694" lon="114.1721985265"><ele>76.000</ele></trkpt>
      <trkpt lat="22.5045977473" lon="114.1721940266"><ele>76.000</ele></trkpt>
      <trkpt lat="22.5045947606" lon="114.1721837412"><ele>76.000</ele></trkpt>
      <trkpt lat="22.5045869951" lon="114.1721721692"><ele>76.000</ele></trkpt>
      <trkpt lat="22.5045798274" lon="114.1721638123"><ele>76.000</ele></trkpt>
      <trkpt lat="22.5045744513" lon="114.1721548128"><ele>78.000</ele></trkpt>
      <trkpt lat="22.5045774374" lon="114.1721458130"><ele>78.000</ele></trkpt>
      <trkpt lat="22.5045857994" lon="114.1721387404"><ele>78.000</ele></trkpt>
      <trkpt lat="22.5045971486" lon="114.1721335977"><ele>78.000</ele></trkpt>
      <trkpt lat="22.5046156653" lon="114.1721303821"><ele>80.000</ele></trkpt>
      <trkpt lat="22.5046335852" lon="114.1721297391"><ele>80.000</ele></trkpt>
      <trkpt lat="22.5046580755" lon="114.1721265242"><ele>80.000</ele></trkpt>
      <trkpt lat="22.5046718133" lon="114.1721207381"><ele>80.000</ele></trkpt>
      <trkpt lat="22.5046819677" lon="114.1721136664"><ele>80.000</ele></trkpt>
      <trkpt lat="22.5046843570" lon="114.1721059515"><ele>83.000</ele></trkpt>
      <trkpt lat="22.5046801755" lon="114.1720924512"><ele>83.000</ele></trkpt>
      <trkpt lat="22.5046706181" lon="114.1720750946"><ele>83.000</ele></trkpt>
      <trkpt lat="22.5046628525" lon="114.1720635236"><ele>83.000</ele></trkpt>
      <trkpt lat="22.5046503082" lon="114.1720545234"><ele>86.000</ele></trkpt>
      <trkpt lat="22.5046401531" lon="114.1720416667"><ele>84.000</ele></trkpt>
      <trkpt lat="22.5046311927" lon="114.1720262383"><ele>84.000</ele></trkpt>
      <trkpt lat="22.5046240246" lon="114.1720024527"><ele>87.000</ele></trkpt>
      <trkpt lat="22.5046150639" lon="114.1719773813"><ele>87.000</ele></trkpt>
      <trkpt lat="22.5046067000" lon="114.1719510241"><ele>88.000</ele></trkpt>
      <trkpt lat="22.5045995320" lon="114.1719304534"><ele>86.000</ele></trkpt>
      <trkpt lat="22.5045953506" lon="114.1719195247"><ele>86.000</ele></trkpt>
      <trkpt lat="22.5045971419" lon="114.1719111674"><ele>88.000</ele></trkpt>
      <trkpt lat="22.5046037125" lon="114.1719118096"><ele>90.000</ele></trkpt>
      <trkpt lat="22.5046174514" lon="114.1719137383"><ele>88.000</ele></trkpt>
      <trkpt lat="22.5046389546" lon="114.1719150234"><ele>88.000</ele></trkpt>
      <trkpt lat="22.5046610555" lon="114.1719150226"><ele>90.000</ele></trkpt>
      <trkpt lat="22.5046801701" lon="114.1719137361"><ele>90.000</ele></trkpt>
      <trkpt lat="22.5046968953" lon="114.1719124497"><ele>94.000</ele></trkpt>
      <trkpt lat="22.5047112309" lon="114.1719098776"><ele>94.000</ele></trkpt>
      <trkpt lat="22.5047267612" lon="114.1719040914"><ele>94.000</ele></trkpt>
      <trkpt lat="22.5047363177" lon="114.1718931622"><ele>94.000</ele></trkpt>
      <trkpt lat="22.5047434857" lon="114.1718809473"><ele>94.000</ele></trkpt>
      <trkpt lat="22.5047428875" lon="114.1718693761"><ele>94.000</ele></trkpt>
      <trkpt lat="22.5047357195" lon="114.1718500902"><ele>96.000</ele></trkpt>
      <trkpt lat="22.5047291475" lon="114.1718308044"><ele>96.000</ele></trkpt>
      <trkpt lat="22.5047249660" lon="114.1718179475"><ele>96.000</ele></trkpt>
      <trkpt lat="22.5047249656" lon="114.1718050904"><ele>97.000</ele></trkpt>
      <trkpt lat="22.5047249652" lon="114.1717928757"><ele>97.000</ele></trkpt>
      <trkpt lat="22.5047309384" lon="114.1717800185"><ele>97.000</ele></trkpt>
      <trkpt lat="22.5047410926" lon="114.1717639460"><ele>98.000</ele></trkpt>
      <trkpt lat="22.5047512468" lon="114.1717504462"><ele>98.000</ele></trkpt>
      <trkpt lat="22.5047596086" lon="114.1717369454"><ele>98.000</ele></trkpt>
      <trkpt lat="22.5047613998" lon="114.1717247307"><ele>98.000</ele></trkpt>
      <trkpt lat="22.5047602046" lon="114.1717099454"><ele>100.000</ele></trkpt>
      <trkpt lat="22.5047530367" lon="114.1716938736"><ele>100.000</ele></trkpt>
      <trkpt lat="22.5047428813" lon="114.1716720173"><ele>100.000</ele></trkpt>
      <trkpt lat="22.5047381018" lon="114.1716520889"><ele>102.000</ele></trkpt>
      <trkpt lat="22.5047369074" lon="114.1716347311"><ele>102.000</ele></trkpt>
      <trkpt lat="22.5047446722" lon="114.1716212304"><ele>104.000</ele></trkpt>
      <trkpt lat="22.5047512422" lon="114.1716058014"><ele>104.000</ele></trkpt>
      <trkpt lat="22.5047542280" lon="114.1715903727"><ele>104.000</ele></trkpt>
      <trkpt lat="22.5047542273" lon="114.1715685159"><ele>106.000</ele></trkpt>
      <trkpt lat="22.5047518372" lon="114.1715479441"><ele>106.000</ele></trkpt>
      <trkpt lat="22.5047512398" lon="114.1715338013"><ele>106.000</ele></trkpt>
      <trkpt lat="22.5047596014" lon="114.1715151582"><ele>108.000</ele></trkpt>
      <trkpt lat="22.5047691576" lon="114.1714971576"><ele>108.000</ele></trkpt>
      <trkpt lat="22.5047840906" lon="114.1714785133"><ele>109.000</ele></trkpt>
      <trkpt lat="22.5047942450" lon="114.1714701557"><ele>110.000</ele></trkpt>
      <trkpt lat="22.5048049965" lon="114.1714682271"><ele>110.000</ele></trkpt>
      <trkpt lat="22.5048294871" lon="114.1714746551"><ele>110.000</ele></trkpt>
      <trkpt lat="22.5048450176" lon="114.1714765828"><ele>109.000</ele></trkpt>
      <trkpt lat="22.5048599501" lon="114.1714701532"><ele>110.000</ele></trkpt>
      <trkpt lat="22.5048910106" lon="114.1714592241"><ele>110.000</ele></trkpt>
      <trkpt lat="22.5049208765" lon="114.1714482940"><ele>110.000</ele></trkpt>
      <trkpt lat="22.5049489508" lon="114.1714405781"><ele>110.000</ele></trkpt>
      <trkpt lat="22.5049818034" lon="114.1714418626"><ele>110.000</ele></trkpt>
      <trkpt lat="22.5050128642" lon="114.1714405756"><ele>110.000</ele></trkpt>
      <trkpt lat="22.5050337704" lon="114.1714367184"><ele>110.000</ele></trkpt>
      <trkpt lat="22.5050582603" lon="114.1714225735"><ele>112.000</ele></trkpt>
      <trkpt lat="22.5050869313" lon="114.1714090729"><ele>112.000</ele></trkpt>
      <trkpt lat="22.5051078369" lon="114.1713885001"><ele>112.000</ele></trkpt>
      <trkpt lat="22.5051305337" lon="114.1713576418"><ele>114.000</ele></trkpt>
      <trkpt lat="22.5051526338" lon="114.1713332125"><ele>114.000</ele></trkpt>
      <trkpt lat="22.5051878756" lon="114.1713004245"><ele>115.000</ele></trkpt>
      <trkpt lat="22.5052189345" lon="114.1712689234"><ele>116.000</ele></trkpt>
      <trkpt lat="22.5052493976" lon="114.1712419211"><ele>116.000</ele></trkpt>
      <trkpt lat="22.5052792631" lon="114.1712219913"><ele>118.000</ele></trkpt>
      <trkpt lat="22.5053192823" lon="114.1711994895"><ele>118.000</ele></trkpt>
      <trkpt lat="22.5053509403" lon="114.1711789162"><ele>118.000</ele></trkpt>
      <trkpt lat="22.5053760271" lon="114.1711647723"><ele>118.000</ele></trkpt>
      <trkpt lat="22.5053951416" lon="114.1711596283"><ele>118.000</ele></trkpt>
      <trkpt lat="22.5054172423" lon="114.1711519135"><ele>118.000</ele></trkpt>
      <trkpt lat="22.5054345642" lon="114.1711480553"><ele>118.000</ele></trkpt>
      <trkpt lat="22.5054512894" lon="114.1711474122"><ele>118.000</ele></trkpt>
      <trkpt lat="22.5054733905" lon="114.1711506254"><ele>118.000</ele></trkpt>
      <trkpt lat="22.5054942970" lon="114.1711596242"><ele>118.000</ele></trkpt>
      <trkpt lat="22.5055331234" lon="114.1711666941"><ele>118.000</ele></trkpt>
      <trkpt lat="22.5055629899" lon="114.1711750502"><ele>118.000</ele></trkpt>
      <trkpt lat="22.5055832995" lon="114.1711821218"><ele>118.000</ele></trkpt>
      <trkpt lat="22.5055982322" lon="114.1711840494"><ele>118.000</ele></trkpt>
      <trkpt lat="22.5056185416" lon="114.1711834052"><ele>118.000</ele></trkpt>
      <trkpt lat="22.5056400456" lon="114.1711821195"><ele>118.000</ele></trkpt>
      <trkpt lat="22.5056549783" lon="114.1711834037"><ele>118.000</ele></trkpt>
      <trkpt lat="22.5056752880" lon="114.1711936894"><ele>119.000</ele></trkpt>
      <trkpt lat="22.5056991809" lon="114.1712026881"><ele>120.000</ele></trkpt>
      <trkpt lat="22.5057374096" lon="114.1712123297"><ele>120.000</ele></trkpt>
      <trkpt lat="22.5057714579" lon="114.1712168282"><ele>120.000</ele></trkpt>
      <trkpt lat="22.5058025182" lon="114.1712258276"><ele>120.000</ele></trkpt>
      <trkpt lat="22.5058317879" lon="114.1712373978"><ele>120.000</ele></trkpt>
      <trkpt lat="22.5058550838" lon="114.1712425401"><ele>120.000</ele></trkpt>
      <trkpt lat="22.5058831588" lon="114.1712566820"><ele>122.000</ele></trkpt>
      <trkpt lat="22.5059172066" lon="114.1712708236"><ele>124.000</ele></trkpt>
      <trkpt lat="22.5059524491" lon="114.1712849652"><ele>124.000</ele></trkpt>
      <trkpt lat="22.5059769397" lon="114.1712926791"><ele>127.000</ele></trkpt>
      <trkpt lat="22.5059990412" lon="114.1713061778"><ele>127.000</ele></trkpt>
      <trkpt lat="22.5060205451" lon="114.1713293207"><ele>127.000</ele></trkpt>
      <trkpt lat="22.5060408556" lon="114.1713614634"><ele>128.000</ele></trkpt>
      <trkpt lat="22.5060605678" lon="114.1713833195"><ele>128.000</ele></trkpt>
      <trkpt lat="22.5060689306" lon="114.1714026055"><ele>128.000</ele></trkpt>
      <trkpt lat="22.5060731132" lon="114.1714199633"><ele>128.000</ele></trkpt>
      <trkpt lat="22.5060755033" lon="114.1714392485"><ele>127.000</ele></trkpt>
      <trkpt lat="22.5060880469" lon="114.1714527486"><ele>127.000</ele></trkpt>
      <trkpt lat="22.5061089541" lon="114.1714803914"><ele>128.000</ele></trkpt>
      <trkpt lat="22.5061280698" lon="114.1715125342"><ele>128.000</ele></trkpt>
      <trkpt lat="22.5061483803" lon="114.1715472485"><ele>128.000</ele></trkpt>
      <trkpt lat="22.5061704823" lon="114.1715793912"><ele>127.000</ele></trkpt>
      <trkpt lat="22.5061830264" lon="114.1716057475"><ele>127.000</ele></trkpt>
      <trkpt lat="22.5061913898" lon="114.1716173196"><ele>127.000</ele></trkpt>
      <trkpt lat="22.5062009469" lon="114.1716250331"><ele>128.000</ele></trkpt>
      <trkpt lat="22.5062158813" lon="114.1716526762"><ele>128.000</ele></trkpt>
      <trkpt lat="22.5062373853" lon="114.1716790332"><ele>128.000</ele></trkpt>
      <trkpt lat="22.5062535144" lon="114.1717041036"><ele>128.000</ele></trkpt>
      <trkpt lat="22.5062660584" lon="114.1717278903"><ele>127.000</ele></trkpt>
      <trkpt lat="22.5062809928" lon="114.1717555334"><ele>126.000</ele></trkpt>
      <trkpt lat="22.5063042895" lon="114.1717889609"><ele>128.000</ele></trkpt>
      <trkpt lat="22.5063245989" lon="114.1718172472"><ele>126.000</ele></trkpt>
      <trkpt lat="22.5063478958" lon="114.1718564615"><ele>126.000</ele></trkpt>
      <trkpt lat="22.5063694009" lon="114.1718924607"><ele>126.000</ele></trkpt>
      <trkpt lat="22.5063879187" lon="114.1719233178"><ele>128.000</ele></trkpt>
      <trkpt lat="22.5064076306" lon="114.1719368177"><ele>128.000</ele></trkpt>
      <trkpt lat="22.5064327189" lon="114.1719683179"><ele>128.000</ele></trkpt>
      <trkpt lat="22.5064607943" lon="114.1719953172"><ele>128.000</ele></trkpt>
      <trkpt lat="22.5064745337" lon="114.1720165313"><ele>130.000</ele></trkpt>
      <trkpt lat="22.5064888692" lon="114.1720377454"><ele>130.000</ele></trkpt>
      <trkpt lat="22.5065049979" lon="114.1720531737"><ele>129.000</ele></trkpt>
      <trkpt lat="22.5065402410" lon="114.1720878877"><ele>131.000</ele></trkpt>
      <trkpt lat="22.5065611480" lon="114.1721148873"><ele>132.000</ele></trkpt>
      <trkpt lat="22.5065826526" lon="114.1721322447"><ele>132.000</ele></trkpt>
      <trkpt lat="22.5065951969" lon="114.1721412440"><ele>132.000</ele></trkpt>
      <trkpt lat="22.5066047543" lon="114.1721592442"><ele>134.000</ele></trkpt>
      <trkpt lat="22.5066178962" lon="114.1721888157"><ele>134.000</ele></trkpt>
      <trkpt lat="22.5066262588" lon="114.1722042444"><ele>134.000</ele></trkpt>
      <trkpt lat="22.5066465685" lon="114.1722190301"><ele>134.000</ele></trkpt>
      <trkpt lat="22.5066740458" lon="114.1722383156"><ele>134.000</ele></trkpt>
      <trkpt lat="22.5067009263" lon="114.1722582435"><ele>134.000</ele></trkpt>
      <trkpt lat="22.5067248194" lon="114.1722762432"><ele>134.000</ele></trkpt>
      <trkpt lat="22.5067397534" lon="114.1722948857"><ele>134.000</ele></trkpt>
      <trkpt lat="22.5067564792" lon="114.1723167432"><ele>134.000</ele></trkpt>
      <trkpt lat="22.5067654395" lon="114.1723289577"><ele>134.000</ele></trkpt>
      <trkpt lat="22.5067708150" lon="114.1723501722"><ele>134.000</ele></trkpt>
      <trkpt lat="22.5067726081" lon="114.1723694575"><ele>132.000</ele></trkpt>
      <trkpt lat="22.5067702188" lon="114.1723765291"><ele>132.000</ele></trkpt>
      <trkpt lat="22.5067582726" lon="114.1723784587"><ele>132.000</ele></trkpt>
      <trkpt lat="22.5067451316" lon="114.1723810308"><ele>132.000</ele></trkpt>
      <trkpt lat="22.5067445340" lon="114.1723887448"><ele>132.000</ele></trkpt>
      <trkpt lat="22.5067517026" lon="114.1723990311"><ele>130.000</ele></trkpt>
      <trkpt lat="22.5067588703" lon="114.1724080307"><ele>130.000</ele></trkpt>
      <trkpt lat="22.5067714147" lon="114.1724183159"><ele>128.000</ele></trkpt>
      <trkpt lat="22.5067839590" lon="114.1724266729"><ele>128.000</ele></trkpt>
      <trkpt lat="22.5067929182" lon="114.1724311735"><ele>128.000</ele></trkpt>
      <trkpt lat="22.5068030730" lon="114.1724343872"><ele>128.000</ele></trkpt>
      <trkpt lat="22.5068132277" lon="114.1724376010"><ele>128.000</ele></trkpt>
      <trkpt lat="22.5068239804" lon="114.1724446722"><ele>128.000</ele></trkpt>
      <trkpt lat="22.5068257723" lon="114.1724536729"><ele>124.000</ele></trkpt>
      <trkpt lat="22.5068215916" lon="114.1724665303"><ele>124.000</ele></trkpt>
      <trkpt lat="22.5068132288" lon="114.1724774595"><ele>125.000</ele></trkpt>
      <trkpt lat="22.5068000882" lon="114.1724935313"><ele>125.000</ele></trkpt>
      <trkpt lat="22.5067911284" lon="114.1724993173"><ele>120.000</ele></trkpt>
      <trkpt lat="22.5067815717" lon="114.1725038185"><ele>120.000</ele></trkpt>
      <trkpt lat="22.5067773900" lon="114.1725128184"><ele>120.000</ele></trkpt>
      <trkpt lat="22.5067821693" lon="114.1725308188"><ele>120.000</ele></trkpt>
      <trkpt lat="22.5067953109" lon="114.1725507472"><ele>118.000</ele></trkpt>
      <trkpt lat="22.5068090501" lon="114.1725668191"><ele>118.000</ele></trkpt>
      <trkpt lat="22.5068162187" lon="114.1725771044"><ele>120.000</ele></trkpt>
      <trkpt lat="22.5068198025" lon="114.1725970331"><ele>118.000</ele></trkpt>
      <trkpt lat="22.5068323477" lon="114.1726368913"><ele>118.000</ele></trkpt>
      <trkpt lat="22.5068431003" lon="114.1726780345"><ele>116.000</ele></trkpt>
      <trkpt lat="22.5068484774" lon="114.1727275361"><ele>112.000</ele></trkpt>
      <trkpt lat="22.5068478815" lon="114.1727693220"><ele>109.000</ele></trkpt>
      <trkpt lat="22.5068490774" lon="114.1728136804"><ele>108.000</ele></trkpt>
      <trkpt lat="22.5068478833" lon="114.1728400384"><ele>106.000</ele></trkpt>
      <trkpt lat="22.5068431050" lon="114.1728638248"><ele>106.000</ele></trkpt>
      <trkpt lat="22.5068359383" lon="114.1728927546"><ele>106.000</ele></trkpt>
      <trkpt lat="22.5068335498" lon="114.1729300406"><ele>106.000</ele></trkpt>
      <trkpt lat="22.5068359400" lon="114.1729634700"><ele>106.000</ele></trkpt>
      <trkpt lat="22.5068371356" lon="114.1729981853"><ele>106.000</ele></trkpt>
      <trkpt lat="22.5068419143" lon="114.1730316146"><ele>106.000</ele></trkpt>
      <trkpt lat="22.5068478887" lon="114.1730644005"><ele>106.000</ele></trkpt>
      <trkpt lat="22.5068526683" lon="114.1730933300"><ele>106.000</ele></trkpt>
      <trkpt lat="22.5068557851" lon="114.1731120156"><ele>106.000</ele></trkpt>
      <trkpt lat="22.5068592293" lon="114.1731510733"><ele>106.000</ele></trkpt>
      <trkpt lat="22.5068592070" lon="114.1731625991"><ele>106.000</ele></trkpt>
      <trkpt lat="22.5068598397" lon="114.1731875477"><ele>103.000</ele></trkpt>
      <trkpt lat="22.5068620888" lon="114.1732112717"><ele>103.000</ele></trkpt>
      <trkpt lat="22.5068654758" lon="114.1732384460"><ele>103.000</ele></trkpt>
      <trkpt lat="22.5068686459" lon="114.1732592057"><ele>103.000</ele></trkpt>
      <trkpt lat="22.5068711208" lon="114.1732839113"><ele>104.000</ele></trkpt>
      <trkpt lat="22.5068747425" lon="114.1733081310"><ele>104.000</ele></trkpt>
      <trkpt lat="22.5068770005" lon="114.1733288810"><ele>105.000</ele></trkpt>
      <trkpt lat="22.5068781027" lon="114.1733508751"><ele>105.000</ele></trkpt>
      <trkpt lat="22.5068769112" lon="114.1733708768"><ele>105.000</ele></trkpt>
      <trkpt lat="22.5068743469" lon="114.1733901399"><ele>105.000</ele></trkpt>
      <trkpt lat="22.5068713221" lon="114.1734084117"><ele>105.000</ele></trkpt>
      <trkpt lat="22.5068710517" lon="114.1734303961"><ele>105.000</ele></trkpt>
      <trkpt lat="22.5068716933" lon="114.1734526332"><ele>105.000</ele></trkpt>
      <trkpt lat="22.5068771124" lon="114.1734941429"><ele>105.000</ele></trkpt>
      <trkpt lat="22.5068821158" lon="114.1735200925"><ele>105.000</ele></trkpt>
      <trkpt lat="22.5068998710" lon="114.1735920127"><ele>106.000</ele></trkpt>
      <trkpt lat="22.5069035016" lon="114.1736120338"><ele>106.000</ele></trkpt>
      <trkpt lat="22.5069087397" lon="114.1736357577"><ele>104.000</ele></trkpt>
      <trkpt lat="22.5069196763" lon="114.1736730882"><ele>104.000</ele></trkpt>
      <trkpt lat="22.5069258533" lon="114.1736874236"><ele>104.000</ele></trkpt>
      <trkpt lat="22.5069340803" lon="114.1737022643"><ele>104.000</ele></trkpt>
      <trkpt lat="22.5069597452" lon="114.1737307307"><ele>103.000</ele></trkpt>
      <trkpt lat="22.5069702749" lon="114.1737453284"><ele>103.000</ele></trkpt>
      <trkpt lat="22.5069805699" lon="114.1737611605"><ele>104.000</ele></trkpt>
      <trkpt lat="22.5069894922" lon="114.1737784698"><ele>104.000</ele></trkpt>
      <trkpt lat="22.5069997782" lon="114.1738002305"><ele>102.000</ele></trkpt>
      <trkpt lat="22.5070096037" lon="114.1738244597"><ele>102.000</ele></trkpt>
      <trkpt lat="22.5070143812" lon="114.1738422551"><ele>102.000</ele></trkpt>
      <trkpt lat="22.5070196281" lon="114.1738585732"><ele>100.000</ele></trkpt>
      <trkpt lat="22.5070264914" lon="114.1738706927"><ele>100.000</ele></trkpt>
      <trkpt lat="22.5070349622" lon="114.1738833078"><ele>100.000</ele></trkpt>
      <trkpt lat="22.5070441192" lon="114.1738956799"><ele>99.000</ele></trkpt>
      <trkpt lat="22.5070558137" lon="114.1739055833"><ele>100.000</ele></trkpt>
      <trkpt lat="22.5070883507" lon="114.1739350507"><ele>98.000</ele></trkpt>
      <trkpt lat="22.5071009484" lon="114.1739484141"><ele>98.000</ele></trkpt>
      <trkpt lat="22.5071151535" lon="114.1739649945"><ele>100.000</ele></trkpt>
      <trkpt lat="22.5071266043" lon="114.1739796019"><ele>100.000</ele></trkpt>
      <trkpt lat="22.5071476637" lon="114.1740112660"><ele>100.000</ele></trkpt>
      <trkpt lat="22.5071801469" lon="114.1740669165"><ele>100.000</ele></trkpt>
      <trkpt lat="22.5071883829" lon="114.1740832346"><ele>100.000</ele></trkpt>
      <trkpt lat="22.5071977567" lon="114.1740990667"><ele>100.000</ele></trkpt>
      <trkpt lat="22.5072103544" lon="114.1741173771"><ele>100.000</ele></trkpt>
      <trkpt lat="22.5072234036" lon="114.1741346961"><ele>98.000</ele></trkpt>
      <trkpt lat="22.5072343849" lon="114.1741515195"><ele>99.000</ele></trkpt>
      <trkpt lat="22.5072410134" lon="114.1741656120"><ele>99.000</ele></trkpt>
      <trkpt lat="22.5072597343" lon="114.1742195037"><ele>99.000</ele></trkpt>
      <trkpt lat="22.5072668144" lon="114.1742358218"><ele>96.000</ele></trkpt>
      <trkpt lat="22.5072800804" lon="114.1742620338"><ele>96.000</ele></trkpt>
      <trkpt lat="22.5072825910" lon="114.1742697117"><ele>96.000</ele></trkpt>
      <trkpt lat="22.5072865013" lon="114.1742789642"><ele>96.000</ele></trkpt>
      <trkpt lat="22.5072913959" lon="114.1742860687"><ele>96.000</ele></trkpt>
      <trkpt lat="22.5072954417" lon="114.1742997044"><ele>96.000</ele></trkpt>
      <trkpt lat="22.5073019076" lon="114.1743110561"><ele>96.000</ele></trkpt>
      <trkpt lat="22.5073314467" lon="114.1743517686"><ele>92.000</ele></trkpt>
      <trkpt lat="22.5073538063" lon="114.1743783984"><ele>92.000</ele></trkpt>
      <trkpt lat="22.5073759220" lon="114.1743990898"><ele>88.000</ele></trkpt>
      <trkpt lat="22.5073980197" lon="114.1744183040"><ele>88.000</ele></trkpt>
      <trkpt lat="22.5074185008" lon="114.1744330571"><ele>87.000</ele></trkpt>
      <trkpt lat="22.5074224291" lon="114.1744392287"><ele>87.000</ele></trkpt>
      <trkpt lat="22.5074272876" lon="114.1744496085"><ele>87.000</ele></trkpt>
      <trkpt lat="22.5074332930" lon="114.1744584916"><ele>87.000</ele></trkpt>
      <trkpt lat="22.5074413572" lon="114.1744671123"><ele>87.000</ele></trkpt>
      <trkpt lat="22.5074558330" lon="114.1744727393"><ele>86.000</ele></trkpt>
      <trkpt lat="22.5074776596" lon="114.1744803198"><ele>86.000</ele></trkpt>
      <trkpt lat="22.5075029448" lon="114.1744915935"><ele>83.000</ele></trkpt>
      <trkpt lat="22.5075227125" lon="114.1745013997"><ele>83.000</ele></trkpt>
      <trkpt lat="22.5075579042" lon="114.1745240153"><ele>82.000</ele></trkpt>
      <trkpt lat="22.5076040858" lon="114.1745393998"><ele>79.000</ele></trkpt>
      <trkpt lat="22.5076293439" lon="114.1745442395"><ele>78.000</ele></trkpt>
      <trkpt lat="22.5076745410" lon="114.1745445303"><ele>78.000</ele></trkpt>
      <trkpt lat="22.5077011445" lon="114.1745436648"><ele>78.000</ele></trkpt>
      <trkpt lat="22.5077229347" lon="114.1745413416"><ele>76.000</ele></trkpt>
      <trkpt lat="22.5077456462" lon="114.1745422257"><ele>76.000</ele></trkpt>
      <trkpt lat="22.5077670031" lon="114.1745465892"><ele>75.000</ele></trkpt>
      <trkpt lat="22.5077860754" lon="114.1745536741"><ele>75.000</ele></trkpt>
      <trkpt lat="22.5078014813" lon="114.1745622752"><ele>75.000</ele></trkpt>
      <trkpt lat="22.5079044016" lon="114.1746353308"><ele>70.000</ele></trkpt>
      <trkpt lat="22.5079734304" lon="114.1746744014"><ele>70.000</ele></trkpt>
      <trkpt lat="22.5080393035" lon="114.1746795709"><ele>69.000</ele></trkpt>
      <trkpt lat="22.5080719059" lon="114.1746804053"><ele>69.000</ele></trkpt>
      <trkpt lat="22.5081201968" lon="114.1746787552"><ele>70.000</ele></trkpt>
      <trkpt lat="22.5081584251" lon="114.1746761829"><ele>70.000</ele></trkpt>
      <trkpt lat="22.5081918754" lon="114.1746703966"><ele>72.000</ele></trkpt>
      <trkpt lat="22.5082193520" lon="114.1746626822"><ele>74.000</ele></trkpt>
      <trkpt lat="22.5082426477" lon="114.1746594667"><ele>74.000</ele></trkpt>
      <trkpt lat="22.5082563855" lon="114.1746543241"><ele>74.000</ele></trkpt>
      <trkpt lat="22.5082707212" lon="114.1746478947"><ele>76.000</ele></trkpt>
      <trkpt lat="22.5082862516" lon="114.1746466086"><ele>76.000</ele></trkpt>
      <trkpt lat="22.5083071578" lon="114.1746472517"><ele>76.000</ele></trkpt>
      <trkpt lat="22.5083674882" lon="114.1746556082"><ele>76.000</ele></trkpt>
      <trkpt lat="22.5084104955" lon="114.1746633216"><ele>76.000</ele></trkpt>
      <trkpt lat="22.5084349860" lon="114.1746755362"><ele>76.000</ele></trkpt>
      <trkpt lat="22.5084708252" lon="114.1746961081"><ele>76.000</ele></trkpt>
      <trkpt lat="22.5084917325" lon="114.1747121793"><ele>77.000</ele></trkpt>
      <trkpt lat="22.5085096518" lon="114.1747353231"><ele>78.000</ele></trkpt>
      <trkpt lat="22.5085287667" lon="114.1747539661"><ele>78.000</ele></trkpt>
      <trkpt lat="22.5085556468" lon="114.1747719664"><ele>78.000</ele></trkpt>
      <trkpt lat="22.5085801374" lon="114.1747867527"><ele>80.000</ele></trkpt>
      <trkpt lat="22.5086070166" lon="114.1748086097"><ele>80.000</ele></trkpt>
      <trkpt lat="22.5086249367" lon="114.1748304677"><ele>82.000</ele></trkpt>
      <trkpt lat="22.5086589844" lon="114.1748664688"><ele>82.000</ele></trkpt>
      <trkpt lat="22.5086906435" lon="114.1748941115"><ele>84.000</ele></trkpt>
      <trkpt lat="22.5087288722" lon="114.1749230409"><ele>84.000</ele></trkpt>
      <trkpt lat="22.5087521682" lon="114.1749519706"><ele>84.000</ele></trkpt>
      <trkpt lat="22.5087850214" lon="114.1750059716"><ele>84.000</ele></trkpt>
      <trkpt lat="22.5087999554" lon="114.1750522588"><ele>84.000</ele></trkpt>
      <trkpt lat="22.5088184727" lon="114.1750998318"><ele>83.000</ele></trkpt>
      <trkpt lat="22.5088262383" lon="114.1751287617"><ele>82.000</ele></trkpt>
      <trkpt lat="22.5088334060" lon="114.1751544765"><ele>82.000</ele></trkpt>
      <trkpt lat="22.5088435609" lon="114.1751840498"><ele>80.000</ele></trkpt>
      <trkpt lat="22.5088644675" lon="114.1752187643"><ele>80.000</ele></trkpt>
      <trkpt lat="22.5088799984" lon="114.1752560517"><ele>80.000</ele></trkpt>
      <trkpt lat="22.5088919450" lon="114.1752875532"><ele>76.000</ele></trkpt>
      <trkpt lat="22.5088991136" lon="114.1753222680"><ele>76.000</ele></trkpt>
      <trkpt lat="22.5089021003" lon="114.1753531262"><ele>76.000</ele></trkpt>
      <trkpt lat="22.5089104635" lon="114.1753749845"><ele>74.000</ele></trkpt>
      <trkpt lat="22.5089265911" lon="114.1753974851"><ele>74.000</ele></trkpt>
      <trkpt lat="22.5089576523" lon="114.1754334864"><ele>74.000</ele></trkpt>
      <trkpt lat="22.5089958810" lon="114.1754810593"><ele>72.000</ele></trkpt>
      <trkpt lat="22.5090161906" lon="114.1755080599"><ele>72.000</ele></trkpt>
      <trkpt lat="22.5090430707" lon="114.1755453472"><ele>72.000</ele></trkpt>
      <trkpt lat="22.5090615878" lon="114.1755832770"><ele>72.000</ele></trkpt>
      <trkpt lat="22.5090669639" lon="114.1756154211"><ele>70.000</ele></trkpt>
      <trkpt lat="22.5090723401" lon="114.1756777811"><ele>70.000</ele></trkpt>
      <trkpt lat="22.5090824956" lon="114.1758005709"><ele>66.000</ele></trkpt>
      <trkpt lat="22.5090878719" lon="114.1758757884"><ele>66.000</ele></trkpt>
      <trkpt lat="22.5090848858" lon="114.1759297909"><ele>64.000</ele></trkpt>
      <trkpt lat="22.5090795103" lon="114.1759696492"><ele>63.000</ele></trkpt>
      <trkpt lat="22.5090711474" lon="114.1759934359"><ele>64.000</ele></trkpt>
      <trkpt lat="22.5090502413" lon="114.1760281519"><ele>62.000</ele></trkpt>
      <trkpt lat="22.5090323225" lon="114.1760602962"><ele>61.000</ele></trkpt>
      <trkpt lat="22.5090126102" lon="114.1760892263"><ele>61.000</ele></trkpt>
      <trkpt lat="22.5090018587" lon="114.1761130130"><ele>60.000</ele></trkpt>
      <trkpt lat="22.5089976778" lon="114.1761406572"><ele>60.000</ele></trkpt>
      <trkpt lat="22.5089970801" lon="114.1761689438"><ele>60.000</ele></trkpt>
      <trkpt lat="22.5090036507" lon="114.1761927305"><ele>60.000</ele></trkpt>
      <trkpt lat="22.5090191812" lon="114.1762165170"><ele>60.000</ele></trkpt>
      <trkpt lat="22.5090412823" lon="114.1762563752"><ele>58.000</ele></trkpt>
      <trkpt lat="22.5090550213" lon="114.1762840193"><ele>58.000</ele></trkpt>
      <trkpt lat="22.5090657729" lon="114.1763148776"><ele>58.000</ele></trkpt>
      <trkpt lat="22.5090729414" lon="114.1763425218"><ele>58.000</ele></trkpt>
      <trkpt lat="22.5090813036" lon="114.1763740225"><ele>58.000</ele></trkpt>
      <trkpt lat="22.5090914583" lon="114.1763958808"><ele>58.000</ele></trkpt>
      <trkpt lat="22.5091087804" lon="114.1764113099"><ele>58.000</ele></trkpt>
      <trkpt lat="22.5091261035" lon="114.1764254532"><ele>58.000</ele></trkpt>
      <trkpt lat="22.5091631371" lon="114.1764440974"><ele>58.000</ele></trkpt>
      <trkpt lat="22.5092037549" lon="114.1764698122"><ele>58.000</ele></trkpt>
      <trkpt lat="22.5092491516" lon="114.1765000280"><ele>58.000</ele></trkpt>
      <trkpt lat="22.5093094819" lon="114.1765437437"><ele>58.000</ele></trkpt>
      <trkpt lat="22.5093465156" lon="114.1765739586"><ele>58.000</ele></trkpt>
      <trkpt lat="22.5093704091" lon="114.1765836019"><ele>58.000</ele></trkpt>
      <trkpt lat="22.5094146101" lon="114.1765996745"><ele>58.000</ele></trkpt>
      <trkpt lat="22.5094408931" lon="114.1766189612"><ele>58.000</ele></trkpt>
      <trkpt lat="22.5094815108" lon="114.1766388903"><ele>59.000</ele></trkpt>
      <trkpt lat="22.5095107801" lon="114.1766575336"><ele>59.000</ele></trkpt>
      <trkpt lat="22.5095251159" lon="114.1766748920"><ele>60.000</ele></trkpt>
      <trkpt lat="22.5095340759" lon="114.1766961071"><ele>60.000</ele></trkpt>
      <trkpt lat="22.5095394517" lon="114.1767224655"><ele>60.000</ele></trkpt>
      <trkpt lat="22.5095591632" lon="114.1767513946"><ele>60.000</ele></trkpt>
      <trkpt lat="22.5095848474" lon="114.1767700389"><ele>60.000</ele></trkpt>
      <trkpt lat="22.5096254661" lon="114.1768008974"><ele>60.000</ele></trkpt>
      <trkpt lat="22.5096541376" lon="114.1768317558"><ele>58.000</ele></trkpt>
      <trkpt lat="22.5096816143" lon="114.1768574709"><ele>58.000</ele></trkpt>
      <trkpt lat="22.5097025206" lon="114.1768780435"><ele>56.000</ele></trkpt>
      <trkpt lat="22.5097270109" lon="114.1769069727"><ele>54.000</ele></trkpt>
      <trkpt lat="22.5097407498" lon="114.1769269029"><ele>53.000</ele></trkpt>
      <trkpt lat="22.5097485150" lon="114.1769532614"><ele>53.000</ele></trkpt>
      <trkpt lat="22.5097503066" lon="114.1769738330"><ele>50.000</ele></trkpt>
      <trkpt lat="22.5097532929" lon="114.1770008349"><ele>50.000</ele></trkpt>
      <trkpt lat="22.5097580718" lon="114.1770175500"><ele>48.000</ele></trkpt>
      <trkpt lat="22.5097706159" lon="114.1770278359"><ele>48.000</ele></trkpt>
      <trkpt lat="22.5097891327" lon="114.1770349076"><ele>48.000</ele></trkpt>
      <trkpt lat="22.5098076494" lon="114.1770496944"><ele>48.000</ele></trkpt>
      <trkpt lat="22.5098178041" lon="114.1770638378"><ele>48.000</ele></trkpt>
      <trkpt lat="22.5098249715" lon="114.1770799095"><ele>46.000</ele></trkpt>
      <trkpt lat="22.5098267640" lon="114.1770998388"><ele>46.000</ele></trkpt>
      <trkpt lat="22.5098279587" lon="114.1771236256"><ele>44.000</ele></trkpt>
      <trkpt lat="22.5098321397" lon="114.1771429124"><ele>44.000</ele></trkpt>
      <trkpt lat="22.5098351260" lon="114.1771564133"><ele>44.000</ele></trkpt>
      <trkpt lat="22.5098410996" lon="114.1771686284"><ele>44.000</ele></trkpt>
      <trkpt lat="22.5098500595" lon="114.1771769860"><ele>44.000</ele></trkpt>
      <trkpt lat="22.5098661869" lon="114.1771866285"><ele>44.000</ele></trkpt>
      <trkpt lat="22.5098799257" lon="114.1771911295"><ele>44.000</ele></trkpt>
      <trkpt lat="22.5098996372" lon="114.1771949861"><ele>42.000</ele></trkpt>
      <trkpt lat="22.5099199465" lon="114.1771988437"><ele>42.000</ele></trkpt>
      <trkpt lat="22.5099366708" lon="114.1772033438"><ele>42.000</ele></trkpt>
      <trkpt lat="22.5099557853" lon="114.1772117014"><ele>40.000</ele></trkpt>
      <trkpt lat="22.5099695241" lon="114.1772245599"><ele>40.000</ele></trkpt>
      <trkpt lat="22.5099910272" lon="114.1772412741"><ele>40.000</ele></trkpt>
      <trkpt lat="22.5100071555" lon="114.1772567044"><ele>40.000</ele></trkpt>
      <trkpt lat="22.5100196986" lon="114.1772785620"><ele>38.000</ele></trkpt>
      <trkpt lat="22.5100328396" lon="114.1773017064"><ele>38.000</ele></trkpt>
      <trkpt lat="22.5100501625" lon="114.1773248499"><ele>36.000</ele></trkpt>
      <trkpt lat="22.5100615118" lon="114.1773415651"><ele>36.000</ele></trkpt>
      <trkpt lat="22.5100734580" lon="114.1773634236"><ele>34.000</ele></trkpt>
      <trkpt lat="22.5100782360" lon="114.1773794954"><ele>34.000</ele></trkpt>
      <trkpt lat="22.5100842095" lon="114.1774019964"><ele>34.000</ele></trkpt>
      <trkpt lat="22.5100860010" lon="114.1774264266"><ele>32.000</ele></trkpt>
      <trkpt lat="22.5100854040" lon="114.1774457135"><ele>32.000</ele></trkpt>
      <trkpt lat="22.5100889881" lon="114.1774611427"><ele>30.000</ele></trkpt>
      <trkpt lat="22.5100919744" lon="114.1774733569"><ele>30.000</ele></trkpt>
      <trkpt lat="22.5100967533" lon="114.1774862155"><ele>30.000</ele></trkpt>
      <trkpt lat="22.5100937660" lon="114.1774971438"><ele>30.000</ele></trkpt>
      <trkpt lat="22.5100842091" lon="114.1775087164"><ele>27.000</ele></trkpt>
      <trkpt lat="22.5100770407" lon="114.1775151447"><ele>27.000</ele></trkpt>
      <trkpt lat="22.5100627050" lon="114.1775100012"><ele>27.000</ele></trkpt>
      <trkpt lat="22.5100417988" lon="114.1775029303"><ele>27.000</ele></trkpt>
      <trkpt lat="22.5100202957" lon="114.1774971434"><ele>30.000</ele></trkpt>
      <trkpt lat="22.5099940137" lon="114.1774817140"><ele>30.000</ele></trkpt>
      <trkpt lat="22.5099719128" lon="114.1774649988"><ele>27.000</ele></trkpt>
      <trkpt lat="22.5099510058" lon="114.1774482836"><ele>31.000</ele></trkpt>
      <trkpt lat="22.5099295027" lon="114.1774283543"><ele>29.000</ele></trkpt>
      <trkpt lat="22.5099079987" lon="114.1774135674"><ele>29.000</ele></trkpt>
      <trkpt lat="22.5098823145" lon="114.1773981380"><ele>30.000</ele></trkpt>
      <trkpt lat="22.5098524484" lon="114.1773852803"><ele>30.000</ele></trkpt>
      <trkpt lat="22.5098118298" lon="114.1773730661"><ele>28.000</ele></trkpt>
      <trkpt lat="22.5097789773" lon="114.1773659942"><ele>28.000</ele></trkpt>
      <trkpt lat="22.5097395542" lon="114.1773576365"><ele>26.000</ele></trkpt>
      <trkpt lat="22.5097013251" lon="114.1773428496"><ele>29.000</ele></trkpt>
      <trkpt lat="22.5096595127" lon="114.1773235627"><ele>29.000</ele></trkpt>
      <trkpt lat="22.5096182971" lon="114.1773107050"><ele>27.000</ele></trkpt>
      <trkpt lat="22.5095908204" lon="114.1773029908"><ele>30.000</ele></trkpt>
      <trkpt lat="22.5095663300" lon="114.1773004190"><ele>28.000</ele></trkpt>
      <trkpt lat="22.5095376585" lon="114.1772991331"><ele>28.000</ele></trkpt>
      <trkpt lat="22.5094922619" lon="114.1772978471"><ele>28.000</ele></trkpt>
      <trkpt lat="22.5094510473" lon="114.1772933460"><ele>28.000</ele></trkpt>
      <trkpt lat="22.5094122212" lon="114.1772817742"><ele>26.000</ele></trkpt>
      <trkpt lat="22.5093739920" lon="114.1772650591"><ele>26.000</ele></trkpt>
      <trkpt lat="22.5093345690" lon="114.1772470590"><ele>27.000</ele></trkpt>
      <trkpt lat="22.5093112733" lon="114.1772354864"><ele>27.000</ele></trkpt>
      <trkpt lat="22.5092831997" lon="114.1772297005"><ele>26.000</ele></trkpt>
      <trkpt lat="22.5092545282" lon="114.1772264862"><ele>26.000</ele></trkpt>
      <trkpt lat="22.5092210779" lon="114.1772232720"><ele>26.000</ele></trkpt>
      <trkpt lat="22.5091941981" lon="114.1772207003"><ele>26.000</ele></trkpt>
      <trkpt lat="22.5091661235" lon="114.1772181285"><ele>26.000</ele></trkpt>
      <trkpt lat="22.5091446204" lon="114.1772181284"><ele>27.000</ele></trkpt>
      <trkpt lat="22.5091201299" lon="114.1772239142"><ele>27.000</ele></trkpt>
      <trkpt lat="22.5090968343" lon="114.1772309858"><ele>28.000</ele></trkpt>
      <trkpt lat="22.5090765258" lon="114.1772412715"><ele>28.000</ele></trkpt>
      <trkpt lat="22.5090586059" lon="114.1772496290"><ele>29.000</ele></trkpt>
      <trkpt lat="22.5090376996" lon="114.1772657015"><ele>26.000</ele></trkpt>
      <trkpt lat="22.5090126113" lon="114.1772830588"><ele>28.000</ele></trkpt>
      <trkpt lat="22.5089917051" lon="114.1772939879"><ele>28.000</ele></trkpt>
      <trkpt lat="22.5089576578" lon="114.1773036312"><ele>28.000</ele></trkpt>
      <trkpt lat="22.5089236105" lon="114.1773087744"><ele>27.000</ele></trkpt>
      <trkpt lat="22.5088949391" lon="114.1773107026"><ele>27.000</ele></trkpt>
      <trkpt lat="22.5088632803" lon="114.1773139166"><ele>27.000</ele></trkpt>
      <trkpt lat="22.5088393877" lon="114.1773126317"><ele>27.000</ele></trkpt>
      <trkpt lat="22.5088077300" lon="114.1773023448"><ele>30.000</ele></trkpt>
      <trkpt lat="22.5087802533" lon="114.1772856298"><ele>28.000</ele></trkpt>
      <trkpt lat="22.5087629303" lon="114.1772663431"><ele>28.000</ele></trkpt>
      <trkpt lat="22.5087515810" lon="114.1772483432"><ele>28.000</ele></trkpt>
      <trkpt lat="22.5087474000" lon="114.1772290565"><ele>28.000</ele></trkpt>
      <trkpt lat="22.5087468031" lon="114.1772097699"><ele>28.000</ele></trkpt>
      <trkpt lat="22.5087527758" lon="114.1771924125"><ele>26.000</ele></trkpt>
      <trkpt lat="22.5087623336" lon="114.1771686259"><ele>31.000</ele></trkpt>
      <trkpt lat="22.5087742800" lon="114.1771448393"><ele>29.000</ele></trkpt>
      <trkpt lat="22.5087772664" lon="114.1771191235"><ele>29.000</ele></trkpt>
      <trkpt lat="22.5087766695" lon="114.1770940510"><ele>29.000</ele></trkpt>
      <trkpt lat="22.5087712938" lon="114.1770683361"><ele>29.000</ele></trkpt>
      <trkpt lat="22.5087629308" lon="114.1770406920"><ele>30.000</ele></trkpt>
      <trkpt lat="22.5087521792" lon="114.1770252628"><ele>26.000</ele></trkpt>
      <trkpt lat="22.5087366488" lon="114.1770117620"><ele>28.000</ele></trkpt>
      <trkpt lat="22.5087157425" lon="114.1769944046"><ele>28.000</ele></trkpt>
      <trkpt lat="22.5086966279" lon="114.1769834754"><ele>26.000</ele></trkpt>
      <trkpt lat="22.5086781111" lon="114.1769751179"><ele>26.000</ele></trkpt>
      <trkpt lat="22.5086631776" lon="114.1769648321"><ele>26.000</ele></trkpt>
      <trkpt lat="22.5086452586" lon="114.1769474737"><ele>26.000</ele></trkpt>
      <trkpt lat="22.5086171841" lon="114.1769179013"><ele>26.000</ele></trkpt>
      <trkpt lat="22.5085956809" lon="114.1768941148"><ele>26.000</ele></trkpt>
      <trkpt lat="22.5085729822" lon="114.1768748281"><ele>24.000</ele></trkpt>
      <trkpt lat="22.5085389349" lon="114.1768529708"><ele>26.000</ele></trkpt>
      <trkpt lat="22.5085019004" lon="114.1768317559"><ele>25.000</ele></trkpt>
      <trkpt lat="22.5084732289" lon="114.1768156834"><ele>26.000</ele></trkpt>
      <trkpt lat="22.5084302217" lon="114.1767906110"><ele>25.000</ele></trkpt>
      <trkpt lat="22.5083997586" lon="114.1767738961"><ele>25.000</ele></trkpt>
      <trkpt lat="22.5083758651" lon="114.1767623246"><ele>26.000</ele></trkpt>
      <trkpt lat="22.5083591399" lon="114.1767552529"><ele>26.000</ele></trkpt>
      <trkpt lat="22.5083418179" lon="114.1767552530"><ele>26.000</ele></trkpt>
      <trkpt lat="22.5083143411" lon="114.1767546105"><ele>26.000</ele></trkpt>
      <trkpt lat="22.5082761128" lon="114.1767578247"><ele>26.000</ele></trkpt>
      <trkpt lat="22.5082402730" lon="114.1767584671"><ele>26.000</ele></trkpt>
      <trkpt lat="22.5082092121" lon="114.1767578247"><ele>26.000</ele></trkpt>
      <trkpt lat="22.5081835270" lon="114.1767571813"><ele>26.000</ele></trkpt>
      <trkpt lat="22.5081488828" lon="114.1767552531"><ele>25.000</ele></trkpt>
      <trkpt lat="22.5081076672" lon="114.1767539673"><ele>24.000</ele></trkpt>
      <trkpt lat="22.5080622706" lon="114.1767539673"><ele>24.000</ele></trkpt>
      <trkpt lat="22.5080413643" lon="114.1767520390"><ele>24.000</ele></trkpt>
      <trkpt lat="22.5080246392" lon="114.1767494674"><ele>24.000</ele></trkpt>
      <trkpt lat="22.5079935782" lon="114.1767398241"><ele>24.000</ele></trkpt>
      <trkpt lat="22.5079666984" lon="114.1767333950"><ele>25.000</ele></trkpt>
      <trkpt lat="22.5079469869" lon="114.1767295385"><ele>25.000</ele></trkpt>
      <trkpt lat="22.5079338458" lon="114.1767288951"><ele>26.000</ele></trkpt>
      <trkpt lat="22.5079218996" lon="114.1767321092"><ele>26.000</ele></trkpt>
      <trkpt lat="22.5078938250" lon="114.1767520391"><ele>26.000</ele></trkpt>
      <trkpt lat="22.5078681399" lon="114.1767745398"><ele>24.000</ele></trkpt>
      <trkpt lat="22.5078424557" lon="114.1767951112"><ele>26.000</ele></trkpt>
      <trkpt lat="22.5078227442" lon="114.1768105412"><ele>26.000</ele></trkpt>
      <trkpt lat="22.5077958643" lon="114.1768208269"><ele>26.000</ele></trkpt>
      <trkpt lat="22.5077630118" lon="114.1768278985"><ele>26.000</ele></trkpt>
      <trkpt lat="22.5077397161" lon="114.1768304701"><ele>26.000</ele></trkpt>
      <trkpt lat="22.5077188099" lon="114.1768356125"><ele>26.000</ele></trkpt>
      <trkpt lat="22.5076937216" lon="114.1768439699"><ele>26.000</ele></trkpt>
      <trkpt lat="22.5076614669" lon="114.1768581141"><ele>26.000</ele></trkpt>
      <trkpt lat="22.5076381712" lon="114.1768671139"><ele>26.000</ele></trkpt>
      <trkpt lat="22.5076077072" lon="114.1768761137"><ele>26.000</ele></trkpt>
      <trkpt lat="22.5075772441" lon="114.1768844711"><ele>26.000</ele></trkpt>
      <trkpt lat="22.5075408074" lon="114.1768947578"><ele>26.000</ele></trkpt>
      <trkpt lat="22.5074983971" lon="114.1769037576"><ele>26.000</ele></trkpt>
      <trkpt lat="22.5074727120" lon="114.1769089009"><ele>26.000</ele></trkpt>
      <trkpt lat="22.5074488194" lon="114.1769172583"><ele>26.000</ele></trkpt>
      <trkpt lat="22.5074291079" lon="114.1769294732"><ele>26.000</ele></trkpt>
      <trkpt lat="22.5074070069" lon="114.1769481162"><ele>26.000</ele></trkpt>
      <trkpt lat="22.5073813217" lon="114.1769706167"><ele>26.000</ele></trkpt>
      <trkpt lat="22.5073586239" lon="114.1769854033"><ele>26.000</ele></trkpt>
      <trkpt lat="22.5073323409" lon="114.1770001888"><ele>26.000</ele></trkpt>
      <trkpt lat="22.5073030725" lon="114.1770130461"><ele>26.000</ele></trkpt>
      <trkpt lat="22.5072791790" lon="114.1770284750"><ele>26.000</ele></trkpt>
      <trkpt lat="22.5072708168" lon="114.1770387616"><ele>26.000</ele></trkpt>
      <trkpt lat="22.5072523000" lon="114.1770696195"><ele>26.000</ele></trkpt>
      <trkpt lat="22.5072379642" lon="114.1770966199"><ele>26.000</ele></trkpt>
      <trkpt lat="22.5072242254" lon="114.1771159063"><ele>26.000</ele></trkpt>
      <trkpt lat="22.5072003327" lon="114.1771364785"><ele>26.000</ele></trkpt>
      <trkpt lat="22.5071830097" lon="114.1771499782"><ele>26.000</ele></trkpt>
      <trkpt lat="22.5071585202" lon="114.1771621930"><ele>26.000</ele></trkpt>
      <trkpt lat="22.5071334319" lon="114.1771769795"><ele>26.000</ele></trkpt>
      <trkpt lat="22.5071101362" lon="114.1771872651"><ele>26.000</ele></trkpt>
      <trkpt lat="22.5070928141" lon="114.1771943366"><ele>26.000</ele></trkpt>
      <trkpt lat="22.5070725048" lon="114.1772001223"><ele>26.000</ele></trkpt>
      <trkpt lat="22.5070504038" lon="114.1772052655"><ele>26.000</ele></trkpt>
      <trkpt lat="22.5070265112" lon="114.1772123370"><ele>26.000</ele></trkpt>
      <trkpt lat="22.5070103838" lon="114.1772155510"><ele>26.000</ele></trkpt>
      <trkpt lat="22.5069960481" lon="114.1772219801"><ele>26.000</ele></trkpt>
      <trkpt lat="22.5069805167" lon="114.1772303374"><ele>26.000</ele></trkpt>
      <trkpt lat="22.5069679735" lon="114.1772431947"><ele>26.000</ele></trkpt>
      <trkpt lat="22.5069566240" lon="114.1772573378"><ele>26.000</ele></trkpt>
      <trkpt lat="22.5069440808" lon="114.1772740525"><ele>26.000</ele></trkpt>
      <trkpt lat="22.5069309388" lon="114.1772946246"><ele>26.000</ele></trkpt>
      <trkpt lat="22.5069106303" lon="114.1773164816"><ele>26.000</ele></trkpt>
      <trkpt lat="22.5068968914" lon="114.1773325539"><ele>26.000</ele></trkpt>
      <trkpt lat="22.5068825557" lon="114.1773479828"><ele>26.000</ele></trkpt>
      <trkpt lat="22.5068658305" lon="114.1773550543"><ele>26.000</ele></trkpt>
      <trkpt lat="22.5068461189" lon="114.1773589117"><ele>26.000</ele></trkpt>
      <trkpt lat="22.5068210316" lon="114.1773595540"><ele>26.000</ele></trkpt>
      <trkpt lat="22.5068037095" lon="114.1773582681"><ele>26.000</ele></trkpt>
      <trkpt lat="22.5067851918" lon="114.1773556964"><ele>26.000</ele></trkpt>
      <trkpt lat="22.5067553256" lon="114.1773524822"><ele>26.000</ele></trkpt>
      <trkpt lat="22.5067242647" lon="114.1773466964"><ele>26.000</ele></trkpt>
      <trkpt lat="22.5066902175" lon="114.1773402672"><ele>26.000</ele></trkpt>
      <trkpt lat="22.5066615460" lon="114.1773344813"><ele>26.000</ele></trkpt>
      <trkpt lat="22.5066352640" lon="114.1773274097"><ele>26.000</ele></trkpt>
      <trkpt lat="22.5066161494" lon="114.1773216239"><ele>26.000</ele></trkpt>
      <trkpt lat="22.5066036062" lon="114.1773145524"><ele>26.000</ele></trkpt>
      <trkpt lat="22.5065838938" lon="114.1773055515"><ele>26.000</ele></trkpt>
      <trkpt lat="22.5065522361" lon="114.1772881943"><ele>26.000</ele></trkpt>
      <trkpt lat="22.5065331215" lon="114.1772740512"><ele>26.000</ele></trkpt>
      <trkpt lat="22.5065086311" lon="114.1772541224"><ele>26.000</ele></trkpt>
      <trkpt lat="22.5064883227" lon="114.1772431933"><ele>26.000</ele></trkpt>
      <trkpt lat="22.5064668187" lon="114.1772354783"><ele>26.000</ele></trkpt>
      <trkpt lat="22.5064453155" lon="114.1772296926"><ele>26.000</ele></trkpt>
      <trkpt lat="22.5064232146" lon="114.1772258350"><ele>26.000</ele></trkpt>
      <trkpt lat="22.5064011127" lon="114.1772226209"><ele>26.000</ele></trkpt>
      <trkpt lat="22.5063819990" lon="114.1772206926"><ele>26.000</ele></trkpt>
      <trkpt lat="22.5063569117" lon="114.1772219784"><ele>28.000</ele></trkpt>
      <trkpt lat="22.5063294340" lon="114.1772264782"><ele>28.000</ele></trkpt>
      <trkpt lat="22.5062983740" lon="114.1772309780"><ele>28.000</ele></trkpt>
      <trkpt lat="22.5062744805" lon="114.1772354778"><ele>28.000</ele></trkpt>
      <trkpt lat="22.5062523795" lon="114.1772380494"><ele>28.000</ele></trkpt>
      <trkpt lat="22.5062243058" lon="114.1772406209"><ele>28.000</ele></trkpt>
      <trkpt lat="22.5061914524" lon="114.1772438349"><ele>28.000</ele></trkpt>
      <trkpt lat="22.5061591967" lon="114.1772457640"><ele>28.000</ele></trkpt>
      <trkpt lat="22.5061281358" lon="114.1772483355"><ele>28.000</ele></trkpt>
      <trkpt lat="22.5060905053" lon="114.1772515495"><ele>28.000</ele></trkpt>
      <trkpt lat="22.5060480949" lon="114.1772560492"><ele>28.000</ele></trkpt>
      <trkpt lat="22.5060134499" lon="114.1772599066"><ele>28.000</ele></trkpt>
      <trkpt lat="22.5059758184" lon="114.1772611923"><ele>28.000</ele></trkpt>
      <trkpt lat="22.5059220596" lon="114.1772611921"><ele>28.000</ele></trkpt>
      <trkpt lat="22.5058712872" lon="114.1772573345"><ele>27.000</ele></trkpt>
      <trkpt lat="22.5058199170" lon="114.1772515487"><ele>28.000</ele></trkpt>
      <trkpt lat="22.5057792992" lon="114.1772425479"><ele>28.000</ele></trkpt>
      <trkpt lat="22.5057404731" lon="114.1772348339"><ele>28.000</ele></trkpt>
      <trkpt lat="22.5057028417" lon="114.1772271189"><ele>28.000</ele></trkpt>
      <trkpt lat="22.5056586397" lon="114.1772181190"><ele>28.000</ele></trkpt>
      <trkpt lat="22.5056186198" lon="114.1772129757"><ele>28.000</ele></trkpt>
      <trkpt lat="22.5055839747" lon="114.1772078333"><ele>28.000</ele></trkpt>
      <trkpt lat="22.5055612759" lon="114.1772026900"><ele>28.000</ele></trkpt>
      <trkpt lat="22.5055194635" lon="114.1771949750"><ele>28.000</ele></trkpt>
      <trkpt lat="22.5054890004" lon="114.1771904751"><ele>28.000</ele></trkpt>
      <trkpt lat="22.5054657047" lon="114.1771904750"><ele>28.000</ele></trkpt>
      <trkpt lat="22.5054406174" lon="114.1771898326"><ele>28.000</ele></trkpt>
      <trkpt lat="22.5054065692" lon="114.1771872608"><ele>28.000</ele></trkpt>
      <trkpt lat="22.5053749114" lon="114.1771801893"><ele>28.000</ele></trkpt>
      <trkpt lat="22.5053390716" lon="114.1771686179"><ele>28.000</ele></trkpt>
      <trkpt lat="22.5053098032" lon="114.1771583314"><ele>28.000</ele></trkpt>
      <trkpt lat="22.5052853128" lon="114.1771525456"><ele>28.000</ele></trkpt>
      <trkpt lat="22.5052500709" lon="114.1771441883"><ele>28.000</ele></trkpt>
      <trkpt lat="22.5052166205" lon="114.1771403308"><ele>28.000</ele></trkpt>
      <trkpt lat="22.5051885468" lon="114.1771416165"><ele>28.000</ele></trkpt>
      <trkpt lat="22.5051604723" lon="114.1771441881"><ele>28.000</ele></trkpt>
      <trkpt lat="22.5051335924" lon="114.1771448314"><ele>28.000</ele></trkpt>
      <trkpt lat="22.5050977535" lon="114.1771454738"><ele>28.000</ele></trkpt>
      <trkpt lat="22.5050607190" lon="114.1771454737"><ele>28.000</ele></trkpt>
      <trkpt lat="22.5050201012" lon="114.1771384021"><ele>28.000</ele></trkpt>
      <trkpt lat="22.5049794834" lon="114.1771281166"><ele>28.000</ele></trkpt>
      <trkpt lat="22.5049466300" lon="114.1771159018"><ele>28.000</ele></trkpt>
      <trkpt lat="22.5049167638" lon="114.1770972591"><ele>28.000</ele></trkpt>
      <trkpt lat="22.5048868986" lon="114.1770760437"><ele>28.000</ele></trkpt>
      <trkpt lat="22.5048647967" lon="114.1770548293"><ele>28.000</ele></trkpt>
      <trkpt lat="22.5048492672" lon="114.1770233295"><ele>28.000</ele></trkpt>
      <trkpt lat="22.5048259716" lon="114.1769828290"><ele>28.000</ele></trkpt>
      <trkpt lat="22.5048080517" lon="114.1769429710"><ele>28.000</ele></trkpt>
      <trkpt lat="22.5047919234" lon="114.1769043998"><ele>28.000</ele></trkpt>
      <trkpt lat="22.5047769908" lon="114.1768696850"><ele>28.000</ele></trkpt>
      <trkpt lat="22.5047674339" lon="114.1768401134"><ele>28.000</ele></trkpt>
      <trkpt lat="22.5047614603" lon="114.1768137559"><ele>28.000</ele></trkpt>
      <trkpt lat="22.5047584740" lon="114.1767880408"><ele>28.000</ele></trkpt>
      <trkpt lat="22.5047602656" lon="114.1767668265"><ele>28.000</ele></trkpt>
      <trkpt lat="22.5047638497" lon="114.1767404689"><ele>28.000</ele></trkpt>
      <trkpt lat="22.5047710171" lon="114.1767025401"><ele>28.000</ele></trkpt>
      <trkpt lat="22.5047734065" lon="114.1766761826"><ele>28.000</ele></trkpt>
      <trkpt lat="22.5047710171" lon="114.1766498260"><ele>28.000</ele></trkpt>
      <trkpt lat="22.5047692254" lon="114.1766305400"><ele>28.000</ele></trkpt>
      <trkpt lat="22.5047620571" lon="114.1766196111"><ele>28.000</ele></trkpt>
      <trkpt lat="22.5047453328" lon="114.1766048249"><ele>28.000</ele></trkpt>
      <trkpt lat="22.5047309970" lon="114.1765919678"><ele>28.000</ele></trkpt>
      <trkpt lat="22.5047100898" lon="114.1765758968"><ele>28.000</ele></trkpt>
      <trkpt lat="22.5046772373" lon="114.1765527533"><ele>28.000</ele></trkpt>
      <trkpt lat="22.5046503574" lon="114.1765321815"><ele>28.000</ele></trkpt>
      <trkpt lat="22.5046258678" lon="114.1765109673"><ele>28.000</ele></trkpt>
      <trkpt lat="22.5046085448" lon="114.1764968245"><ele>28.000</ele></trkpt>
      <trkpt lat="22.5045936121" lon="114.1764846099"><ele>28.000</ele></trkpt>
      <trkpt lat="22.5045750953" lon="114.1764730387"><ele>29.000</ele></trkpt>
      <trkpt lat="22.5045512017" lon="114.1764576101"><ele>28.000</ele></trkpt>
      <trkpt lat="22.5045255166" lon="114.1764434673"><ele>28.000</ele></trkpt>
      <trkpt lat="22.5045016239" lon="114.1764325385"><ele>28.000</ele></trkpt>
      <trkpt lat="22.5044699661" lon="114.1764158242"><ele>30.000</ele></trkpt>
      <trkpt lat="22.5044502536" lon="114.1763997532"><ele>28.000</ele></trkpt>
      <trkpt lat="22.5044323345" lon="114.1763753240"><ele>30.000</ele></trkpt>
      <trkpt lat="22.5044215819" lon="114.1763457525"><ele>30.000</ele></trkpt>
      <trkpt lat="22.5044108302" lon="114.1763078238"><ele>30.000</ele></trkpt>
      <trkpt lat="22.5043982868" lon="114.1762576806"><ele>30.000</ele></trkpt>
      <trkpt lat="22.5043905215" lon="114.1762171803"><ele>30.000</ele></trkpt>
      <trkpt lat="22.5043809635" lon="114.1761663946"><ele>30.000</ele></trkpt>
      <trkpt lat="22.5043720033" lon="114.1761175371"><ele>30.000</ele></trkpt>
      <trkpt lat="22.5043630432" lon="114.1760853941"><ele>30.000</ele></trkpt>
      <trkpt lat="22.5043499021" lon="114.1760558227"><ele>30.000</ele></trkpt>
      <trkpt lat="22.5043337746" lon="114.1760371792"><ele>30.000</ele></trkpt>
      <trkpt lat="22.5043152577" lon="114.1760198224"><ele>30.000</ele></trkpt>
      <trkpt lat="22.5042979346" lon="114.1760037515"><ele>30.000</ele></trkpt>
      <trkpt lat="22.5042812094" lon="114.1759870372"><ele>30.000</ele></trkpt>
      <trkpt lat="22.5042668735" lon="114.1759696795"><ele>30.000</ele></trkpt>
      <trkpt lat="22.5042549271" lon="114.1759516793"><ele>30.000</ele></trkpt>
      <trkpt lat="22.5042405913" lon="114.1759278936"><ele>30.000</ele></trkpt>
      <trkpt lat="22.5042268532" lon="114.1758996080"><ele>30.000</ele></trkpt>
      <trkpt lat="22.5042143089" lon="114.1758738941"><ele>30.000</ele></trkpt>
      <trkpt lat="22.5042041541" lon="114.1758539657"><ele>30.000</ele></trkpt>
      <trkpt lat="22.5041916099" lon="114.1758404654"><ele>30.000</ele></trkpt>
      <trkpt lat="22.5041736908" lon="114.1758301801"><ele>30.000</ele></trkpt>
      <trkpt lat="22.5041569656" lon="114.1758237512"><ele>30.000</ele></trkpt>
      <trkpt lat="22.5041354615" lon="114.1758231080"><ele>30.000</ele></trkpt>
      <trkpt lat="22.5041121659" lon="114.1758231082"><ele>30.000</ele></trkpt>
      <trkpt lat="22.5040834944" lon="114.1758243942"><ele>30.000</ele></trkpt>
      <trkpt lat="22.5040536282" lon="114.1758308234"><ele>30.000</ele></trkpt>
      <trkpt lat="22.5040183863" lon="114.1758391808"><ele>30.000</ele></trkpt>
      <trkpt lat="22.5039891179" lon="114.1758475382"><ele>30.000</ele></trkpt>
      <trkpt lat="22.5039670170" lon="114.1758533240"><ele>30.000</ele></trkpt>
      <trkpt lat="22.5039401372" lon="114.1758610390"><ele>30.000</ele></trkpt>
      <trkpt lat="22.5039204257" lon="114.1758642531"><ele>30.000</ele></trkpt>
      <trkpt lat="22.5038911564" lon="114.1758674673"><ele>30.000</ele></trkpt>
      <trkpt lat="22.5038481492" lon="114.1758726108"><ele>30.000</ele></trkpt>
      <trkpt lat="22.5038087261" lon="114.1758771109"><ele>30.000</ele></trkpt>
      <trkpt lat="22.5037663159" lon="114.1758809686"><ele>30.000</ele></trkpt>
      <trkpt lat="22.5037370475" lon="114.1758854686"><ele>30.000</ele></trkpt>
      <trkpt lat="22.5037047919" lon="114.1758899686"><ele>30.000</ele></trkpt>
      <trkpt lat="22.5036713415" lon="114.1758938262"><ele>30.000</ele></trkpt>
      <trkpt lat="22.5036390859" lon="114.1758970404"><ele>30.000</ele></trkpt>
      <trkpt lat="22.5036068302" lon="114.1758983264"><ele>30.000</ele></trkpt>
      <trkpt lat="22.5035733808" lon="114.1758976842"><ele>30.000</ele></trkpt>
      <trkpt lat="22.5035506820" lon="114.1758906130"><ele>30.000</ele></trkpt>
      <trkpt lat="22.5035249967" lon="114.1758719697"><ele>30.000</ele></trkpt>
      <trkpt lat="22.5035040903" lon="114.1758546131"><ele>30.000</ele></trkpt>
      <trkpt lat="22.5034873660" lon="114.1758404705"><ele>30.000</ele></trkpt>
      <trkpt lat="22.5034682513" lon="114.1758250421"><ele>30.000</ele></trkpt>
      <trkpt lat="22.5034533176" lon="114.1758096136"><ele>30.000</ele></trkpt>
      <trkpt lat="22.5034401765" lon="114.1757948276"><ele>30.000</ele></trkpt>
      <trkpt lat="22.5034300217" lon="114.1757858281"><ele>30.000</ele></trkpt>
      <trkpt lat="22.5034162838" lon="114.1757806850"><ele>30.000</ele></trkpt>
      <trkpt lat="22.5033971691" lon="114.1757755420"><ele>30.000</ele></trkpt>
      <trkpt lat="22.5033738734" lon="114.1757742574"><ele>30.000</ele></trkpt>
      <trkpt lat="22.5033517724" lon="114.1757729718"><ele>30.000</ele></trkpt>
      <trkpt lat="22.5033296714" lon="114.1757704003"><ele>30.000</ele></trkpt>
      <trkpt lat="22.5033129462" lon="114.1757684713"><ele>30.000</ele></trkpt>
      <trkpt lat="22.5032956241" lon="114.1757601143"><ele>30.000</ele></trkpt>
      <trkpt lat="22.5032848725" lon="114.1757517572"><ele>30.000</ele></trkpt>
      <trkpt lat="22.5032765094" lon="114.1757434001"><ele>30.000</ele></trkpt>
      <trkpt lat="22.5032765093" lon="114.1757363288"><ele>30.000</ele></trkpt>
      <trkpt lat="22.5032753145" lon="114.1757286150"><ele>30.000</ele></trkpt>
      <trkpt lat="22.5032675493" lon="114.1757228295"><ele>30.000</ele></trkpt>
      <trkpt lat="22.5032442535" lon="114.1757080436"><ele>30.000</ele></trkpt>
      <trkpt lat="22.5033183056" lon="114.1755307584"><ele>30.000</ele></trkpt>
      <trkpt lat="22.5033220136" lon="114.1755218812"><ele>30.000</ele></trkpt>
      <trkpt lat="22.5033779075" lon="114.1753370485"><ele>30.000</ele></trkpt>
      <trkpt lat="22.5033934780" lon="114.1752855592"><ele>30.000</ele></trkpt>
      <trkpt lat="22.5034535670" lon="114.1751022573"><ele>30.000</ele></trkpt>
      <trkpt lat="22.5035136557" lon="114.1749189552"><ele>30.000</ele></trkpt>
      <trkpt lat="22.5035737442" lon="114.1747356530"><ele>30.000</ele></trkpt>
      <trkpt lat="22.5036338325" lon="114.1745523506"><ele>30.000</ele></trkpt>
      <trkpt lat="22.5036939206" lon="114.1743690480"><ele>30.000</ele></trkpt>
      <trkpt lat="22.5037540085" lon="114.1741857453"><ele>30.000</ele></trkpt>
      <trkpt lat="22.5038140962" lon="114.1740024425"><ele>30.000</ele></trkpt>
      <trkpt lat="22.5038696389" lon="114.1738330036"><ele>33.000</ele></trkpt>
      <trkpt lat="22.5039224939" lon="114.1736471377"><ele>36.000</ele></trkpt>
      <trkpt lat="22.5039711162" lon="114.1734761553"><ele>36.000</ele></trkpt>
      <trkpt lat="22.5039956737" lon="114.1733171221"><ele>38.000</ele></trkpt>
      <trkpt lat="22.5040153820" lon="114.1731724786"><ele>40.000</ele></trkpt>
      <trkpt lat="22.5040231434" lon="114.1730072627"><ele>40.000</ele></trkpt>
      <trkpt lat="22.5040315014" lon="114.1728381912"><ele>42.000</ele></trkpt>
      <trkpt lat="22.5040410561" lon="114.1727154046"><ele>44.000</ele></trkpt>
      <trkpt lat="22.5040411094" lon="114.1727154541"><ele>44.000</ele></trkpt>
    </trkseg>
  </trk>
</gpx>
