<?xml version="1.0" encoding="UTF-8"?>
<gpx xmlns:xsi="http://www.w3.org/2001/XMLSchema-instance"
     xsi:schemaLocation="http://www.topografix.com/GPX/1/1 http://www.topografix.com/GPX/1/1/gpx.xsd"
     version="1.1" creator="json3d_batch_to_gpx"
     xmlns="http://www.topografix.com/GPX/1/1">
  <metadata>
    <name>FuTeiCountryTrail</name>
  </metadata>
  <trk>
    <name>FuTeiCountryTrail</name>
    <type>hike</type>
    <trkseg>
      <trkpt lat="22.4066651319" lon="113.9887073950"><ele>126.000</ele></trkpt>
      <trkpt lat="22.4066498823" lon="113.9887207180"><ele>126.000</ele></trkpt>
      <trkpt lat="22.4066216466" lon="113.9887462014"><ele>128.000</ele></trkpt>
      <trkpt lat="22.4065936800" lon="113.9887631213"><ele>130.000</ele></trkpt>
      <trkpt lat="22.4065574430" lon="113.9887030044"><ele>130.000</ele></trkpt>
      <trkpt lat="22.4065387585" lon="113.9886777658"><ele>132.000</ele></trkpt>
      <trkpt lat="22.4065308062" lon="113.9886722029"><ele>132.000</ele></trkpt>
      <trkpt lat="22.4065073118" lon="113.9886692626"><ele>132.000</ele></trkpt>
      <trkpt lat="22.4064884552" lon="113.9886753862"><ele>132.000</ele></trkpt>
      <trkpt lat="22.4064556831" lon="113.9886827143"><ele>134.000</ele></trkpt>
      <trkpt lat="22.4064235362" lon="113.9886840201"><ele>134.000</ele></trkpt>
      <trkpt lat="22.4063986968" lon="113.9886791975"><ele>134.000</ele></trkpt>
      <trkpt lat="22.4063851426" lon="113.9886718347"><ele>134.000</ele></trkpt>
      <trkpt lat="22.4063665116" lon="113.9886475799"><ele>136.000</ele></trkpt>
      <trkpt lat="22.4063568406" lon="113.9886404061"><ele>136.000</ele></trkpt>
      <trkpt lat="22.4063026565" lon="113.9886392165"><ele>136.000</ele></trkpt>
      <trkpt lat="22.4062597569" lon="113.9886350010"><ele>137.000</ele></trkpt>
      <trkpt lat="22.4061638083" lon="113.9885962824"><ele>138.000</ele></trkpt>
      <trkpt lat="22.4061378070" lon="113.9886018532"><ele>138.000</ele></trkpt>
      <trkpt lat="22.4060859102" lon="113.9886262030"><ele>138.000</ele></trkpt>
      <trkpt lat="22.4060396948" lon="113.9886438438"><ele>140.000</ele></trkpt>
      <trkpt lat="22.4060334645" lon="113.9886444349"><ele>140.000</ele></trkpt>
      <trkpt lat="22.4060114260" lon="113.9886408712"><ele>140.000</ele></trkpt>
      <trkpt lat="22.4059606501" lon="113.9886196704"><ele>140.000</ele></trkpt>
      <trkpt lat="22.4059481873" lon="113.9886190074"><ele>140.000</ele></trkpt>
      <trkpt lat="22.4059075567" lon="113.9886245979"><ele>140.000</ele></trkpt>
      <trkpt lat="22.4058691738" lon="113.9886216389"><ele>140.000</ele></trkpt>
      <trkpt lat="22.4058573403" lon="113.9886185470"><ele>140.000</ele></trkpt>
      <trkpt lat="22.4058387256" lon="113.9886082774"><ele>140.000</ele></trkpt>
      <trkpt lat="22.4057731913" lon="113.9885537847"><ele>140.000</ele></trkpt>
      <trkpt lat="22.4057528600" lon="113.9885428376"><ele>140.000</ele></trkpt>
      <trkpt lat="22.4057263013" lon="113.9885350068"><ele>140.000</ele></trkpt>
      <trkpt lat="22.4056957875" lon="113.9885429145"><ele>140.000</ele></trkpt>
      <trkpt lat="22.4056743995" lon="113.9885550832"><ele>140.000</ele></trkpt>
      <trkpt lat="22.4056343411" lon="113.9885867009"><ele>140.000</ele></trkpt>
      <trkpt lat="22.4056027487" lon="113.9885988833"><ele>140.000</ele></trkpt>
      <trkpt lat="22.4055853220" lon="113.9886007521"><ele>140.000</ele></trkpt>
      <trkpt lat="22.4055062032" lon="113.9885904669"><ele>140.000</ele></trkpt>
      <trkpt lat="22.4054627704" lon="113.9885936332"><ele>141.000</ele></trkpt>
      <trkpt lat="22.4054379416" lon="113.9885979399"><ele>141.000</ele></trkpt>
      <trkpt lat="22.4054080642" lon="113.9886094401"><ele>139.000</ele></trkpt>
      <trkpt lat="22.4053550739" lon="113.9886253419"><ele>141.000</ele></trkpt>
      <trkpt lat="22.4052427675" lon="113.9886533662"><ele>142.000</ele></trkpt>
      <trkpt lat="22.4052026864" lon="113.9886655600"><ele>144.000</ele></trkpt>
      <trkpt lat="22.4051835575" lon="113.9886789882"><ele>144.000</ele></trkpt>
      <trkpt lat="22.4051716528" lon="113.9886923095"><ele>144.000</ele></trkpt>
      <trkpt lat="22.4051593073" lon="113.9887148576"><ele>142.000</ele></trkpt>
      <trkpt lat="22.4051491572" lon="113.9887615854"><ele>144.000</ele></trkpt>
      <trkpt lat="22.4051340059" lon="113.9887786016"><ele>144.000</ele></trkpt>
      <trkpt lat="22.4051147816" lon="113.9887877566"><ele>144.000</ele></trkpt>
      <trkpt lat="22.4050786668" lon="113.9887938266"><ele>145.000</ele></trkpt>
      <trkpt lat="22.4050335272" lon="113.9888047646"><ele>145.000</ele></trkpt>
      <trkpt lat="22.4049268889" lon="113.9888146199"><ele>149.000</ele></trkpt>
      <trkpt lat="22.4048546729" lon="113.9888384140"><ele>150.000</ele></trkpt>
      <trkpt lat="22.4048298406" lon="113.9888397099"><ele>151.000</ele></trkpt>
      <trkpt lat="22.4047959708" lon="113.9888348995"><ele>153.000</ele></trkpt>
      <trkpt lat="22.4047621044" lon="113.9888330999"><ele>153.000</ele></trkpt>
      <trkpt lat="22.4047298671" lon="113.9888343086"><ele>154.000</ele></trkpt>
      <trkpt lat="22.4046988998" lon="113.9888404687"><ele>155.000</ele></trkpt>
      <trkpt lat="22.4046791379" lon="113.9888532178"><ele>152.000</ele></trkpt>
      <trkpt lat="22.4046571128" lon="113.9888612112"><ele>152.000</ele></trkpt>
      <trkpt lat="22.4046350785" lon="113.9888612408"><ele>152.000</ele></trkpt>
      <trkpt lat="22.4045312438" lon="113.9888746857"><ele>154.000</ele></trkpt>
      <trkpt lat="22.4044804870" lon="113.9888698980"><ele>154.000</ele></trkpt>
      <trkpt lat="22.4044573712" lon="113.9888717743"><ele>154.000</ele></trkpt>
      <trkpt lat="22.4044393195" lon="113.9888796652"><ele>154.000</ele></trkpt>
      <trkpt lat="22.4044020520" lon="113.9889039949"><ele>152.000</ele></trkpt>
      <trkpt lat="22.4043801178" lon="113.9889124736"><ele>154.000</ele></trkpt>
      <trkpt lat="22.4042294342" lon="113.9889424915"><ele>159.000</ele></trkpt>
      <trkpt lat="22.4041701013" lon="113.9889401433"><ele>161.000</ele></trkpt>
      <trkpt lat="22.4041227909" lon="113.9889480735"><ele>156.000</ele></trkpt>
      <trkpt lat="22.4040911984" lon="113.9889602557"><ele>156.000</ele></trkpt>
      <trkpt lat="22.4040093402" lon="113.9890016408"><ele>155.000</ele></trkpt>
      <trkpt lat="22.4039721489" lon="113.9890138306"><ele>155.000</ele></trkpt>
      <trkpt lat="22.4039320565" lon="113.9890163124"><ele>155.000</ele></trkpt>
      <trkpt lat="22.4038778723" lon="113.9890151227"><ele>156.000</ele></trkpt>
      <trkpt lat="22.4038462693" lon="113.9890182729"><ele>157.000</ele></trkpt>
      <trkpt lat="22.4038208923" lon="113.9890170445"><ele>157.000</ele></trkpt>
      <trkpt lat="22.4037892681" lon="113.9890019366"><ele>156.000</ele></trkpt>
      <trkpt lat="22.4037373261" lon="113.9889874387"><ele>158.000</ele></trkpt>
      <trkpt lat="22.4037102220" lon="113.9889765008"><ele>158.000</ele></trkpt>
      <trkpt lat="22.4036938656" lon="113.9889668110"><ele>158.000</ele></trkpt>
      <trkpt lat="22.4036803059" lon="113.9889547867"><ele>158.000</ele></trkpt>
      <trkpt lat="22.4036718130" lon="113.9889511076"><ele>158.000</ele></trkpt>
      <trkpt lat="22.4036327993" lon="113.9889493148"><ele>158.000</ele></trkpt>
      <trkpt lat="22.4035758010" lon="113.9889355036"><ele>160.000</ele></trkpt>
      <trkpt lat="22.4035448293" lon="113.9889378761"><ele>160.000</ele></trkpt>
      <trkpt lat="22.4035244254" lon="113.9889421767"><ele>160.000</ele></trkpt>
      <trkpt lat="22.4034606937" lon="113.9889622686"><ele>158.000</ele></trkpt>
      <trkpt lat="22.4034229627" lon="113.9889763042"><ele>160.000</ele></trkpt>
      <trkpt lat="22.4034105091" lon="113.9889836048"><ele>160.000</ele></trkpt>
      <trkpt lat="22.4033744177" lon="113.9890097779"><ele>158.000</ele></trkpt>
      <trkpt lat="22.4033405936" lon="113.9890443971"><ele>158.000</ele></trkpt>
      <trkpt lat="22.4032429016" lon="113.9891170809"><ele>159.000</ele></trkpt>
      <trkpt lat="22.4031790742" lon="113.9891193819"><ele>160.000</ele></trkpt>
      <trkpt lat="22.4030713638" lon="113.9891439195"><ele>160.000</ele></trkpt>
      <trkpt lat="22.4029787820" lon="113.9891745347"><ele>162.000</ele></trkpt>
      <trkpt lat="22.4028823988" lon="113.9891868601"><ele>164.000</ele></trkpt>
      <trkpt lat="22.4028281361" lon="113.9891935058"><ele>161.000</ele></trkpt>
      <trkpt lat="22.4028140158" lon="113.9891870345"><ele>164.000</ele></trkpt>
      <trkpt lat="22.4028068423" lon="113.9891810733"><ele>164.000</ele></trkpt>
      <trkpt lat="22.4027839475" lon="113.9891695578"><ele>164.000</ele></trkpt>
      <trkpt lat="22.4027598286" lon="113.9891614537"><ele>164.000</ele></trkpt>
      <trkpt lat="22.4027358177" lon="113.9891569875"><ele>164.000</ele></trkpt>
      <trkpt lat="22.4027069797" lon="113.9891553111"><ele>162.000</ele></trkpt>
      <trkpt lat="22.4026969009" lon="113.9891593706"><ele>162.000</ele></trkpt>
      <trkpt lat="22.4026770661" lon="113.9891746018"><ele>162.000</ele></trkpt>
      <trkpt lat="22.4026549006" lon="113.9891876783"><ele>162.000</ele></trkpt>
      <trkpt lat="22.4026318941" lon="113.9891989456"><ele>160.000</ele></trkpt>
      <trkpt lat="22.4026090296" lon="113.9892080373"><ele>161.000</ele></trkpt>
      <trkpt lat="22.4025838644" lon="113.9892158094"><ele>163.000</ele></trkpt>
      <trkpt lat="22.4025582163" lon="113.9892214727"><ele>163.000</ele></trkpt>
      <trkpt lat="22.4025331391" lon="113.9892249064"><ele>164.000</ele></trkpt>
      <trkpt lat="22.4025060928" lon="113.9892264859"><ele>164.000</ele></trkpt>
      <trkpt lat="22.4024791198" lon="113.9892242399"><ele>165.000</ele></trkpt>
      <trkpt lat="22.4024421459" lon="113.9892152693"><ele>165.000</ele></trkpt>
      <trkpt lat="22.4024107716" lon="113.9892029737"><ele>165.000</ele></trkpt>
      <trkpt lat="22.4023810162" lon="113.9891866708"><ele>166.000</ele></trkpt>
      <trkpt lat="22.4023533254" lon="113.9891666019"><ele>164.000</ele></trkpt>
      <trkpt lat="22.4023353589" lon="113.9891476134"><ele>164.000</ele></trkpt>
      <trkpt lat="22.4023284255" lon="113.9891454998"><ele>164.000</ele></trkpt>
      <trkpt lat="22.4023158498" lon="113.9891471307"><ele>164.000</ele></trkpt>
      <trkpt lat="22.4022120164" lon="113.9891803908"><ele>166.000</ele></trkpt>
      <trkpt lat="22.4021349896" lon="113.9892110879"><ele>165.000</ele></trkpt>
      <trkpt lat="22.4020848058" lon="113.9892167754"><ele>167.000</ele></trkpt>
      <trkpt lat="22.4020340343" lon="113.9892304904"><ele>169.000</ele></trkpt>
      <trkpt lat="22.4020175028" lon="113.9892403204"><ele>167.000</ele></trkpt>
      <trkpt lat="22.4019708254" lon="113.9892801396"><ele>170.000</ele></trkpt>
      <trkpt lat="22.4019099304" lon="113.9893254417"><ele>170.000</ele></trkpt>
      <trkpt lat="22.4018875222" lon="113.9893379143"><ele>170.000</ele></trkpt>
      <trkpt lat="22.4018594621" lon="113.9893451696"><ele>172.000</ele></trkpt>
      <trkpt lat="22.4017700091" lon="113.9893584226"><ele>174.000</ele></trkpt>
      <trkpt lat="22.4017598135" lon="113.9893901866"><ele>173.000</ele></trkpt>
      <trkpt lat="22.4017445473" lon="113.9894165091"><ele>173.000</ele></trkpt>
      <trkpt lat="22.4017233174" lon="113.9894389501"><ele>174.000</ele></trkpt>
      <trkpt lat="22.4016985770" lon="113.9894549123"><ele>174.000</ele></trkpt>
      <trkpt lat="22.4016789995" lon="113.9894623698"><ele>175.000</ele></trkpt>
      <trkpt lat="22.4016585427" lon="113.9894662168"><ele>175.000</ele></trkpt>
      <trkpt lat="22.4014779403" lon="113.9894645372"><ele>176.000</ele></trkpt>
      <trkpt lat="22.4014373065" lon="113.9894641593"><ele>176.000</ele></trkpt>
      <trkpt lat="22.4013572624" lon="113.9894151783"><ele>178.000</ele></trkpt>
      <trkpt lat="22.4012950257" lon="113.9894506100"><ele>176.000</ele></trkpt>
      <trkpt lat="22.4012305562" lon="113.9894785707"><ele>178.000</ele></trkpt>
      <trkpt lat="22.4011969643" lon="113.9894899763"><ele>177.000</ele></trkpt>
      <trkpt lat="22.4011628718" lon="113.9894994830"><ele>178.000</ele></trkpt>
      <trkpt lat="22.4011283670" lon="113.9895070674"><ele>180.000</ele></trkpt>
      <trkpt lat="22.4010935403" lon="113.9895127099"><ele>181.000</ele></trkpt>
      <trkpt lat="22.4010292395" lon="113.9895194437"><ele>182.000</ele></trkpt>
      <trkpt lat="22.4010098033" lon="113.9895180275"><ele>182.000</ele></trkpt>
      <trkpt lat="22.4009935027" lon="113.9895104374"><ele>183.000</ele></trkpt>
      <trkpt lat="22.4009355948" lon="113.9894714958"><ele>184.000</ele></trkpt>
      <trkpt lat="22.4009337828" lon="113.9894686848"><ele>184.000</ele></trkpt>
      <trkpt lat="22.4009374521" lon="113.9892944036"><ele>188.000</ele></trkpt>
      <trkpt lat="22.4009362405" lon="113.9892526678"><ele>188.000</ele></trkpt>
      <trkpt lat="22.4009333921" lon="113.9892158948"><ele>189.000</ele></trkpt>
      <trkpt lat="22.4009310188" lon="113.9892025543"><ele>189.000</ele></trkpt>
      <trkpt lat="22.4009261166" lon="113.9891889860"><ele>191.000</ele></trkpt>
      <trkpt lat="22.4008975123" lon="113.9891350290"><ele>191.000</ele></trkpt>
      <trkpt lat="22.4008910531" lon="113.9891189854"><ele>191.000</ele></trkpt>
      <trkpt lat="22.4008890983" lon="113.9891075653"><ele>191.000</ele></trkpt>
      <trkpt lat="22.4008966997" lon="113.9889991097"><ele>192.000</ele></trkpt>
      <trkpt lat="22.4009043788" lon="113.9889140299"><ele>192.000</ele></trkpt>
      <trkpt lat="22.4009179385" lon="113.9888770814"><ele>196.000</ele></trkpt>
      <trkpt lat="22.4009216733" lon="113.9888590789"><ele>196.000</ele></trkpt>
      <trkpt lat="22.4009237017" lon="113.9888397880"><ele>196.000</ele></trkpt>
      <trkpt lat="22.4009237024" lon="113.9888194024"><ele>196.000</ele></trkpt>
      <trkpt lat="22.4009213650" lon="113.9887981964"><ele>196.000</ele></trkpt>
      <trkpt lat="22.4009166694" lon="113.9887774471"><ele>196.000</ele></trkpt>
      <trkpt lat="22.4009096837" lon="113.9887574585"><ele>194.000</ele></trkpt>
      <trkpt lat="22.4009000432" lon="113.9887376880"><ele>196.000</ele></trkpt>
      <trkpt lat="22.4008881649" lon="113.9887193801"><ele>196.000</ele></trkpt>
      <trkpt lat="22.4008742378" lon="113.9887028261"><ele>198.000</ele></trkpt>
      <trkpt lat="22.4008584844" lon="113.9886882896"><ele>196.000</ele></trkpt>
      <trkpt lat="22.4008395232" lon="113.9886751521"><ele>196.000</ele></trkpt>
      <trkpt lat="22.4007035561" lon="113.9885984418"><ele>198.000</ele></trkpt>
      <trkpt lat="22.4006729281" lon="113.9885997902"><ele>198.000</ele></trkpt>
      <trkpt lat="22.4006433035" lon="113.9885965622"><ele>198.000</ele></trkpt>
      <trkpt lat="22.4006144186" lon="113.9885887862"><ele>198.000</ele></trkpt>
      <trkpt lat="22.4005868742" lon="113.9885766217"><ele>197.000</ele></trkpt>
      <trkpt lat="22.4005649820" lon="113.9885630453"><ele>197.000</ele></trkpt>
      <trkpt lat="22.4005455292" lon="113.9885472659"><ele>198.000</ele></trkpt>
      <trkpt lat="22.4005134661" lon="113.9885159136"><ele>198.000</ele></trkpt>
      <trkpt lat="22.4004893843" lon="113.9884846816"><ele>199.000</ele></trkpt>
      <trkpt lat="22.4004568585" lon="113.9884816731"><ele>198.000</ele></trkpt>
      <trkpt lat="22.4004225590" lon="113.9884731955"><ele>198.000</ele></trkpt>
      <trkpt lat="22.4003896022" lon="113.9884599089"><ele>201.000</ele></trkpt>
      <trkpt lat="22.4003678768" lon="113.9884460332"><ele>201.000</ele></trkpt>
      <trkpt lat="22.4003610330" lon="113.9884432998"><ele>201.000</ele></trkpt>
      <trkpt lat="22.4003558696" lon="113.9884442653"><ele>201.000</ele></trkpt>
      <trkpt lat="22.4003380717" lon="113.9884537950"><ele>201.000</ele></trkpt>
      <trkpt lat="22.4003232078" lon="113.9884578929"><ele>202.000</ele></trkpt>
      <trkpt lat="22.4003079876" lon="113.9884599907"><ele>202.000</ele></trkpt>
      <trkpt lat="22.4002782970" lon="113.9884582574"><ele>202.000</ele></trkpt>
      <trkpt lat="22.4002498384" lon="113.9884489930"><ele>202.000</ele></trkpt>
      <trkpt lat="22.4002290826" lon="113.9884372030"><ele>201.000</ele></trkpt>
      <trkpt lat="22.4002218082" lon="113.9884314597"><ele>201.000</ele></trkpt>
      <trkpt lat="22.4002066190" lon="113.9884028118"><ele>204.000</ele></trkpt>
      <trkpt lat="22.4001786150" lon="113.9883364974"><ele>203.000</ele></trkpt>
      <trkpt lat="22.4001614513" lon="113.9882905413"><ele>204.000</ele></trkpt>
      <trkpt lat="22.4001446062" lon="113.9882373769"><ele>204.000</ele></trkpt>
      <trkpt lat="22.4001398264" lon="113.9882397122"><ele>204.000</ele></trkpt>
      <trkpt lat="22.4001269716" lon="113.9882529324"><ele>204.000</ele></trkpt>
      <trkpt lat="22.4001174162" lon="113.9882604377"><ele>204.000</ele></trkpt>
      <trkpt lat="22.4000899172" lon="113.9882771873"><ele>204.000</ele></trkpt>
      <trkpt lat="22.4000585742" lon="113.9882895885"><ele>204.000</ele></trkpt>
      <trkpt lat="22.4000275675" lon="113.9882960399"><ele>205.000</ele></trkpt>
      <trkpt lat="22.3999923733" lon="113.9882969847"><ele>206.000</ele></trkpt>
      <trkpt lat="22.3999567059" lon="113.9882910709"><ele>204.000</ele></trkpt>
      <trkpt lat="22.3999334379" lon="113.9882832292"><ele>204.000</ele></trkpt>
      <trkpt lat="22.3999112248" lon="113.9882724133"><ele>204.000</ele></trkpt>
      <trkpt lat="22.3998903937" lon="113.9882587812"><ele>207.000</ele></trkpt>
      <trkpt lat="22.3998772250" lon="113.9882460293"><ele>207.000</ele></trkpt>
      <trkpt lat="22.3998713085" lon="113.9882423547"><ele>207.000</ele></trkpt>
      <trkpt lat="22.3998654526" lon="113.9882418663"><ele>207.000</ele></trkpt>
      <trkpt lat="22.3998517303" lon="113.9882453470"><ele>207.000</ele></trkpt>
      <trkpt lat="22.3998409028" lon="113.9882461230"><ele>207.000</ele></trkpt>
      <trkpt lat="22.3998111722" lon="113.9882441528"><ele>206.000</ele></trkpt>
      <trkpt lat="22.3997822693" lon="113.9882364828"><ele>205.000</ele></trkpt>
      <trkpt lat="22.3997543105" lon="113.9882228710"><ele>208.000</ele></trkpt>
      <trkpt lat="22.3997362255" lon="113.9882100277"><ele>208.000</ele></trkpt>
      <trkpt lat="22.3997205027" lon="113.9881954311"><ele>208.000</ele></trkpt>
      <trkpt lat="22.3997060472" lon="113.9881780671"><ele>208.000</ele></trkpt>
      <trkpt lat="22.3996942906" lon="113.9881596534"><ele>210.000</ele></trkpt>
      <trkpt lat="22.3996826607" lon="113.9881344299"><ele>208.000</ele></trkpt>
      <trkpt lat="22.3996810956" lon="113.9881073117"><ele>209.000</ele></trkpt>
      <trkpt lat="22.3996757143" lon="113.9880817428"><ele>209.000</ele></trkpt>
      <trkpt lat="22.3996662237" lon="113.9880565417"><ele>210.000</ele></trkpt>
      <trkpt lat="22.3996519586" lon="113.9880320598"><ele>210.000</ele></trkpt>
      <trkpt lat="22.3996364362" lon="113.9880128384"><ele>208.000</ele></trkpt>
      <trkpt lat="22.3996247993" lon="113.9880009925"><ele>208.000</ele></trkpt>
      <trkpt lat="22.3996177175" lon="113.9879963037"><ele>208.000</ele></trkpt>
      <trkpt lat="22.3995828639" lon="113.9880260388"><ele>207.000</ele></trkpt>
      <trkpt lat="22.3995419527" lon="113.9880526908"><ele>207.000</ele></trkpt>
      <trkpt lat="22.3995058888" lon="113.9880705844"><ele>209.000</ele></trkpt>
      <trkpt lat="22.3994398932" lon="113.9880969333"><ele>206.000</ele></trkpt>
      <trkpt lat="22.3994102326" lon="113.9881053971"><ele>208.000</ele></trkpt>
      <trkpt lat="22.3993798487" lon="113.9881100190"><ele>208.000</ele></trkpt>
      <trkpt lat="22.3993410522" lon="113.9881102695"><ele>208.000</ele></trkpt>
      <trkpt lat="22.3993089185" lon="113.9881051066"><ele>208.000</ele></trkpt>
      <trkpt lat="22.3992774082" lon="113.9881164503"><ele>208.000</ele></trkpt>
      <trkpt lat="22.3992551336" lon="113.9881202601"><ele>208.000</ele></trkpt>
      <trkpt lat="22.3992343819" lon="113.9881205532"><ele>208.000</ele></trkpt>
      <trkpt lat="22.3992129084" lon="113.9881175416"><ele>208.000</ele></trkpt>
      <trkpt lat="22.3991946200" lon="113.9881121978"><ele>208.000</ele></trkpt>
      <trkpt lat="22.3991771081" lon="113.9881044085"><ele>208.000</ele></trkpt>
      <trkpt lat="22.3991637245" lon="113.9880963428"><ele>208.000</ele></trkpt>
      <trkpt lat="22.3991463718" lon="113.9880826478"><ele>208.000</ele></trkpt>
      <trkpt lat="22.3990852451" lon="113.9880776639"><ele>211.000</ele></trkpt>
      <trkpt lat="22.3990247675" lon="113.9880663666"><ele>211.000</ele></trkpt>
      <trkpt lat="22.3989733343" lon="113.9880515232"><ele>211.000</ele></trkpt>
      <trkpt lat="22.3989261020" lon="113.9880297168"><ele>214.000</ele></trkpt>
      <trkpt lat="22.3989267684" lon="113.9880853789"><ele>209.000</ele></trkpt>
      <trkpt lat="22.3989230600" lon="113.9881328622"><ele>212.000</ele></trkpt>
      <trkpt lat="22.3989130799" lon="113.9881479527"><ele>212.000</ele></trkpt>
      <trkpt lat="22.3989022833" lon="113.9881596948"><ele>212.000</ele></trkpt>
      <trkpt lat="22.3988891496" lon="113.9881699979"><ele>212.000</ele></trkpt>
      <trkpt lat="22.3988730002" lon="113.9881790931"><ele>212.000</ele></trkpt>
      <trkpt lat="22.3988624525" lon="113.9881798007"><ele>212.000</ele></trkpt>
      <trkpt lat="22.3988335002" lon="113.9881769060"><ele>212.000</ele></trkpt>
      <trkpt lat="22.3988037003" lon="113.9881775153"><ele>212.000</ele></trkpt>
      <trkpt lat="22.3987722567" lon="113.9881809810"><ele>212.000</ele></trkpt>
      <trkpt lat="22.3987403254" lon="113.9881875482"><ele>214.000</ele></trkpt>
      <trkpt lat="22.3987081983" lon="113.9881974166"><ele>214.000</ele></trkpt>
      <trkpt lat="22.3986778589" lon="113.9882099775"><ele>215.000</ele></trkpt>
      <trkpt lat="22.3986486642" lon="113.9882253580"><ele>215.000</ele></trkpt>
      <trkpt lat="22.3986288804" lon="113.9882402762"><ele>215.000</ele></trkpt>
      <trkpt lat="22.3986200664" lon="113.9882438755"><ele>215.000</ele></trkpt>
      <trkpt lat="22.3986043189" lon="113.9882429703"><ele>217.000</ele></trkpt>
      <trkpt lat="22.3985907166" lon="113.9882393672"><ele>217.000</ele></trkpt>
      <trkpt lat="22.3984337369" lon="113.9881779747"><ele>216.000</ele></trkpt>
      <trkpt lat="22.3983899299" lon="113.9881685263"><ele>219.000</ele></trkpt>
      <trkpt lat="22.3983279495" lon="113.9881423717"><ele>216.000</ele></trkpt>
      <trkpt lat="22.3983006782" lon="113.9881189691"><ele>219.000</ele></trkpt>
      <trkpt lat="22.3982715830" lon="113.9880897091"><ele>216.000</ele></trkpt>
      <trkpt lat="22.3982497324" lon="113.9880428607"><ele>218.000</ele></trkpt>
      <trkpt lat="22.3982387774" lon="113.9879940437"><ele>215.000</ele></trkpt>
      <trkpt lat="22.3982296576" lon="113.9879608508"><ele>216.000</ele></trkpt>
      <trkpt lat="22.3982259608" lon="113.9879061641"><ele>216.000</ele></trkpt>
      <trkpt lat="22.3982295595" lon="113.9878768610"><ele>215.000</ele></trkpt>
      <trkpt lat="22.3982531189" lon="113.9878319042"><ele>218.000</ele></trkpt>
      <trkpt lat="22.3982766646" lon="113.9877752277"><ele>216.000</ele></trkpt>
      <trkpt lat="22.3982929567" lon="113.9877283269"><ele>216.000</ele></trkpt>
      <trkpt lat="22.3982983614" lon="113.9876912074"><ele>219.000</ele></trkpt>
      <trkpt lat="22.3982892552" lon="113.9876697343"><ele>216.000</ele></trkpt>
      <trkpt lat="22.3982692603" lon="113.9876560886"><ele>216.000</ele></trkpt>
      <trkpt lat="22.3982147659" lon="113.9876522555"><ele>213.000</ele></trkpt>
      <trkpt lat="22.3981856936" lon="113.9876425290"><ele>212.000</ele></trkpt>
      <trkpt lat="22.3981657100" lon="113.9876386492"><ele>212.000</ele></trkpt>
      <trkpt lat="22.3981493722" lon="113.9876464841"><ele>212.000</ele></trkpt>
      <trkpt lat="22.3981149218" lon="113.9876973155"><ele>212.000</ele></trkpt>
      <trkpt lat="22.3980858905" lon="113.9877227471"><ele>212.000</ele></trkpt>
      <trkpt lat="22.3980532364" lon="113.9877559974"><ele>214.000</ele></trkpt>
      <trkpt lat="22.3980351077" lon="113.9877853201"><ele>214.000</ele></trkpt>
      <trkpt lat="22.3980224440" lon="113.9878283092"><ele>216.000</ele></trkpt>
      <trkpt lat="22.3979699434" lon="113.9879758512"><ele>217.000</ele></trkpt>
      <trkpt lat="22.3979627254" lon="113.9880168789"><ele>216.000</ele></trkpt>
      <trkpt lat="22.3979645766" lon="113.9880461757"><ele>217.000</ele></trkpt>
      <trkpt lat="22.3979682314" lon="113.9880657032"><ele>217.000</ele></trkpt>
      <trkpt lat="22.3979773521" lon="113.9880988960"><ele>219.000</ele></trkpt>
      <trkpt lat="22.3979919163" lon="113.9881281756"><ele>214.000</ele></trkpt>
      <trkpt lat="22.3979955766" lon="113.9881516100"><ele>216.000</ele></trkpt>
      <trkpt lat="22.3979810899" lon="113.9881887406"><ele>214.000</ele></trkpt>
      <trkpt lat="22.3979611328" lon="113.9882083001"><ele>218.000</ele></trkpt>
      <trkpt lat="22.3979248160" lon="113.9882161628"><ele>218.000</ele></trkpt>
      <trkpt lat="22.3978830388" lon="113.9882142653"><ele>220.000</ele></trkpt>
      <trkpt lat="22.3978521528" lon="113.9882064941"><ele>220.000</ele></trkpt>
      <trkpt lat="22.3978176588" lon="113.9882202133"><ele>220.000</ele></trkpt>
      <trkpt lat="22.3977904481" lon="113.9882495492"><ele>218.000</ele></trkpt>
      <trkpt lat="22.3977541780" lon="113.9882974528"><ele>215.000</ele></trkpt>
      <trkpt lat="22.3977396594" lon="113.9883072391"><ele>216.000</ele></trkpt>
      <trkpt lat="22.3977124191" lon="113.9883111817"><ele>216.000</ele></trkpt>
      <trkpt lat="22.3976652248" lon="113.9883366376"><ele>215.000</ele></trkpt>
      <trkpt lat="22.3976343615" lon="113.9883483989"><ele>216.000</ele></trkpt>
      <trkpt lat="22.3976016722" lon="113.9883523498"><ele>216.000</ele></trkpt>
      <trkpt lat="22.3975907879" lon="113.9883640832"><ele>216.000</ele></trkpt>
      <trkpt lat="22.3975944391" lon="113.9883797048"><ele>216.000</ele></trkpt>
      <trkpt lat="22.3976053530" lon="113.9883933627"><ele>216.000</ele></trkpt>
      <trkpt lat="22.3976326516" lon="113.9884402036"><ele>217.000</ele></trkpt>
      <trkpt lat="22.3976526883" lon="113.9884890082"><ele>220.000</ele></trkpt>
      <trkpt lat="22.3976545248" lon="113.9885065852"><ele>220.000</ele></trkpt>
      <trkpt lat="22.3976328085" lon="113.9885749785"><ele>220.000</ele></trkpt>
      <trkpt lat="22.3976020589" lon="113.9886844017"><ele>223.000</ele></trkpt>
      <trkpt lat="22.3975803162" lon="113.9887293557"><ele>222.000</ele></trkpt>
      <trkpt lat="22.3975603533" lon="113.9887440321"><ele>225.000</ele></trkpt>
      <trkpt lat="22.3975173744" lon="113.9887601797"><ele>228.000</ele></trkpt>
      <trkpt lat="22.3974986153" lon="113.9887740853"><ele>225.000</ele></trkpt>
      <trkpt lat="22.3974750534" lon="113.9888007912"><ele>230.000</ele></trkpt>
      <trkpt lat="22.3974442096" lon="113.9888301308"><ele>227.000</ele></trkpt>
      <trkpt lat="22.3974115371" lon="113.9888477542"><ele>230.000</ele></trkpt>
      <trkpt lat="22.3973715964" lon="113.9888634344"><ele>228.000</ele></trkpt>
      <trkpt lat="22.3973262248" lon="113.9888947474"><ele>232.000</ele></trkpt>
      <trkpt lat="22.3973044593" lon="113.9889201689"><ele>230.000</ele></trkpt>
      <trkpt lat="22.3972652978" lon="113.9889434957"><ele>234.000</ele></trkpt>
      <trkpt lat="22.3972445566" lon="113.9889505245"><ele>236.000</ele></trkpt>
      <trkpt lat="22.3971991601" lon="113.9889603512"><ele>234.000</ele></trkpt>
      <trkpt lat="22.3971501475" lon="113.9889838563"><ele>235.000</ele></trkpt>
      <trkpt lat="22.3970993224" lon="113.9890112697"><ele>234.000</ele></trkpt>
      <trkpt lat="22.3970739012" lon="113.9890171636"><ele>236.000</ele></trkpt>
      <trkpt lat="22.3970339492" lon="113.9890230771"><ele>236.000</ele></trkpt>
      <trkpt lat="22.3969867412" lon="113.9890368131"><ele>238.000</ele></trkpt>
      <trkpt lat="22.3969359059" lon="113.9890554377"><ele>238.000</ele></trkpt>
      <trkpt lat="22.3968687212" lon="113.9890711534"><ele>240.000</ele></trkpt>
      <trkpt lat="22.3968360454" lon="113.9890868237"><ele>242.000</ele></trkpt>
      <trkpt lat="22.3968215313" lon="113.9891005158"><ele>242.000</ele></trkpt>
      <trkpt lat="22.3968088445" lon="113.9891239720"><ele>240.000</ele></trkpt>
      <trkpt lat="22.3968088581" lon="113.9891356915"><ele>240.000</ele></trkpt>
      <trkpt lat="22.3968143502" lon="113.9891727949"><ele>240.000</ele></trkpt>
      <trkpt lat="22.3968252835" lon="113.9892040322"><ele>240.000</ele></trkpt>
      <trkpt lat="22.3968362766" lon="113.9892860536"><ele>242.000</ele></trkpt>
      <trkpt lat="22.3968453767" lon="113.9893016678"><ele>244.000</ele></trkpt>
      <trkpt lat="22.3968599203" lon="113.9893133679"><ele>243.000</ele></trkpt>
      <trkpt lat="22.3969089792" lon="113.9893289276"><ele>242.000</ele></trkpt>
      <trkpt lat="22.3969780502" lon="113.9893737595"><ele>244.000</ele></trkpt>
      <trkpt lat="22.3970162066" lon="113.9893854280"><ele>244.000</ele></trkpt>
      <trkpt lat="22.3970561904" lon="113.9894068597"><ele>245.000</ele></trkpt>
      <trkpt lat="22.3970834638" lon="113.9894322153"><ele>244.000</ele></trkpt>
      <trkpt lat="22.3970907515" lon="113.9894517379"><ele>246.000</ele></trkpt>
      <trkpt lat="22.3970908013" lon="113.9894947094"><ele>246.000</ele></trkpt>
      <trkpt lat="22.3970827521" lon="113.9895053162"><ele>246.000</ele></trkpt>
      <trkpt lat="22.3970744801" lon="113.9895162176"><ele>246.000</ele></trkpt>
      <trkpt lat="22.3970236459" lon="113.9895358180"><ele>248.000</ele></trkpt>
      <trkpt lat="22.3969927712" lon="113.9895378123"><ele>248.000</ele></trkpt>
      <trkpt lat="22.3969400803" lon="113.9895222574"><ele>248.000</ele></trkpt>
      <trkpt lat="22.3968510453" lon="113.9894911248"><ele>250.000</ele></trkpt>
      <trkpt lat="22.3967674796" lon="113.9894775632"><ele>252.000</ele></trkpt>
      <trkpt lat="22.3966945765" lon="113.9894572070"><ele>254.000</ele></trkpt>
      <trkpt lat="22.3966509485" lon="113.9894260136"><ele>256.000</ele></trkpt>
      <trkpt lat="22.3965691535" lon="113.9893733851"><ele>258.000</ele></trkpt>
      <trkpt lat="22.3965091409" lon="113.9893090090"><ele>259.000</ele></trkpt>
      <trkpt lat="22.3964564296" lon="113.9892758749"><ele>262.000</ele></trkpt>
      <trkpt lat="22.3963764708" lon="113.9892398475"><ele>264.000</ele></trkpt>
      <trkpt lat="22.3963546590" lon="113.9892262043"><ele>264.000</ele></trkpt>
      <trkpt lat="22.3963200993" lon="113.9891832793"><ele>266.000</ele></trkpt>
      <trkpt lat="22.3962819188" lon="113.9891501258"><ele>267.000</ele></trkpt>
      <trkpt lat="22.3962255835" lon="113.9891248094"><ele>266.000</ele></trkpt>
      <trkpt lat="22.3961965180" lon="113.9891209415"><ele>266.000</ele></trkpt>
      <trkpt lat="22.3961365915" lon="113.9891307886"><ele>267.000</ele></trkpt>
      <trkpt lat="22.3960475609" lon="113.9891035622"><ele>269.000</ele></trkpt>
      <trkpt lat="22.3959763257" lon="113.9890855095"><ele>270.000</ele></trkpt>
      <trkpt lat="22.3959326975" lon="113.9890543164"><ele>268.000</ele></trkpt>
      <trkpt lat="22.3959209689" lon="113.9890396380"><ele>271.000</ele></trkpt>
      <trkpt lat="22.3958999569" lon="113.9890133430"><ele>270.000</ele></trkpt>
      <trkpt lat="22.3958872361" lon="113.9890075003"><ele>270.000</ele></trkpt>
      <trkpt lat="22.3958218697" lon="113.9890251674"><ele>271.000</ele></trkpt>
      <trkpt lat="22.3957710219" lon="113.9890330484"><ele>271.000</ele></trkpt>
      <trkpt lat="22.3957092658" lon="113.9890311784"><ele>271.000</ele></trkpt>
      <trkpt lat="22.3956765628" lon="113.9890234096"><ele>271.000</ele></trkpt>
      <trkpt lat="22.3955712307" lon="113.9890352696"><ele>274.000</ele></trkpt>
      <trkpt lat="22.3955458231" lon="113.9890528830"><ele>274.000</ele></trkpt>
      <trkpt lat="22.3955331364" lon="113.9890763390"><ele>272.000</ele></trkpt>
      <trkpt lat="22.3955277146" lon="113.9890997852"><ele>272.000</ele></trkpt>
      <trkpt lat="22.3955296222" lon="113.9891351033"><ele>271.000</ele></trkpt>
      <trkpt lat="22.3955278855" lon="113.9892034686"><ele>269.000</ele></trkpt>
      <trkpt lat="22.3955206604" lon="113.9892386358"><ele>269.000</ele></trkpt>
      <trkpt lat="22.3955188783" lon="113.9892679369"><ele>268.000</ele></trkpt>
      <trkpt lat="22.3955207442" lon="113.9893109045"><ele>267.000</ele></trkpt>
      <trkpt lat="22.3955080687" lon="113.9893441271"><ele>267.000</ele></trkpt>
      <trkpt lat="22.3954881192" lon="113.9893695457"><ele>266.000</ele></trkpt>
      <trkpt lat="22.3954264142" lon="113.9894125985"><ele>265.000</ele></trkpt>
      <trkpt lat="22.3953846845" lon="113.9894517197"><ele>264.000</ele></trkpt>
      <trkpt lat="22.3953393762" lon="113.9895377216"><ele>264.000</ele></trkpt>
      <trkpt lat="22.3953248688" lon="113.9895572731"><ele>262.000</ele></trkpt>
      <trkpt lat="22.3952450370" lon="113.9896316026"><ele>262.000</ele></trkpt>
      <trkpt lat="22.3952105936" lon="113.9896882921"><ele>262.000</ele></trkpt>
      <trkpt lat="22.3951717473" lon="113.9897781376"><ele>262.000</ele></trkpt>
      <trkpt lat="22.3951354665" lon="113.9898172503"><ele>262.000</ele></trkpt>
      <trkpt lat="22.3950574538" lon="113.9898935301"><ele>262.000</ele></trkpt>
      <trkpt lat="22.3950084468" lon="113.9899228942"><ele>262.000</ele></trkpt>
      <trkpt lat="22.3949031507" lon="113.9899660059"><ele>256.000</ele></trkpt>
      <trkpt lat="22.3948341724" lon="113.9900012553"><ele>256.000</ele></trkpt>
      <trkpt lat="22.3947724853" lon="113.9900599339"><ele>252.000</ele></trkpt>
      <trkpt lat="22.3947543381" lon="113.9900736314"><ele>252.000</ele></trkpt>
      <trkpt lat="22.3947398149" lon="113.9900795096"><ele>251.000</ele></trkpt>
      <trkpt lat="22.3947196135" lon="113.9900730544"><ele>251.000</ele></trkpt>
      <trkpt lat="22.3946596169" lon="113.9900223510"><ele>249.000</ele></trkpt>
      <trkpt lat="22.3946311440" lon="113.9900115864"><ele>248.000</ele></trkpt>
      <trkpt lat="22.3946215387" lon="113.9900118983"><ele>248.000</ele></trkpt>
      <trkpt lat="22.3945978508" lon="113.9900126670"><ele>248.000</ele></trkpt>
      <trkpt lat="22.3945778809" lon="113.9900205063"><ele>247.000</ele></trkpt>
      <trkpt lat="22.3945669964" lon="113.9900322403"><ele>248.000</ele></trkpt>
      <trkpt lat="22.3945631100" lon="113.9900473579"><ele>248.000</ele></trkpt>
      <trkpt lat="22.3945603441" lon="113.9900865422"><ele>246.000</ele></trkpt>
      <trkpt lat="22.3945652105" lon="113.9901177046"><ele>246.000</ele></trkpt>
      <trkpt lat="22.3945587979" lon="113.9901419570"><ele>244.000</ele></trkpt>
      <trkpt lat="22.3945137366" lon="113.9901645285"><ele>246.000</ele></trkpt>
      <trkpt lat="22.3944896099" lon="113.9901888036"><ele>245.000</ele></trkpt>
      <trkpt lat="22.3944494299" lon="113.9902546589"><ele>245.000</ele></trkpt>
      <trkpt lat="22.3944253491" lon="113.9903187622"><ele>238.000</ele></trkpt>
      <trkpt lat="22.3944044635" lon="113.9903603488"><ele>240.000</ele></trkpt>
      <trkpt lat="22.3943819578" lon="113.9903932801"><ele>238.000</ele></trkpt>
      <trkpt lat="22.3943401027" lon="113.9904037258"><ele>239.000</ele></trkpt>
      <trkpt lat="22.3943046891" lon="113.9904141630"><ele>240.000</ele></trkpt>
      <trkpt lat="22.3942757160" lon="113.9904245915"><ele>238.000</ele></trkpt>
      <trkpt lat="22.3942516022" lon="113.9904592564"><ele>238.000</ele></trkpt>
      <trkpt lat="22.3942564694" lon="113.9904904197"><ele>236.000</ele></trkpt>
      <trkpt lat="22.3943047969" lon="113.9905076712"><ele>234.000</ele></trkpt>
      <trkpt lat="22.3943933753" lon="113.9905196746"><ele>230.000</ele></trkpt>
      <trkpt lat="22.3944416858" lon="113.9905213418"><ele>228.000</ele></trkpt>
      <trkpt lat="22.3944594150" lon="113.9905351711"><ele>226.000</ele></trkpt>
      <trkpt lat="22.3945094144" lon="113.9906061026"><ele>222.000</ele></trkpt>
      <trkpt lat="22.3945465149" lon="113.9906614649"><ele>220.000</ele></trkpt>
      <trkpt lat="22.3945739368" lon="113.9907029882"><ele>219.000</ele></trkpt>
      <trkpt lat="22.3945997405" lon="113.9907375867"><ele>216.000</ele></trkpt>
      <trkpt lat="22.3945965940" lon="113.9908016611"><ele>215.000</ele></trkpt>
      <trkpt lat="22.3945950655" lon="113.9908726613"><ele>211.000</ele></trkpt>
      <trkpt lat="22.3946031887" lon="113.9909349893"><ele>210.000</ele></trkpt>
      <trkpt lat="22.3946531880" lon="113.9910059200"><ele>208.000</ele></trkpt>
      <trkpt lat="22.3946773865" lon="113.9910439837"><ele>208.000</ele></trkpt>
      <trkpt lat="22.3947000216" lon="113.9911236094"><ele>204.000</ele></trkpt>
      <trkpt lat="22.3946952758" lon="113.9911980769"><ele>200.000</ele></trkpt>
      <trkpt lat="22.3946824217" lon="113.9912223369"><ele>202.000</ele></trkpt>
      <trkpt lat="22.3946889108" lon="113.9912638871"><ele>199.000</ele></trkpt>
      <trkpt lat="22.3947227938" lon="113.9913227179"><ele>198.000</ele></trkpt>
      <trkpt lat="22.3947309030" lon="113.9913729255"><ele>196.000</ele></trkpt>
      <trkpt lat="22.3947341947" lon="113.9914352599"><ele>196.000</ele></trkpt>
      <trkpt lat="22.3947616164" lon="113.9914767834"><ele>196.000</ele></trkpt>
      <trkpt lat="22.3948115866" lon="113.9915217401"><ele>195.000</ele></trkpt>
      <trkpt lat="22.3948534794" lon="113.9915441950"><ele>194.000</ele></trkpt>
      <trkpt lat="22.3948953266" lon="113.9915268236"><ele>194.000</ele></trkpt>
      <trkpt lat="22.3949323127" lon="113.9914834832"><ele>192.000</ele></trkpt>
      <trkpt lat="22.3950418087" lon="113.9914816065"><ele>192.000</ele></trkpt>
      <trkpt lat="22.3950772193" lon="113.9914677066"><ele>190.000</ele></trkpt>
      <trkpt lat="22.3951125933" lon="113.9914226367"><ele>192.000</ele></trkpt>
      <trkpt lat="22.3951609068" lon="113.9914277672"><ele>192.000</ele></trkpt>
      <trkpt lat="22.3952366032" lon="113.9914397893"><ele>189.000</ele></trkpt>
      <trkpt lat="22.3952623879" lon="113.9914570711"><ele>189.000</ele></trkpt>
      <trkpt lat="22.3952769336" lon="113.9915038064"><ele>188.000</ele></trkpt>
      <trkpt lat="22.3952818363" lon="113.9915661389"><ele>188.000</ele></trkpt>
      <trkpt lat="22.3953012837" lon="113.9916752077"><ele>186.000</ele></trkpt>
      <trkpt lat="22.3953270961" lon="113.9917167326"><ele>186.000</ele></trkpt>
      <trkpt lat="22.3953593352" lon="113.9917461284"><ele>186.000</ele></trkpt>
      <trkpt lat="22.3954043987" lon="113.9917252888"><ele>186.000</ele></trkpt>
      <trkpt lat="22.3955543122" lon="113.9916169702"><ele>184.000</ele></trkpt>
      <trkpt lat="22.3955604652" lon="113.9916125244"><ele>184.000</ele></trkpt>
      <trkpt lat="22.3956007102" lon="113.9916020820"><ele>182.000</ele></trkpt>
      <trkpt lat="22.3956667329" lon="113.9916037261"><ele>182.000</ele></trkpt>
      <trkpt lat="22.3956957021" lon="113.9915898346"><ele>182.000</ele></trkpt>
      <trkpt lat="22.3957520295" lon="113.9915620529"><ele>182.000</ele></trkpt>
      <trkpt lat="22.3958293043" lon="113.9915463660"><ele>180.000</ele></trkpt>
      <trkpt lat="22.3959162804" lon="113.9915652983"><ele>178.000</ele></trkpt>
      <trkpt lat="22.3960016762" lon="113.9916102084"><ele>178.000</ele></trkpt>
      <trkpt lat="22.3961031929" lon="113.9916706828"><ele>176.000</ele></trkpt>
      <trkpt lat="22.3961966075" lon="113.9916878753"><ele>174.000</ele></trkpt>
      <trkpt lat="22.3963771988" lon="113.9916906236"><ele>170.000</ele></trkpt>
      <trkpt lat="22.3964059466" lon="113.9916910611"><ele>170.000</ele></trkpt>
      <trkpt lat="22.3965605438" lon="113.9917012465"><ele>166.000</ele></trkpt>
      <trkpt lat="22.3966459038" lon="113.9917149866"><ele>166.000</ele></trkpt>
      <trkpt lat="22.3967248283" lon="113.9917339308"><ele>166.000</ele></trkpt>
      <trkpt lat="22.3967570317" lon="113.9917321567"><ele>166.000</ele></trkpt>
      <trkpt lat="22.3967972727" lon="113.9917182503"><ele>164.000</ele></trkpt>
      <trkpt lat="22.3968310287" lon="113.9916662550"><ele>164.000</ele></trkpt>
      <trkpt lat="22.3968953422" lon="113.9915813183"><ele>165.000</ele></trkpt>
      <trkpt lat="22.3970273044" lon="113.9915118765"><ele>164.000</ele></trkpt>
      <trkpt lat="22.3970749898" lon="113.9914606852"><ele>164.000</ele></trkpt>
      <trkpt lat="22.3970915739" lon="113.9914406579"><ele>162.000</ele></trkpt>
      <trkpt lat="22.3971161700" lon="113.9914144727"><ele>164.000</ele></trkpt>
      <trkpt lat="22.3971354952" lon="113.9914066295"><ele>162.000</ele></trkpt>
      <trkpt lat="22.3971559879" lon="113.9914009697"><ele>162.000</ele></trkpt>
      <trkpt lat="22.3971910850" lon="113.9913971261"><ele>160.000</ele></trkpt>
      <trkpt lat="22.3972136819" lon="113.9913915898"><ele>160.000</ele></trkpt>
      <trkpt lat="22.3973435421" lon="113.9913146397"><ele>160.000</ele></trkpt>
      <trkpt lat="22.3973745807" lon="113.9913154046"><ele>162.000</ele></trkpt>
      <trkpt lat="22.3974143781" lon="113.9913076216"><ele>162.000</ele></trkpt>
      <trkpt lat="22.3974462889" lon="113.9913051028"><ele>162.000</ele></trkpt>
      <trkpt lat="22.3974604267" lon="113.9913016268"><ele>162.000</ele></trkpt>
      <trkpt lat="22.3974839850" lon="113.9912918648"><ele>162.000</ele></trkpt>
      <trkpt lat="22.3975035158" lon="113.9912743002"><ele>163.000</ele></trkpt>
      <trkpt lat="22.3975414370" lon="113.9912447954"><ele>162.000</ele></trkpt>
      <trkpt lat="22.3975556484" lon="113.9912267911"><ele>162.000</ele></trkpt>
      <trkpt lat="22.3975935188" lon="113.9912159418"><ele>161.000</ele></trkpt>
      <trkpt lat="22.3976117396" lon="113.9912057401"><ele>161.000</ele></trkpt>
      <trkpt lat="22.3976541117" lon="113.9911673628"><ele>160.000</ele></trkpt>
      <trkpt lat="22.3976855392" lon="113.9911293206"><ele>160.000</ele></trkpt>
      <trkpt lat="22.3977130837" lon="113.9910992467"><ele>160.000</ele></trkpt>
      <trkpt lat="22.3977255974" lon="113.9910813029"><ele>161.000</ele></trkpt>
      <trkpt lat="22.3977391858" lon="113.9910713405"><ele>161.000</ele></trkpt>
      <trkpt lat="22.3977764900" lon="113.9910550341"><ele>161.000</ele></trkpt>
      <trkpt lat="22.3977932851" lon="113.9910458054"><ele>161.000</ele></trkpt>
      <trkpt lat="22.3978045989" lon="113.9910288052"><ele>162.000</ele></trkpt>
      <trkpt lat="22.3978103725" lon="113.9910236796"><ele>162.000</ele></trkpt>
      <trkpt lat="22.3978717522" lon="113.9910076034"><ele>162.000</ele></trkpt>
      <trkpt lat="22.3978841041" lon="113.9910060720"><ele>162.000</ele></trkpt>
      <trkpt lat="22.3979173071" lon="113.9910121849"><ele>162.000</ele></trkpt>
      <trkpt lat="22.3979718795" lon="113.9910053435"><ele>162.000</ele></trkpt>
      <trkpt lat="22.3980157997" lon="113.9909940297"><ele>162.000</ele></trkpt>
      <trkpt lat="22.3980596083" lon="113.9909876785"><ele>164.000</ele></trkpt>
      <trkpt lat="22.3980982935" lon="113.9909787023"><ele>164.000</ele></trkpt>
      <trkpt lat="22.3981119756" lon="113.9909795096"><ele>164.000</ele></trkpt>
      <trkpt lat="22.3981439641" lon="113.9909896155"><ele>165.000</ele></trkpt>
      <trkpt lat="22.3981867478" lon="113.9910187025"><ele>164.000</ele></trkpt>
      <trkpt lat="22.3982013499" lon="113.9910263939"><ele>164.000</ele></trkpt>
      <trkpt lat="22.3982149737" lon="113.9910315034"><ele>166.000</ele></trkpt>
      <trkpt lat="22.3982786563" lon="113.9910469959"><ele>164.000</ele></trkpt>
      <trkpt lat="22.3983098958" lon="113.9910496444"><ele>165.000</ele></trkpt>
      <trkpt lat="22.3983338417" lon="113.9910471556"><ele>165.000</ele></trkpt>
      <trkpt lat="22.3983630811" lon="113.9910357971"><ele>168.000</ele></trkpt>
      <trkpt lat="22.3984184720" lon="113.9910206767"><ele>168.000</ele></trkpt>
      <trkpt lat="22.3984974529" lon="113.9909895923"><ele>169.000</ele></trkpt>
      <trkpt lat="22.3985098238" lon="113.9909888961"><ele>169.000</ele></trkpt>
      <trkpt lat="22.3985403510" lon="113.9909925458"><ele>166.000</ele></trkpt>
      <trkpt lat="22.3985561509" lon="113.9909895143"><ele>168.000</ele></trkpt>
      <trkpt lat="22.3985849448" lon="113.9909779194"><ele>168.000</ele></trkpt>
      <trkpt lat="22.3986068818" lon="113.9909718692"><ele>168.000</ele></trkpt>
      <trkpt lat="22.3986311702" lon="113.9909687292"><ele>167.000</ele></trkpt>
      <trkpt lat="22.3986644913" lon="113.9909675196"><ele>166.000</ele></trkpt>
      <trkpt lat="22.3986966431" lon="113.9909704874"><ele>166.000</ele></trkpt>
      <trkpt lat="22.3987643869" lon="113.9909837020"><ele>164.000</ele></trkpt>
      <trkpt lat="22.3987982623" lon="113.9909933684"><ele>162.000</ele></trkpt>
      <trkpt lat="22.3988321307" lon="113.9909970137"><ele>162.000</ele></trkpt>
      <trkpt lat="22.3989455470" lon="113.9909914245"><ele>160.000</ele></trkpt>
      <trkpt lat="22.3990093840" lon="113.9909840561"><ele>157.000</ele></trkpt>
      <trkpt lat="22.3990533609" lon="113.9909827351"><ele>155.000</ele></trkpt>
      <trkpt lat="22.3990968016" lon="113.9909863677"><ele>154.000</ele></trkpt>
      <trkpt lat="22.3991334582" lon="113.9909802008"><ele>153.000</ele></trkpt>
      <trkpt lat="22.3991560337" lon="113.9909795881"><ele>151.000</ele></trkpt>
      <trkpt lat="22.3991707471" lon="113.9909741301"><ele>151.000</ele></trkpt>
      <trkpt lat="22.3992080156" lon="113.9909503846"><ele>149.000</ele></trkpt>
      <trkpt lat="22.3992480038" lon="113.9909357642"><ele>148.000</ele></trkpt>
      <trkpt lat="22.3992700353" lon="113.9909333071"><ele>148.000</ele></trkpt>
      <trkpt lat="22.3993021859" lon="113.9909351095"><ele>146.000</ele></trkpt>
      <trkpt lat="22.3993094978" lon="113.9909326719"><ele>146.000</ele></trkpt>
      <trkpt lat="22.3993151834" lon="113.9909295567"><ele>146.000</ele></trkpt>
      <trkpt lat="22.3993399865" lon="113.9909029143"><ele>144.000</ele></trkpt>
      <trkpt lat="22.3993518059" lon="113.9908937698"><ele>143.000</ele></trkpt>
      <trkpt lat="22.3993693208" lon="113.9908900561"><ele>143.000</ele></trkpt>
      <trkpt lat="22.3993783568" lon="113.9908948998"><ele>144.000</ele></trkpt>
      <trkpt lat="22.3993879452" lon="113.9909088716"><ele>141.000</ele></trkpt>
      <trkpt lat="22.3993886102" lon="113.9909374225"><ele>141.000</ele></trkpt>
      <trkpt lat="22.3994038301" lon="113.9909798414"><ele>139.000</ele></trkpt>
      <trkpt lat="22.3994163026" lon="113.9909889536"><ele>139.000</ele></trkpt>
      <trkpt lat="22.3994247947" lon="113.9909919529"><ele>138.000</ele></trkpt>
      <trkpt lat="22.3994417138" lon="113.9910198994"><ele>136.000</ele></trkpt>
      <trkpt lat="22.3994558083" lon="113.9910259018"><ele>136.000</ele></trkpt>
      <trkpt lat="22.3994688136" lon="113.9910271470"><ele>136.000</ele></trkpt>
      <trkpt lat="22.3994806483" lon="113.9910313072"><ele>134.000</ele></trkpt>
      <trkpt lat="22.3994863459" lon="113.9910386804"><ele>134.000</ele></trkpt>
      <trkpt lat="22.3994959475" lon="113.9910641117"><ele>134.000</ele></trkpt>
      <trkpt lat="22.3995004696" lon="113.9910701268"><ele>134.000</ele></trkpt>
      <trkpt lat="22.3995145579" lon="113.9910707879"><ele>134.000</ele></trkpt>
      <trkpt lat="22.3995382898" lon="113.9910549266"><ele>132.000</ele></trkpt>
      <trkpt lat="22.3995540911" lon="113.9910531576"><ele>132.000</ele></trkpt>
      <trkpt lat="22.3995636654" lon="113.9910548929"><ele>133.000</ele></trkpt>
      <trkpt lat="22.3996309099" lon="113.9911052062"><ele>130.000</ele></trkpt>
      <trkpt lat="22.3996528623" lon="113.9911124607"><ele>130.000</ele></trkpt>
      <trkpt lat="22.3996720993" lon="113.9911142803"><ele>130.000</ele></trkpt>
      <trkpt lat="22.3996997297" lon="113.9911118157"><ele>128.000</ele></trkpt>
      <trkpt lat="22.3997510913" lon="113.9910929072"><ele>128.000</ele></trkpt>
      <trkpt lat="22.3997939811" lon="113.9910885771"><ele>128.000</ele></trkpt>
      <trkpt lat="22.3998160049" lon="113.9910794191"><ele>129.000</ele></trkpt>
      <trkpt lat="22.3998391055" lon="113.9910642384"><ele>128.000</ele></trkpt>
      <trkpt lat="22.3998910042" lon="113.9910411532"><ele>126.000</ele></trkpt>
      <trkpt lat="22.3999236631" lon="113.9910138204"><ele>128.000</ele></trkpt>
      <trkpt lat="22.3999366633" lon="113.9910106955"><ele>128.000</ele></trkpt>
      <trkpt lat="22.3999536399" lon="113.9910100902"><ele>128.000</ele></trkpt>
      <trkpt lat="22.3999795692" lon="113.9910203499"><ele>128.000</ele></trkpt>
      <trkpt lat="22.4000027802" lon="113.9910227470"><ele>128.000</ele></trkpt>
      <trkpt lat="22.4000349140" lon="113.9910099822"><ele>128.000</ele></trkpt>
      <trkpt lat="22.4000670429" lon="113.9909929443"><ele>126.000</ele></trkpt>
      <trkpt lat="22.4000850961" lon="113.9909862193"><ele>129.000</ele></trkpt>
      <trkpt lat="22.4000958410" lon="113.9909850397"><ele>129.000</ele></trkpt>
      <trkpt lat="22.4001156197" lon="113.9909867615"><ele>128.000</ele></trkpt>
      <trkpt lat="22.4001325131" lon="113.9909922746"><ele>126.000</ele></trkpt>
      <trkpt lat="22.4001957645" lon="113.9910255010"><ele>126.000</ele></trkpt>
      <trkpt lat="22.4002285744" lon="113.9910509988"><ele>124.000</ele></trkpt>
      <trkpt lat="22.4002488145" lon="113.9910612661"><ele>124.000</ele></trkpt>
      <trkpt lat="22.4002833228" lon="113.9910716116"><ele>124.000</ele></trkpt>
      <trkpt lat="22.4003137722" lon="113.9910861384"><ele>124.000</ele></trkpt>
      <trkpt lat="22.4003363531" lon="113.9910902844"><ele>120.000</ele></trkpt>
      <trkpt lat="22.4003797882" lon="113.9910890613"><ele>120.000</ele></trkpt>
      <trkpt lat="22.4004030021" lon="113.9910938862"><ele>120.000</ele></trkpt>
      <trkpt lat="22.4004227795" lon="113.9910944426"><ele>120.000</ele></trkpt>
      <trkpt lat="22.4004735195" lon="113.9910846637"><ele>123.000</ele></trkpt>
      <trkpt lat="22.4005169566" lon="113.9910851887"><ele>123.000</ele></trkpt>
      <trkpt lat="22.4005627320" lon="113.9910772615"><ele>123.000</ele></trkpt>
      <trkpt lat="22.4006304611" lon="113.9910777542"><ele>121.000</ele></trkpt>
      <trkpt lat="22.4006461713" lon="113.9910753054"><ele>121.000</ele></trkpt>
      <trkpt lat="22.4006671129" lon="113.9910674112"><ele>121.000</ele></trkpt>
      <trkpt lat="22.4007042918" lon="113.9910442483"><ele>120.000</ele></trkpt>
      <trkpt lat="22.4007319174" lon="113.9910376077"><ele>122.000</ele></trkpt>
      <trkpt lat="22.4007692070" lon="113.9910321197"><ele>120.000</ele></trkpt>
      <trkpt lat="22.4008176802" lon="113.9910143802"><ele>120.000</ele></trkpt>
      <trkpt lat="22.4008380849" lon="113.9910107598"><ele>118.000</ele></trkpt>
      <trkpt lat="22.4008684952" lon="113.9909912962"><ele>118.000</ele></trkpt>
      <trkpt lat="22.4008837490" lon="113.9909845749"><ele>118.000</ele></trkpt>
      <trkpt lat="22.4009283532" lon="113.9909790771"><ele>116.000</ele></trkpt>
      <trkpt lat="22.4009926507" lon="113.9909795743"><ele>114.000</ele></trkpt>
      <trkpt lat="22.4010367116" lon="113.9909728148"><ele>114.000</ele></trkpt>
      <trkpt lat="22.4011348252" lon="113.9909314100"><ele>113.000</ele></trkpt>
      <trkpt lat="22.4011929695" lon="113.9909210384"><ele>110.000</ele></trkpt>
      <trkpt lat="22.4012025375" lon="113.9909173353"><ele>110.000</ele></trkpt>
      <trkpt lat="22.4012250956" lon="113.9909015725"><ele>110.000</ele></trkpt>
      <trkpt lat="22.4012555128" lon="113.9908881300"><ele>110.000</ele></trkpt>
      <trkpt lat="22.4012713391" lon="113.9908923821"><ele>110.000</ele></trkpt>
      <trkpt lat="22.4012873521" lon="113.9908988394"><ele>110.000</ele></trkpt>
      <trkpt lat="22.4013346967" lon="113.9909228573"><ele>108.000</ele></trkpt>
      <trkpt lat="22.4013836837" lon="113.9909129184"><ele>108.000</ele></trkpt>
      <trkpt lat="22.4014119469" lon="113.9909110356"><ele>108.000</ele></trkpt>
      <trkpt lat="22.4014531264" lon="113.9909115635"><ele>108.000</ele></trkpt>
      <trkpt lat="22.4015502130" lon="113.9909193979"><ele>106.000</ele></trkpt>
      <trkpt lat="22.4015857922" lon="113.9909186708"><ele>106.000</ele></trkpt>
      <trkpt lat="22.4016861962" lon="113.9909058150"><ele>104.000</ele></trkpt>
      <trkpt lat="22.4017511224" lon="113.9909033007"><ele>104.000</ele></trkpt>
      <trkpt lat="22.4017962656" lon="113.9908953743"><ele>104.000</ele></trkpt>
      <trkpt lat="22.4018323734" lon="113.9908831867"><ele>107.000</ele></trkpt>
      <trkpt lat="22.4019113369" lon="113.9908369513"><ele>105.000</ele></trkpt>
      <trkpt lat="22.4019621405" lon="113.9908040583"><ele>102.000</ele></trkpt>
      <trkpt lat="22.4019982407" lon="113.9907851697"><ele>107.000</ele></trkpt>
      <trkpt lat="22.4020236065" lon="113.9907766868"><ele>105.000</ele></trkpt>
      <trkpt lat="22.4020524109" lon="113.9907742205"><ele>103.000</ele></trkpt>
      <trkpt lat="22.4020590906" lon="113.9907717837"><ele>103.000</ele></trkpt>
      <trkpt lat="22.4020743409" lon="113.9907620517"><ele>103.000</ele></trkpt>
      <trkpt lat="22.4020991482" lon="113.9907390021"><ele>106.000</ele></trkpt>
      <trkpt lat="22.4021206274" lon="113.9907274166"><ele>106.000</ele></trkpt>
      <trkpt lat="22.4021357943" lon="113.9907237060"><ele>104.000</ele></trkpt>
      <trkpt lat="22.4021730915" lon="113.9907249188"><ele>104.000</ele></trkpt>
      <trkpt lat="22.4022001786" lon="113.9907211923"><ele>104.000</ele></trkpt>
      <trkpt lat="22.4022305951" lon="113.9907071670"><ele>102.000</ele></trkpt>
      <trkpt lat="22.4022718371" lon="113.9906835127"><ele>105.000</ele></trkpt>
      <trkpt lat="22.4023214829" lon="113.9906646060"><ele>103.000</ele></trkpt>
      <trkpt lat="22.4023767311" lon="113.9906487023"><ele>102.000</ele></trkpt>
      <trkpt lat="22.4023937251" lon="113.9906632472"><ele>102.000</ele></trkpt>
      <trkpt lat="22.4024208362" lon="113.9906803037"><ele>102.000</ele></trkpt>
      <trkpt lat="22.4025325868" lon="113.9907183218"><ele>100.000</ele></trkpt>
      <trkpt lat="22.4025466870" lon="113.9907292773"><ele>100.000</ele></trkpt>
      <trkpt lat="22.4025574520" lon="113.9907455786"><ele>99.000</ele></trkpt>
      <trkpt lat="22.4025676649" lon="113.9907529459"><ele>99.000</ele></trkpt>
      <trkpt lat="22.4025873659" lon="113.9907656420"><ele>98.000</ele></trkpt>
      <trkpt lat="22.4026348885" lon="113.9907850021"><ele>98.000</ele></trkpt>
      <trkpt lat="22.4026896199" lon="113.9907909505"><ele>98.000</ele></trkpt>
      <trkpt lat="22.4027387267" lon="113.9907744724"><ele>97.000</ele></trkpt>
      <trkpt lat="22.4027556102" lon="113.9907714393"><ele>97.000</ele></trkpt>
      <trkpt lat="22.4027985035" lon="113.9907702168"><ele>96.000</ele></trkpt>
      <trkpt lat="22.4028227996" lon="113.9907737778"><ele>96.000</ele></trkpt>
      <trkpt lat="22.4028363397" lon="113.9907689039"><ele>96.000</ele></trkpt>
      <trkpt lat="22.4028492519" lon="113.9907677213"><ele>96.000</ele></trkpt>
      <trkpt lat="22.4028747247" lon="113.9907737087"><ele>94.000</ele></trkpt>
      <trkpt lat="22.4028848388" lon="113.9907736952"><ele>94.000</ele></trkpt>
      <trkpt lat="22.4028961213" lon="113.9907688243"><ele>94.000</ele></trkpt>
      <trkpt lat="22.4029169648" lon="113.9907542290"><ele>94.000</ele></trkpt>
      <trkpt lat="22.4029581712" lon="113.9906995943"><ele>94.000</ele></trkpt>
      <trkpt lat="22.4030021012" lon="113.9906575811"><ele>94.000</ele></trkpt>
      <trkpt lat="22.4030156364" lon="113.9906485312"><ele>94.000</ele></trkpt>
      <trkpt lat="22.4030331471" lon="113.9906412240"><ele>96.000</ele></trkpt>
      <trkpt lat="22.4030613221" lon="113.9906411865"><ele>94.000</ele></trkpt>
      <trkpt lat="22.4030760390" lon="113.9906387390"><ele>94.000</ele></trkpt>
      <trkpt lat="22.4031003197" lon="113.9906289949"><ele>92.000</ele></trkpt>
      <trkpt lat="22.4031256743" lon="113.9906107031"><ele>92.000</ele></trkpt>
      <trkpt lat="22.4031397534" lon="113.9906034005"><ele>90.000</ele></trkpt>
      <trkpt lat="22.4031753271" lon="113.9905979145"><ele>90.000</ele></trkpt>
      <trkpt lat="22.4031838088" lon="113.9905918820"><ele>90.000</ele></trkpt>
      <trkpt lat="22.4031973348" lon="113.9905747713"><ele>90.000</ele></trkpt>
      <trkpt lat="22.4032119361" lon="113.9905504725"><ele>90.000</ele></trkpt>
      <trkpt lat="22.4032232110" lon="113.9905389976"><ele>90.000</ele></trkpt>
      <trkpt lat="22.4032390094" lon="113.9905347034"><ele>90.000</ele></trkpt>
      <trkpt lat="22.4032593272" lon="113.9905340936"><ele>90.000</ele></trkpt>
      <trkpt lat="22.4032688946" lon="113.9905298077"><ele>90.000</ele></trkpt>
      <trkpt lat="22.4032740314" lon="113.9905206718"><ele>90.000</ele></trkpt>
      <trkpt lat="22.4032790563" lon="113.9904927924"><ele>91.000</ele></trkpt>
      <trkpt lat="22.4032858152" lon="113.9904806437"><ele>91.000</ele></trkpt>
      <trkpt lat="22.4033163094" lon="113.9904557409"><ele>90.000</ele></trkpt>
      <trkpt lat="22.4033416661" lon="113.9904392943"><ele>94.000</ele></trkpt>
      <trkpt lat="22.4034155422" lon="113.9903669403"><ele>92.000</ele></trkpt>
      <trkpt lat="22.4034301582" lon="113.9903553638"><ele>92.000</ele></trkpt>
      <trkpt lat="22.4034933245" lon="113.9903146844"><ele>90.000</ele></trkpt>
      <trkpt lat="22.4035801400" lon="113.9902647472"><ele>90.000</ele></trkpt>
      <trkpt lat="22.4036845803" lon="113.9902281886"><ele>92.000</ele></trkpt>
      <trkpt lat="22.4037150052" lon="113.9902214469"><ele>90.000</ele></trkpt>
      <trkpt lat="22.4037663919" lon="113.9902243889"><ele>90.000</ele></trkpt>
      <trkpt lat="22.4038391991" lon="113.9902431326"><ele>88.000</ele></trkpt>
      <trkpt lat="22.4038720042" lon="113.9902643576"><ele>84.000</ele></trkpt>
      <trkpt lat="22.4038985796" lon="113.9902867564"><ele>84.000</ele></trkpt>
      <trkpt lat="22.4039380721" lon="113.9903122457"><ele>82.000</ele></trkpt>
      <trkpt lat="22.4039549668" lon="113.9903189243"><ele>82.000</ele></trkpt>
      <trkpt lat="22.4039764606" lon="113.9903200610"><ele>82.000</ele></trkpt>
      <trkpt lat="22.4040040847" lon="113.9903121576"><ele>82.000</ele></trkpt>
      <trkpt lat="22.4040521015" lon="113.9902902420"><ele>83.000</ele></trkpt>
      <trkpt lat="22.4040644704" lon="113.9902877975"><ele>83.000</ele></trkpt>
      <trkpt lat="22.4041429451" lon="113.9902876928"><ele>82.000</ele></trkpt>
      <trkpt lat="22.4041525117" lon="113.9902828241"><ele>82.000</ele></trkpt>
      <trkpt lat="22.4041806503" lon="113.9902512232"><ele>82.000</ele></trkpt>
      <trkpt lat="22.4042399376" lon="113.9902140449"><ele>82.000</ele></trkpt>
      <trkpt lat="22.4042652851" lon="113.9901897315"><ele>82.000</ele></trkpt>
      <trkpt lat="22.4042732124" lon="113.9901728224"><ele>82.000</ele></trkpt>
      <trkpt lat="22.4042742659" lon="113.9901466962"><ele>84.000</ele></trkpt>
      <trkpt lat="22.4042787552" lon="113.9901242559"><ele>84.000</ele></trkpt>
      <trkpt lat="22.4042877632" lon="113.9901048202"><ele>85.000</ele></trkpt>
      <trkpt lat="22.4042962426" lon="113.9900968452"><ele>85.000</ele></trkpt>
      <trkpt lat="22.4043075266" lon="113.9900932368"><ele>86.000</ele></trkpt>
      <trkpt lat="22.4043193578" lon="113.9900943864"><ele>86.000</ele></trkpt>
      <trkpt lat="22.4043385178" lon="113.9901077631"><ele>86.000</ele></trkpt>
      <trkpt lat="22.4043922267" lon="113.9901665450"><ele>82.000</ele></trkpt>
      <trkpt lat="22.4044227748" lon="113.9901883558"><ele>82.000</ele></trkpt>
      <trkpt lat="22.4044448210" lon="113.9901986209"><ele>82.000</ele></trkpt>
      <trkpt lat="22.4044769757" lon="113.9902040166"><ele>82.000</ele></trkpt>
      <trkpt lat="22.4045447055" lon="113.9902051887"><ele>82.000</ele></trkpt>
      <trkpt lat="22.4045672851" lon="113.9902081692"><ele>80.000</ele></trkpt>
      <trkpt lat="22.4046209267" lon="113.9902086803"><ele>80.000</ele></trkpt>
      <trkpt lat="22.4046772726" lon="113.9902050117"><ele>81.000</ele></trkpt>
      <trkpt lat="22.4047416716" lon="113.9902152202"><ele>78.000</ele></trkpt>
      <trkpt lat="22.4047744564" lon="113.9902188670"><ele>76.000</ele></trkpt>
      <trkpt lat="22.4048071466" lon="113.9902188233"><ele>76.000</ele></trkpt>
      <trkpt lat="22.4048438165" lon="113.9902242130"><ele>74.000</ele></trkpt>
      <trkpt lat="22.4048969380" lon="113.9902435658"><ele>74.000</ele></trkpt>
      <trkpt lat="22.4049607343" lon="113.9902793174"><ele>69.000</ele></trkpt>
      <trkpt lat="22.4049838543" lon="113.9902810347"><ele>68.000</ele></trkpt>
      <trkpt lat="22.4049923465" lon="113.9902841311"><ele>68.000</ele></trkpt>
      <trkpt lat="22.4050126370" lon="113.9902598244"><ele>68.000</ele></trkpt>
      <trkpt lat="22.4050221994" lon="113.9902512652"><ele>72.000</ele></trkpt>
      <trkpt lat="22.4050306852" lon="113.9902488259"><ele>70.000</ele></trkpt>
      <trkpt lat="22.4050436891" lon="113.9902488085"><ele>70.000</ele></trkpt>
      <trkpt lat="22.4050905901" lon="113.9902772988"><ele>66.000</ele></trkpt>
      <trkpt lat="22.4051052235" lon="113.9902808727"><ele>66.000</ele></trkpt>
      <trkpt lat="22.4051283401" lon="113.9902796764"><ele>65.000</ele></trkpt>
      <trkpt lat="22.4051769009" lon="113.9902596051"><ele>65.000</ele></trkpt>
      <trkpt lat="22.4051954896" lon="113.9902474404"><ele>68.000</ele></trkpt>
      <trkpt lat="22.4052169618" lon="113.9902298333"><ele>66.000</ele></trkpt>
      <trkpt lat="22.4052276001" lon="113.9902145714"><ele>66.000</ele></trkpt>
      <trkpt lat="22.4052506928" lon="113.9901926888"><ele>69.000</ele></trkpt>
      <trkpt lat="22.4052789357" lon="113.9901732274"><ele>69.000</ele></trkpt>
      <trkpt lat="22.4053207292" lon="113.9901580210"><ele>67.000</ele></trkpt>
      <trkpt lat="22.4053404037" lon="113.9901477001"><ele>68.000</ele></trkpt>
      <trkpt lat="22.4053618884" lon="113.9901409702"><ele>68.000</ele></trkpt>
      <trkpt lat="22.4053787712" lon="113.9901373543"><ele>68.000</ele></trkpt>
      <trkpt lat="22.4054047809" lon="113.9901390677"><ele>66.000</ele></trkpt>
      <trkpt lat="22.4055012933" lon="113.9901189322"><ele>64.000</ele></trkpt>
      <trkpt lat="22.4055215004" lon="113.9901006469"><ele>66.000</ele></trkpt>
      <trkpt lat="22.4055339456" lon="113.9900860624"><ele>66.000</ele></trkpt>
      <trkpt lat="22.4055604742" lon="113.9900678657"><ele>66.000</ele></trkpt>
      <trkpt lat="22.4055740128" lon="113.9900617291"><ele>66.000</ele></trkpt>
      <trkpt lat="22.4055852988" lon="113.9900599658"><ele>68.000</ele></trkpt>
      <trkpt lat="22.4056293037" lon="113.9900829243"><ele>67.000</ele></trkpt>
      <trkpt lat="22.4056756510" lon="113.9901011207"><ele>68.000</ele></trkpt>
      <trkpt lat="22.4057078232" lon="113.9901216670"><ele>67.000</ele></trkpt>
      <trkpt lat="22.4057326899" lon="113.9901501868"><ele>67.000</ele></trkpt>
      <trkpt lat="22.4057897352" lon="113.9902047887"><ele>66.000</ele></trkpt>
      <trkpt lat="22.4058106256" lon="113.9902307888"><ele>66.000</ele></trkpt>
      <trkpt lat="22.4058270771" lon="113.9902447520"><ele>66.000</ele></trkpt>
      <trkpt lat="22.4058439746" lon="113.9902538586"><ele>66.000</ele></trkpt>
      <trkpt lat="22.4058908559" lon="113.9902652561"><ele>65.000</ele></trkpt>
      <trkpt lat="22.4059382700" lon="113.9902688834"><ele>64.000</ele></trkpt>
      <trkpt lat="22.4059670743" lon="113.9902664169"><ele>64.000</ele></trkpt>
      <trkpt lat="22.4060020116" lon="113.9902572411"><ele>64.000</ele></trkpt>
      <trkpt lat="22.4060595937" lon="113.9902292909"><ele>66.000</ele></trkpt>
      <trkpt lat="22.4060967739" lon="113.9902073894"><ele>64.000</ele></trkpt>
      <trkpt lat="22.4061368481" lon="113.9901890775"><ele>66.000</ele></trkpt>
      <trkpt lat="22.4061915551" lon="113.9901738538"><ele>65.000</ele></trkpt>
      <trkpt lat="22.4062440093" lon="113.9901628092"><ele>63.000</ele></trkpt>
      <trkpt lat="22.4062665834" lon="113.9901610309"><ele>63.000</ele></trkpt>
      <trkpt lat="22.4062880675" lon="113.9901537182"><ele>65.000</ele></trkpt>
      <trkpt lat="22.4063258777" lon="113.9901299705"><ele>64.000</ele></trkpt>
      <trkpt lat="22.4063489739" lon="113.9901110985"><ele>62.000</ele></trkpt>
      <trkpt lat="22.4063900988" lon="113.9900643290"><ele>65.000</ele></trkpt>
      <trkpt lat="22.4064093146" lon="113.9900478901"><ele>66.000</ele></trkpt>
      <trkpt lat="22.4064194246" lon="113.9900442832"><ele>66.000</ele></trkpt>
      <trkpt lat="22.4064279132" lon="113.9900442718"><ele>67.000</ele></trkpt>
      <trkpt lat="22.4064364081" lon="113.9900496992"><ele>67.000</ele></trkpt>
      <trkpt lat="22.4064544845" lon="113.9900630775"><ele>65.000</ele></trkpt>
      <trkpt lat="22.4064861282" lon="113.9900951819"><ele>65.000</ele></trkpt>
      <trkpt lat="22.4064979679" lon="113.9901036155"><ele>65.000</ele></trkpt>
      <trkpt lat="22.4065165790" lon="113.9901108746"><ele>62.000</ele></trkpt>
      <trkpt lat="22.4065386120" lon="113.9901096797"><ele>62.000</ele></trkpt>
      <trkpt lat="22.4065905103" lon="113.9900864958"><ele>65.000</ele></trkpt>
      <trkpt lat="22.4066035100" lon="113.9900828850"><ele>65.000</ele></trkpt>
      <trkpt lat="22.4066283458" lon="113.9900846000"><ele>65.000</ele></trkpt>
      <trkpt lat="22.4066446980" lon="113.9900906967"><ele>65.000</ele></trkpt>
      <trkpt lat="22.4066464179" lon="113.9900942878"><ele>65.000</ele></trkpt>
      <trkpt lat="22.4066531957" lon="113.9900985521"><ele>65.000</ele></trkpt>
      <trkpt lat="22.4066830914" lon="113.9901027854"><ele>65.000</ele></trkpt>
      <trkpt lat="22.4067006182" lon="113.9901094632"><ele>62.000</ele></trkpt>
      <trkpt lat="22.4067231971" lon="113.9901118611"><ele>62.000</ele></trkpt>
      <trkpt lat="22.4067305103" lon="113.9901105887"><ele>62.000</ele></trkpt>
      <trkpt lat="22.4067541603" lon="113.9901021077"><ele>64.000</ele></trkpt>
      <trkpt lat="22.4067705845" lon="113.9900923738"><ele>64.000</ele></trkpt>
      <trkpt lat="22.4067919790" lon="113.9900856439"><ele>63.000</ele></trkpt>
      <trkpt lat="22.4067964886" lon="113.9900807819"><ele>63.000</ele></trkpt>
      <trkpt lat="22.4068122828" lon="113.9900728941"><ele>63.000</ele></trkpt>
      <trkpt lat="22.4068348512" lon="113.9900661626"><ele>63.000</ele></trkpt>
      <trkpt lat="22.4068534433" lon="113.9900570085"><ele>66.000</ele></trkpt>
      <trkpt lat="22.4069195259" lon="113.9900393415"><ele>65.000</ele></trkpt>
      <trkpt lat="22.4069612396" lon="113.9900332643"><ele>64.000</ele></trkpt>
      <trkpt lat="22.4070041349" lon="113.9900337897"><ele>64.000</ele></trkpt>
      <trkpt lat="22.4070397205" lon="113.9900385981"><ele>64.000</ele></trkpt>
      <trkpt lat="22.4070492969" lon="113.9900421788"><ele>64.000</ele></trkpt>
      <trkpt lat="22.4071492773" lon="113.9900536024"><ele>64.000</ele></trkpt>
      <trkpt lat="22.4071910148" lon="113.9900681147"><ele>61.000</ele></trkpt>
      <trkpt lat="22.4072231710" lon="113.9900747730"><ele>61.000</ele></trkpt>
      <trkpt lat="22.4072424058" lon="113.9900747473"><ele>60.000</ele></trkpt>
      <trkpt lat="22.4072464770" lon="113.9900726159"><ele>60.000</ele></trkpt>
      <trkpt lat="22.4072609973" lon="113.9900650104"><ele>60.000</ele></trkpt>
      <trkpt lat="22.4072739822" lon="113.9900485797"><ele>61.000</ele></trkpt>
      <trkpt lat="22.4072812779" lon="113.9900321567"><ele>61.000</ele></trkpt>
      <trkpt lat="22.4072829706" lon="113.9900121476"><ele>58.000</ele></trkpt>
      <trkpt lat="22.4072795116" lon="113.9899884549"><ele>61.000</ele></trkpt>
      <trkpt lat="22.4072732547" lon="113.9899660285"><ele>61.000</ele></trkpt>
      <trkpt lat="22.4072665173" lon="113.9899186429"><ele>62.000</ele></trkpt>
      <trkpt lat="22.4072658579" lon="113.9898950435"><ele>62.000</ele></trkpt>
      <trkpt lat="22.4072731242" lon="113.9898531750"><ele>63.000</ele></trkpt>
      <trkpt lat="22.4072827494" lon="113.9898209182"><ele>62.000</ele></trkpt>
      <trkpt lat="22.4072895132" lon="113.9898130424"><ele>64.000</ele></trkpt>
      <trkpt lat="22.4073007991" lon="113.9898111820"><ele>64.000</ele></trkpt>
      <trkpt lat="22.4073058568" lon="113.9898117580"><ele>64.000</ele></trkpt>
      <trkpt lat="22.4073244729" lon="113.9898232904"><ele>62.000</ele></trkpt>
      <trkpt lat="22.4073555756" lon="113.9898560754"><ele>63.000</ele></trkpt>
      <trkpt lat="22.4073781714" lon="113.9898730412"><ele>62.000</ele></trkpt>
      <trkpt lat="22.4074092565" lon="113.9898905784"><ele>62.000</ele></trkpt>
      <trkpt lat="22.4074188378" lon="113.9898984323"><ele>65.000</ele></trkpt>
      <trkpt lat="22.4074380931" lon="113.9899160825"><ele>62.000</ele></trkpt>
      <trkpt lat="22.4074833134" lon="113.9899748769"><ele>61.000</ele></trkpt>
      <trkpt lat="22.4075047394" lon="113.9899954378"><ele>61.000</ele></trkpt>
      <trkpt lat="22.4075442312" lon="113.9900202478"><ele>60.000</ele></trkpt>
      <trkpt lat="22.4075885730" lon="113.9900409432"><ele>62.000</ele></trkpt>
      <trkpt lat="22.4075911246" lon="113.9900421344"><ele>62.000</ele></trkpt>
      <trkpt lat="22.4076357644" lon="113.9900675203"><ele>59.000</ele></trkpt>
      <trkpt lat="22.4076510328" lon="113.9900735213"><ele>59.000</ele></trkpt>
      <trkpt lat="22.4077170546" lon="113.9900813970"><ele>59.000</ele></trkpt>
      <trkpt lat="22.4077401711" lon="113.9900801035"><ele>59.000</ele></trkpt>
      <trkpt lat="22.4077627493" lon="113.9900819187"><ele>59.000</ele></trkpt>
      <trkpt lat="22.4077847780" lon="113.9900770332"><ele>58.000</ele></trkpt>
      <trkpt lat="22.4077910047" lon="113.9900733343"><ele>58.000</ele></trkpt>
      <trkpt lat="22.4078000282" lon="113.9900673008"><ele>58.000</ele></trkpt>
      <trkpt lat="22.4078151748" lon="113.9900460111"><ele>60.000</ele></trkpt>
      <trkpt lat="22.4078301924" lon="113.9900185739"><ele>58.000</ele></trkpt>
      <trkpt lat="22.4078360813" lon="113.9900078147"><ele>60.000</ele></trkpt>
      <trkpt lat="22.4078501505" lon="113.9899919653"><ele>60.000</ele></trkpt>
      <trkpt lat="22.4078557459" lon="113.9899889471"><ele>60.000</ele></trkpt>
      <trkpt lat="22.4078704655" lon="113.9899889274"><ele>61.000</ele></trkpt>
      <trkpt lat="22.4079088667" lon="113.9900077174"><ele>61.000</ele></trkpt>
      <trkpt lat="22.4079163428" lon="113.9900105978"><ele>58.000</ele></trkpt>
      <trkpt lat="22.4079432881" lon="113.9900209770"><ele>58.000</ele></trkpt>
      <trkpt lat="22.4079873665" lon="113.9900293675"><ele>58.000</ele></trkpt>
      <trkpt lat="22.4081210920" lon="113.9900158832"><ele>56.000</ele></trkpt>
      <trkpt lat="22.4081594608" lon="113.9900067026"><ele>59.000</ele></trkpt>
      <trkpt lat="22.4081617150" lon="113.9900036888"><ele>59.000</ele></trkpt>
      <trkpt lat="22.4081820265" lon="113.9899976402"><ele>59.000</ele></trkpt>
      <trkpt lat="22.4082068546" lon="113.9899927509"><ele>58.000</ele></trkpt>
      <trkpt lat="22.4082412627" lon="113.9899944531"><ele>58.000</ele></trkpt>
      <trkpt lat="22.4082735119" lon="113.9900035393"><ele>58.000</ele></trkpt>
      <trkpt lat="22.4082949169" lon="113.9900059388"><ele>57.000</ele></trkpt>
      <trkpt lat="22.4083253495" lon="113.9900058981"><ele>57.000</ele></trkpt>
      <trkpt lat="22.4083620907" lon="113.9899948743"><ele>57.000</ele></trkpt>
      <trkpt lat="22.4084525385" lon="113.9899609552"><ele>55.000</ele></trkpt>
      <trkpt lat="22.4084676110" lon="113.9899553020"><ele>56.000</ele></trkpt>
      <trkpt lat="22.4085058763" lon="113.9899346612"><ele>54.000</ele></trkpt>
      <trkpt lat="22.4085256438" lon="113.9899266708"><ele>54.000</ele></trkpt>
      <trkpt lat="22.4086300924" lon="113.9898973948"><ele>56.000</ele></trkpt>
      <trkpt lat="22.4086367749" lon="113.9898973858"><ele>56.000</ele></trkpt>
      <trkpt lat="22.4086707442" lon="113.9899101604"><ele>56.000</ele></trkpt>
      <trkpt lat="22.4086921527" lon="113.9899155705"><ele>54.000</ele></trkpt>
      <trkpt lat="22.4087435436" lon="113.9899222032"><ele>54.000</ele></trkpt>
      <trkpt lat="22.4087812175" lon="113.9899305246"><ele>54.000</ele></trkpt>
      <trkpt lat="22.4087841911" lon="113.9899311811"><ele>54.000</ele></trkpt>
      <trkpt lat="22.4087938844" lon="113.9899358979"><ele>54.000</ele></trkpt>
      <trkpt lat="22.4088253932" lon="113.9899512301"><ele>56.000</ele></trkpt>
      <trkpt lat="22.4088700232" lon="113.9899681666"><ele>53.000</ele></trkpt>
      <trkpt lat="22.4088920722" lon="113.9899808600"><ele>53.000</ele></trkpt>
      <trkpt lat="22.4089405798" lon="113.9899929354"><ele>53.000</ele></trkpt>
      <trkpt lat="22.4089812196" lon="113.9899953091"><ele>54.000</ele></trkpt>
      <trkpt lat="22.4090251944" lon="113.9899922395"><ele>54.000</ele></trkpt>
      <trkpt lat="22.4091341813" lon="113.9899829643"><ele>52.000</ele></trkpt>
      <trkpt lat="22.4092001833" lon="113.9899737467"><ele>51.000</ele></trkpt>
      <trkpt lat="22.4092607644" lon="113.9899623024"><ele>51.000</ele></trkpt>
      <trkpt lat="22.4093098756" lon="113.9899497081"><ele>52.000</ele></trkpt>
      <trkpt lat="22.4093356922" lon="113.9899406412"><ele>52.000</ele></trkpt>
      <trkpt lat="22.4093508547" lon="113.9899331426"><ele>52.000</ele></trkpt>
      <trkpt lat="22.4093847038" lon="113.9899200830"><ele>50.000</ele></trkpt>
      <trkpt lat="22.4094058304" lon="113.9899159756"><ele>49.000</ele></trkpt>
      <trkpt lat="22.4094340040" lon="113.9899147725"><ele>49.000</ele></trkpt>
      <trkpt lat="22.4094997559" lon="113.9899235226"><ele>48.000</ele></trkpt>
      <trkpt lat="22.4095359697" lon="113.9899250281"><ele>48.000</ele></trkpt>
      <trkpt lat="22.4095591739" lon="113.9899215007"><ele>48.000</ele></trkpt>
      <trkpt lat="22.4096106223" lon="113.9898996766"><ele>48.000</ele></trkpt>
      <trkpt lat="22.4096182732" lon="113.9898952123"><ele>48.000</ele></trkpt>
      <trkpt lat="22.4096469905" lon="113.9898784553"><ele>46.000</ele></trkpt>
      <trkpt lat="22.4096685612" lon="113.9898679373"><ele>46.000</ele></trkpt>
      <trkpt lat="22.4096941989" lon="113.9898603275"><ele>48.000</ele></trkpt>
      <trkpt lat="22.4097345645" lon="113.9898598850"><ele>50.000</ele></trkpt>
      <trkpt lat="22.4097763806" lon="113.9898642967"><ele>48.000</ele></trkpt>
      <trkpt lat="22.4098381530" lon="113.9898678075"><ele>49.000</ele></trkpt>
      <trkpt lat="22.4098673270" lon="113.9898726246"><ele>49.000</ele></trkpt>
      <trkpt lat="22.4099265747" lon="113.9898794410"><ele>48.000</ele></trkpt>
      <trkpt lat="22.4099513163" lon="113.9898778539"><ele>47.000</ele></trkpt>
      <trkpt lat="22.4099739723" lon="113.9898687913"><ele>47.000</ele></trkpt>
      <trkpt lat="22.4100393986" lon="113.9898303405"><ele>47.000</ele></trkpt>
      <trkpt lat="22.4100824561" lon="113.9898149375"><ele>46.000</ele></trkpt>
      <trkpt lat="22.4100937421" lon="113.9898131742"><ele>46.000</ele></trkpt>
      <trkpt lat="22.4101116219" lon="113.9898127618"><ele>46.000</ele></trkpt>
      <trkpt lat="22.4101442263" lon="113.9898166031"><ele>48.000</ele></trkpt>
      <trkpt lat="22.4102200156" lon="113.9898370915"><ele>50.000</ele></trkpt>
      <trkpt lat="22.4102547895" lon="113.9898428723"><ele>50.000</ele></trkpt>
      <trkpt lat="22.4102691785" lon="113.9898427501"><ele>50.000</ele></trkpt>
      <trkpt lat="22.4102817903" lon="113.9898426420"><ele>50.000</ele></trkpt>
      <trkpt lat="22.4103233265" lon="113.9898391871"><ele>50.000</ele></trkpt>
      <trkpt lat="22.4103678380" lon="113.9898317462"><ele>50.000</ele></trkpt>
      <trkpt lat="22.4103895927" lon="113.9898242387"><ele>50.000</ele></trkpt>
      <trkpt lat="22.4104106206" lon="113.9898129444"><ele>50.000</ele></trkpt>
      <trkpt lat="22.4104218084" lon="113.9898042855"><ele>52.000</ele></trkpt>
      <trkpt lat="22.4104384957" lon="113.9897878495"><ele>52.000</ele></trkpt>
      <trkpt lat="22.4104537693" lon="113.9897756703"><ele>52.000</ele></trkpt>
      <trkpt lat="22.4104707047" lon="113.9897621660"><ele>54.000</ele></trkpt>
      <trkpt lat="22.4105292697" lon="113.9897252782"><ele>54.000</ele></trkpt>
      <trkpt lat="22.4105873899" lon="113.9896942183"><ele>56.000</ele></trkpt>
      <trkpt lat="22.4106097769" lon="113.9896869041"><ele>56.000</ele></trkpt>
      <trkpt lat="22.4106196181" lon="113.9896851427"><ele>56.000</ele></trkpt>
      <trkpt lat="22.4106402985" lon="113.9896856977"><ele>57.000</ele></trkpt>
      <trkpt lat="22.4106515900" lon="113.9896886934"><ele>57.000</ele></trkpt>
      <trkpt lat="22.4106718283" lon="113.9896974073"><ele>59.000</ele></trkpt>
      <trkpt lat="22.4106985769" lon="113.9897132996"><ele>59.000</ele></trkpt>
      <trkpt lat="22.4107405152" lon="113.9897451968"><ele>58.000</ele></trkpt>
      <trkpt lat="22.4107469035" lon="113.9897485302"><ele>58.000</ele></trkpt>
      <trkpt lat="22.4107540690" lon="113.9897522686"><ele>58.000</ele></trkpt>
      <trkpt lat="22.4107704198" lon="113.9897571029"><ele>58.000</ele></trkpt>
      <trkpt lat="22.4107949839" lon="113.9897582354"><ele>58.000</ele></trkpt>
      <trkpt lat="22.4108302859" lon="113.9897520694"><ele>58.000</ele></trkpt>
      <trkpt lat="22.4108644188" lon="113.9897501784"><ele>58.000</ele></trkpt>
      <trkpt lat="22.4109549131" lon="113.9897580213"><ele>58.000</ele></trkpt>
      <trkpt lat="22.4109810075" lon="113.9897548784"><ele>58.000</ele></trkpt>
      <trkpt lat="22.4110466547" lon="113.9897512941"><ele>58.000</ele></trkpt>
      <trkpt lat="22.4111319944" lon="113.9897529281"><ele>59.000</ele></trkpt>
      <trkpt lat="22.4111719951" lon="113.9897492810"><ele>58.000</ele></trkpt>
      <trkpt lat="22.4112202877" lon="113.9897316370"><ele>56.000</ele></trkpt>
      <trkpt lat="22.4112512559" lon="113.9897262538"><ele>56.000</ele></trkpt>
      <trkpt lat="22.4113069203" lon="113.9897104696"><ele>58.000</ele></trkpt>
      <trkpt lat="22.4113465862" lon="113.9896992231"><ele>57.000</ele></trkpt>
      <trkpt lat="22.4114557860" lon="113.9896756954"><ele>57.000</ele></trkpt>
    </trkseg>
  </trk>
</gpx>
