<?xml version="1.0" encoding="UTF-8"?>
<gpx xmlns:xsi="http://www.w3.org/2001/XMLSchema-instance"
     xsi:schemaLocation="http://www.topografix.com/GPX/1/1 http://www.topografix.com/GPX/1/1/gpx.xsd"
     version="1.1" creator="json3d_batch_to_gpx"
     xmlns="http://www.topografix.com/GPX/1/1">
  <metadata>
    <name>HokTauReservoirFamilyWalk</name>
  </metadata>
  <trk>
    <name>HokTauReservoirFamilyWalk</name>
    <type>hike</type>
    <trkseg>
      <trkpt lat="22.4922308960" lon="114.1807624075"><ele>104.000</ele></trkpt>
      <trkpt lat="22.4922191092" lon="114.1807395106"><ele>105.000</ele></trkpt>
      <trkpt lat="22.4921313734" lon="114.1805888310"><ele>120.000</ele></trkpt>
      <trkpt lat="22.4919866264" lon="114.1804725901"><ele>118.000</ele></trkpt>
      <trkpt lat="22.4919427227" lon="114.1804373327"><ele>118.000</ele></trkpt>
      <trkpt lat="22.4918474539" lon="114.1803495188"><ele>123.000</ele></trkpt>
      <trkpt lat="22.4917781370" lon="114.1803242698"><ele>123.000</ele></trkpt>
      <trkpt lat="22.4917011617" lon="114.1803312259"><ele>123.000</ele></trkpt>
      <trkpt lat="22.4915338456" lon="114.1804044077"><ele>122.000</ele></trkpt>
      <trkpt lat="22.4915004320" lon="114.1804190224"><ele>121.000</ele></trkpt>
      <trkpt lat="22.4913745461" lon="114.1805104842"><ele>124.000</ele></trkpt>
      <trkpt lat="22.4912645355" lon="114.1806646266"><ele>124.000</ele></trkpt>
      <trkpt lat="22.4912622675" lon="114.1806678045"><ele>124.000</ele></trkpt>
      <trkpt lat="22.4912010205" lon="114.1807848744"><ele>124.000</ele></trkpt>
      <trkpt lat="22.4911752992" lon="114.1809772515"><ele>123.000</ele></trkpt>
      <trkpt lat="22.4911639527" lon="114.1810621155"><ele>117.000</ele></trkpt>
      <trkpt lat="22.4911425473" lon="114.1811862902"><ele>118.000</ele></trkpt>
      <trkpt lat="22.4911025496" lon="114.1812601838"><ele>116.000</ele></trkpt>
      <trkpt lat="22.4910507140" lon="114.1813013472"><ele>120.000</ele></trkpt>
      <trkpt lat="22.4909885217" lon="114.1812991198"><ele>120.000</ele></trkpt>
      <trkpt lat="22.4909336261" lon="114.1812883409"><ele>120.000</ele></trkpt>
      <trkpt lat="22.4908596697" lon="114.1811959021"><ele>118.000</ele></trkpt>
      <trkpt lat="22.4908176889" lon="114.1811357179"><ele>120.000</ele></trkpt>
      <trkpt lat="22.4907717155" lon="114.1811206635"><ele>118.000</ele></trkpt>
      <trkpt lat="22.4907357382" lon="114.1811271151"><ele>118.000</ele></trkpt>
      <trkpt lat="22.4907217401" lon="114.1811658015"><ele>118.000</ele></trkpt>
      <trkpt lat="22.4906997474" lon="114.1812990814"><ele>119.000</ele></trkpt>
      <trkpt lat="22.4907148798" lon="114.1814927555"><ele>122.000</ele></trkpt>
      <trkpt lat="22.4907197335" lon="114.1815548759"><ele>123.000</ele></trkpt>
      <trkpt lat="22.4907457186" lon="114.1817032007"><ele>126.000</ele></trkpt>
      <trkpt lat="22.4907017375" lon="114.1817999309"><ele>131.000</ele></trkpt>
      <trkpt lat="22.4905817945" lon="114.1818407708"><ele>140.000</ele></trkpt>
      <trkpt lat="22.4904418778" lon="114.1818257128"><ele>133.000</ele></trkpt>
      <trkpt lat="22.4903082757" lon="114.1817390832"><ele>130.000</ele></trkpt>
      <trkpt lat="22.4902235904" lon="114.1816786838"><ele>132.000</ele></trkpt>
      <trkpt lat="22.4901653363" lon="114.1816433672"><ele>132.000</ele></trkpt>
      <trkpt lat="22.4900086670" lon="114.1815466715"><ele>132.000</ele></trkpt>
      <trkpt lat="22.4900042549" lon="114.1815439483"><ele>132.000</ele></trkpt>
      <trkpt lat="22.4898403543" lon="114.1814623056"><ele>132.000</ele></trkpt>
      <trkpt lat="22.4896764536" lon="114.1813806631"><ele>134.000</ele></trkpt>
      <trkpt lat="22.4895401077" lon="114.1813127464"><ele>133.000</ele></trkpt>
      <trkpt lat="22.4893743434" lon="114.1812355841"><ele>134.000</ele></trkpt>
      <trkpt lat="22.4892837919" lon="114.1811934330"><ele>132.000</ele></trkpt>
      <trkpt lat="22.4891086831" lon="114.1811458376"><ele>125.000</ele></trkpt>
      <trkpt lat="22.4889356633" lon="114.1810988102"><ele>125.000</ele></trkpt>
      <trkpt lat="22.4887721732" lon="114.1810162203"><ele>124.000</ele></trkpt>
      <trkpt lat="22.4886086831" lon="114.1809336307"><ele>124.000</ele></trkpt>
      <trkpt lat="22.4884451930" lon="114.1808510412"><ele>125.000</ele></trkpt>
      <trkpt lat="22.4882972940" lon="114.1807763281"><ele>124.000</ele></trkpt>
      <trkpt lat="22.4881173003" lon="114.1807606289"><ele>124.000</ele></trkpt>
      <trkpt lat="22.4880133681" lon="114.1808104971"><ele>121.000</ele></trkpt>
      <trkpt lat="22.4879404023" lon="114.1808157329"><ele>121.000</ele></trkpt>
      <trkpt lat="22.4878631833" lon="114.1808140009"><ele>121.000</ele></trkpt>
      <trkpt lat="22.4877506752" lon="114.1807450995"><ele>128.000</ele></trkpt>
      <trkpt lat="22.4876995992" lon="114.1807450980"><ele>129.000</ele></trkpt>
      <trkpt lat="22.4876048597" lon="114.1808050630"><ele>128.000</ele></trkpt>
      <trkpt lat="22.4874979005" lon="114.1809279008"><ele>126.000</ele></trkpt>
      <trkpt lat="22.4874589051" lon="114.1810103344"><ele>126.000</ele></trkpt>
      <trkpt lat="22.4874022617" lon="114.1811886709"><ele>126.000</ele></trkpt>
      <trkpt lat="22.4873753664" lon="114.1812897821"><ele>126.000</ele></trkpt>
      <trkpt lat="22.4873540085" lon="114.1813242499"><ele>125.000</ele></trkpt>
      <trkpt lat="22.4872808957" lon="114.1814190236"><ele>128.000</ele></trkpt>
      <trkpt lat="22.4871358750" lon="114.1814677527"><ele>134.000</ele></trkpt>
      <trkpt lat="22.4871119976" lon="114.1814994896"><ele>135.000</ele></trkpt>
      <trkpt lat="22.4871086733" lon="114.1815384183"><ele>134.000</ele></trkpt>
      <trkpt lat="22.4871132031" lon="114.1816553798"><ele>130.000</ele></trkpt>
      <trkpt lat="22.4870769530" lon="114.1817260353"><ele>131.000</ele></trkpt>
      <trkpt lat="22.4869589053" lon="114.1817986120"><ele>132.000</ele></trkpt>
      <trkpt lat="22.4868022006" lon="114.1818952392"><ele>135.000</ele></trkpt>
      <trkpt lat="22.4867024819" lon="114.1819567276"><ele>136.000</ele></trkpt>
      <trkpt lat="22.4866388512" lon="114.1820322212"><ele>133.000</ele></trkpt>
      <trkpt lat="22.4866103303" lon="114.1821195229"><ele>136.000</ele></trkpt>
      <trkpt lat="22.4865971603" lon="114.1822304098"><ele>134.000</ele></trkpt>
      <trkpt lat="22.4865545793" lon="114.1823103352"><ele>135.000</ele></trkpt>
      <trkpt lat="22.4865737040" lon="114.1823595555"><ele>133.000</ele></trkpt>
      <trkpt lat="22.4866175363" lon="114.1823962120"><ele>130.000</ele></trkpt>
      <trkpt lat="22.4867653838" lon="114.1825078383"><ele>118.000</ele></trkpt>
      <trkpt lat="22.4868289507" lon="114.1825558321"><ele>112.000</ele></trkpt>
      <trkpt lat="22.4869815719" lon="114.1826597525"><ele>117.000</ele></trkpt>
      <trkpt lat="22.4870509307" lon="114.1827069793"><ele>118.000</ele></trkpt>
      <trkpt lat="22.4870805432" lon="114.1826579648"><ele>115.000</ele></trkpt>
      <trkpt lat="22.4871083134" lon="114.1826112534"><ele>115.000</ele></trkpt>
      <trkpt lat="22.4871208233" lon="114.1825328230"><ele>116.000</ele></trkpt>
      <trkpt lat="22.4871562506" lon="114.1825036910"><ele>118.000</ele></trkpt>
      <trkpt lat="22.4872166918" lon="114.1824857644"><ele>120.000</ele></trkpt>
      <trkpt lat="22.4873548572" lon="114.1824808238"><ele>126.000</ele></trkpt>
      <trkpt lat="22.4874480838" lon="114.1823162689"><ele>128.000</ele></trkpt>
      <trkpt lat="22.4875502114" lon="114.1822339159"><ele>129.000</ele></trkpt>
      <trkpt lat="22.4876127685" lon="114.1821304155"><ele>128.000</ele></trkpt>
      <trkpt lat="22.4876381545" lon="114.1820833441"><ele>128.000</ele></trkpt>
      <trkpt lat="22.4877324826" lon="114.1819176048"><ele>125.000</ele></trkpt>
      <trkpt lat="22.4877331416" lon="114.1819164468"><ele>125.000</ele></trkpt>
      <trkpt lat="22.4878211729" lon="114.1818242682"><ele>124.000</ele></trkpt>
      <trkpt lat="22.4878462163" lon="114.1817574407"><ele>122.000</ele></trkpt>
      <trkpt lat="22.4878597921" lon="114.1816557554"><ele>124.000</ele></trkpt>
      <trkpt lat="22.4878660345" lon="114.1815741563"><ele>122.000</ele></trkpt>
      <trkpt lat="22.4878972185" lon="114.1815059782"><ele>124.000</ele></trkpt>
      <trkpt lat="22.4879458397" lon="114.1814535238"><ele>124.000</ele></trkpt>
      <trkpt lat="22.4880246034" lon="114.1814360831"><ele>122.000</ele></trkpt>
      <trkpt lat="22.4881310712" lon="114.1814590496"><ele>126.000</ele></trkpt>
      <trkpt lat="22.4882400489" lon="114.1815033562"><ele>127.000</ele></trkpt>
      <trkpt lat="22.4884122432" lon="114.1815619862"><ele>126.000</ele></trkpt>
      <trkpt lat="22.4884627726" lon="114.1815791910"><ele>124.000</ele></trkpt>
      <trkpt lat="22.4886355178" lon="114.1816359134"><ele>124.000</ele></trkpt>
      <trkpt lat="22.4888082629" lon="114.1816926360"><ele>123.000</ele></trkpt>
      <trkpt lat="22.4889376409" lon="114.1817351187"><ele>124.000</ele></trkpt>
      <trkpt lat="22.4891139827" lon="114.1817771131"><ele>123.000</ele></trkpt>
      <trkpt lat="22.4892903244" lon="114.1818191076"><ele>118.000</ele></trkpt>
      <trkpt lat="22.4893699684" lon="114.1818380743"><ele>118.000</ele></trkpt>
      <trkpt lat="22.4895381729" lon="114.1819088577"><ele>114.000</ele></trkpt>
      <trkpt lat="22.4896040786" lon="114.1819365920"><ele>114.000</ele></trkpt>
      <trkpt lat="22.4896412111" lon="114.1819535801"><ele>112.000</ele></trkpt>
      <trkpt lat="22.4897922198" lon="114.1820601955"><ele>111.000</ele></trkpt>
      <trkpt lat="22.4898914018" lon="114.1821302203"><ele>111.000</ele></trkpt>
      <trkpt lat="22.4900380650" lon="114.1822436437"><ele>106.000</ele></trkpt>
      <trkpt lat="22.4900884672" lon="114.1822826228"><ele>107.000</ele></trkpt>
      <trkpt lat="22.4902171009" lon="114.1824111656"><ele>106.000</ele></trkpt>
      <trkpt lat="22.4902917329" lon="114.1825881525"><ele>105.000</ele></trkpt>
      <trkpt lat="22.4903171224" lon="114.1826483628"><ele>106.000</ele></trkpt>
      <trkpt lat="22.4903837880" lon="114.1828092349"><ele>104.000</ele></trkpt>
      <trkpt lat="22.4903820200" lon="114.1829959244"><ele>104.000</ele></trkpt>
      <trkpt lat="22.4903769779" lon="114.1830791284"><ele>104.000</ele></trkpt>
      <trkpt lat="22.4903717372" lon="114.1831574929"><ele>102.000</ele></trkpt>
      <trkpt lat="22.4903625927" lon="114.1833000339"><ele>101.000</ele></trkpt>
      <trkpt lat="22.4903446556" lon="114.1833695448"><ele>101.000</ele></trkpt>
      <trkpt lat="22.4903907618" lon="114.1834424211"><ele>100.000</ele></trkpt>
      <trkpt lat="22.4903907612" lon="114.1834592136"><ele>100.000</ele></trkpt>
      <trkpt lat="22.4904336964" lon="114.1835641587"><ele>101.000</ele></trkpt>
      <trkpt lat="22.4904727203" lon="114.1836943021"><ele>104.000</ele></trkpt>
      <trkpt lat="22.4905018976" lon="114.1838861063"><ele>110.000</ele></trkpt>
      <trkpt lat="22.4905078386" lon="114.1839251613"><ele>112.000</ele></trkpt>
      <trkpt lat="22.4906015060" lon="114.1840385055"><ele>106.000</ele></trkpt>
      <trkpt lat="22.4907498277" lon="114.1840972869"><ele>102.000</ele></trkpt>
      <trkpt lat="22.4908395991" lon="114.1840930935"><ele>102.000</ele></trkpt>
      <trkpt lat="22.4909804849" lon="114.1840383794"><ele>102.000</ele></trkpt>
      <trkpt lat="22.4910766786" lon="114.1839973748"><ele>103.000</ele></trkpt>
      <trkpt lat="22.4911713761" lon="114.1838916197"><ele>104.000</ele></trkpt>
      <trkpt lat="22.4912764294" lon="114.1837335232"><ele>103.000</ele></trkpt>
      <trkpt lat="22.4913580285" lon="114.1836107230"><ele>102.000</ele></trkpt>
      <trkpt lat="22.4914420303" lon="114.1834386663"><ele>103.000</ele></trkpt>
      <trkpt lat="22.4915219802" lon="114.1832749085"><ele>105.000</ele></trkpt>
      <trkpt lat="22.4915493034" lon="114.1831153900"><ele>104.000</ele></trkpt>
      <trkpt lat="22.4915454086" lon="114.1829516815"><ele>104.000</ele></trkpt>
      <trkpt lat="22.4915219973" lon="114.1828299440"><ele>104.000</ele></trkpt>
      <trkpt lat="22.4915727429" lon="114.1827292004"><ele>104.000</ele></trkpt>
      <trkpt lat="22.4916547167" lon="114.1825948728"><ele>104.000</ele></trkpt>
      <trkpt lat="22.4917399474" lon="114.1824235169"><ele>104.000</ele></trkpt>
      <trkpt lat="22.4917444943" lon="114.1824143754"><ele>104.000</ele></trkpt>
      <trkpt lat="22.4917913311" lon="114.1822632632"><ele>105.000</ele></trkpt>
      <trkpt lat="22.4918069481" lon="114.1821583196"><ele>105.000</ele></trkpt>
      <trkpt lat="22.4917718238" lon="114.1820365816"><ele>104.000</ele></trkpt>
      <trkpt lat="22.4917617222" lon="114.1819314427"><ele>104.000</ele></trkpt>
      <trkpt lat="22.4917683515" lon="114.1819006857"><ele>104.000</ele></trkpt>
      <trkpt lat="22.4918186716" lon="114.1818141006"><ele>103.000</ele></trkpt>
      <trkpt lat="22.4919045461" lon="114.1816671779"><ele>103.000</ele></trkpt>
      <trkpt lat="22.4920099348" lon="114.1815370580"><ele>104.000</ele></trkpt>
      <trkpt lat="22.4920840930" lon="114.1815160600"><ele>103.000</ele></trkpt>
      <trkpt lat="22.4921543483" lon="114.1815580537"><ele>102.000</ele></trkpt>
      <trkpt lat="22.4922402161" lon="114.1816378121"><ele>104.000</ele></trkpt>
      <trkpt lat="22.4923026716" lon="114.1815958325"><ele>104.000</ele></trkpt>
      <trkpt lat="22.4923169425" lon="114.1814970594"><ele>104.000</ele></trkpt>
      <trkpt lat="22.4923208579" lon="114.1813123595"><ele>100.000</ele></trkpt>
      <trkpt lat="22.4922942390" lon="114.1811201224"><ele>103.000</ele></trkpt>
      <trkpt lat="22.4922935373" lon="114.1811150544"><ele>103.000</ele></trkpt>
      <trkpt lat="22.4922075602" lon="114.1809441303"><ele>104.000</ele></trkpt>
      <trkpt lat="22.4921647342" lon="114.1808589916"><ele>103.000</ele></trkpt>
      <trkpt lat="22.4921764481" lon="114.1808002273"><ele>104.000</ele></trkpt>
      <trkpt lat="22.4922418466" lon="114.1807836795"><ele>104.000</ele></trkpt>
    </trkseg>
  </trk>
</gpx>
