<?xml version="1.0" encoding="UTF-8"?>
<gpx xmlns:xsi="http://www.w3.org/2001/XMLSchema-instance"
     xsi:schemaLocation="http://www.topografix.com/GPX/1/1 http://www.topografix.com/GPX/1/1/gpx.xsd"
     version="1.1" creator="json3d_batch_to_gpx"
     xmlns="http://www.topografix.com/GPX/1/1">
  <metadata>
    <name>WongShekFamilyWalk</name>
  </metadata>
  <trk>
    <name>WongShekFamilyWalk</name>
    <type>hike</type>
    <trkseg>
      <trkpt lat="22.4346418570" lon="114.3368353152"><ele>7.000</ele></trkpt>
      <trkpt lat="22.4346080473" lon="114.3368222112"><ele>9.000</ele></trkpt>
      <trkpt lat="22.4345925819" lon="114.3368084385"><ele>12.000</ele></trkpt>
      <trkpt lat="22.4345826670" lon="114.3367960623"><ele>12.000</ele></trkpt>
      <trkpt lat="22.4345753642" lon="114.3367831266"><ele>17.000</ele></trkpt>
      <trkpt lat="22.4345555572" lon="114.3367353298"><ele>17.000</ele></trkpt>
      <trkpt lat="22.4345352076" lon="114.3367066417"><ele>14.000</ele></trkpt>
      <trkpt lat="22.4345279057" lon="114.3366937060"><ele>14.000</ele></trkpt>
      <trkpt lat="22.4344815643" lon="114.3365968760"><ele>24.000</ele></trkpt>
      <trkpt lat="22.4344683877" lon="114.3365752571"><ele>24.000</ele></trkpt>
      <trkpt lat="22.4344563213" lon="114.3365587539"><ele>25.000</ele></trkpt>
      <trkpt lat="22.4344428900" lon="114.3365489751"><ele>24.000</ele></trkpt>
      <trkpt lat="22.4344192013" lon="114.3365270878"><ele>24.000</ele></trkpt>
      <trkpt lat="22.4343970330" lon="114.3365183995"><ele>21.000</ele></trkpt>
      <trkpt lat="22.4343731910" lon="114.3365090547"><ele>19.000</ele></trkpt>
      <trkpt lat="22.4343315901" lon="114.3364975349"><ele>18.000</ele></trkpt>
      <trkpt lat="22.4343282391" lon="114.3364946218"><ele>18.000</ele></trkpt>
      <trkpt lat="22.4342921998" lon="114.3364632882"><ele>20.000</ele></trkpt>
      <trkpt lat="22.4342874159" lon="114.3364591290"><ele>20.000</ele></trkpt>
      <trkpt lat="22.4342827548" lon="114.3364550759"><ele>20.000</ele></trkpt>
      <trkpt lat="22.4342288713" lon="114.3364082292"><ele>26.000</ele></trkpt>
      <trkpt lat="22.4342002012" lon="114.3363929834"><ele>26.000</ele></trkpt>
      <trkpt lat="22.4341910242" lon="114.3363813610"><ele>26.000</ele></trkpt>
      <trkpt lat="22.4341886856" lon="114.3363746518"><ele>26.000</ele></trkpt>
      <trkpt lat="22.4341874445" lon="114.3363603068"><ele>33.000</ele></trkpt>
      <trkpt lat="22.4341891654" lon="114.3363479090"><ele>33.000</ele></trkpt>
      <trkpt lat="22.4341928345" lon="114.3363359408"><ele>33.000</ele></trkpt>
      <trkpt lat="22.4342126501" lon="114.3363285032"><ele>33.000</ele></trkpt>
      <trkpt lat="22.4342241927" lon="114.3363222023"><ele>34.000</ele></trkpt>
      <trkpt lat="22.4342515536" lon="114.3362962149"><ele>34.000</ele></trkpt>
      <trkpt lat="22.4342687420" lon="114.3362651937"><ele>39.000</ele></trkpt>
      <trkpt lat="22.4342767798" lon="114.3362370034"><ele>39.000</ele></trkpt>
      <trkpt lat="22.4342827010" lon="114.3362260966"><ele>41.000</ele></trkpt>
      <trkpt lat="22.4343278590" lon="114.3361626473"><ele>42.000</ele></trkpt>
      <trkpt lat="22.4343542853" lon="114.3361255179"><ele>44.000</ele></trkpt>
      <trkpt lat="22.4343940531" lon="114.3360819575"><ele>42.000</ele></trkpt>
      <trkpt lat="22.4344172269" lon="114.3360619538"><ele>43.000</ele></trkpt>
      <trkpt lat="22.4343488148" lon="114.3360639399"><ele>44.000</ele></trkpt>
      <trkpt lat="22.4343162295" lon="114.3360674969"><ele>44.000</ele></trkpt>
      <trkpt lat="22.4343056800" lon="114.3360695054"><ele>44.000</ele></trkpt>
      <trkpt lat="22.4342735806" lon="114.3360839328"><ele>44.000</ele></trkpt>
      <trkpt lat="22.4342437722" lon="114.3360919419"><ele>44.000</ele></trkpt>
      <trkpt lat="22.4342065908" lon="114.3360950176"><ele>44.000</ele></trkpt>
      <trkpt lat="22.4341432411" lon="114.3360962178"><ele>42.000</ele></trkpt>
      <trkpt lat="22.4341253351" lon="114.3360947986"><ele>42.000</ele></trkpt>
      <trkpt lat="22.4340908897" lon="114.3360889795"><ele>42.000</ele></trkpt>
      <trkpt lat="22.4340761835" lon="114.3360845818"><ele>42.000</ele></trkpt>
      <trkpt lat="22.4340504261" lon="114.3360688645"><ele>44.000</ele></trkpt>
      <trkpt lat="22.4340214275" lon="114.3360432741"><ele>44.000</ele></trkpt>
      <trkpt lat="22.4339915512" lon="114.3360285623"><ele>46.000</ele></trkpt>
      <trkpt lat="22.4339842090" lon="114.3360290785"><ele>46.000</ele></trkpt>
      <trkpt lat="22.4339745781" lon="114.3360335554"><ele>43.000</ele></trkpt>
      <trkpt lat="22.4339594660" lon="114.3360469433"><ele>43.000</ele></trkpt>
      <trkpt lat="22.4339319429" lon="114.3360544402"><ele>46.000</ele></trkpt>
      <trkpt lat="22.4339227872" lon="114.3360623660"><ele>46.000</ele></trkpt>
      <trkpt lat="22.4339191387" lon="114.3360717648"><ele>46.000</ele></trkpt>
      <trkpt lat="22.4339067950" lon="114.3360890900"><ele>41.000</ele></trkpt>
      <trkpt lat="22.4338958123" lon="114.3360999959"><ele>46.000</ele></trkpt>
      <trkpt lat="22.4338816000" lon="114.3361074497"><ele>46.000</ele></trkpt>
      <trkpt lat="22.4338499905" lon="114.3361287841"><ele>48.000</ele></trkpt>
      <trkpt lat="22.4338318505" lon="114.3361467001"><ele>46.000</ele></trkpt>
      <trkpt lat="22.4337872762" lon="114.3361907260"><ele>44.000</ele></trkpt>
      <trkpt lat="22.4337346274" lon="114.3362378170"><ele>44.000</ele></trkpt>
      <trkpt lat="22.4337071452" lon="114.3362586510"><ele>48.000</ele></trkpt>
      <trkpt lat="22.4336604094" lon="114.3362894197"><ele>48.000</ele></trkpt>
      <trkpt lat="22.4336375213" lon="114.3363127069"><ele>48.000</ele></trkpt>
      <trkpt lat="22.4336260917" lon="114.3363280612"><ele>47.000</ele></trkpt>
      <trkpt lat="22.4335949747" lon="114.3363627332"><ele>47.000</ele></trkpt>
      <trkpt lat="22.4335784970" lon="114.3363780914"><ele>47.000</ele></trkpt>
      <trkpt lat="22.4335754939" lon="114.3363804028"><ele>47.000</ele></trkpt>
      <trkpt lat="22.4335610911" lon="114.3363914864"><ele>47.000</ele></trkpt>
      <trkpt lat="22.4335225979" lon="114.3364153191"><ele>50.000</ele></trkpt>
      <trkpt lat="22.4334653313" lon="114.3364564986"><ele>50.000</ele></trkpt>
      <trkpt lat="22.4334405912" lon="114.3364714005"><ele>48.000</ele></trkpt>
      <trkpt lat="22.4334098668" lon="114.3364833523"><ele>48.000</ele></trkpt>
      <trkpt lat="22.4333791217" lon="114.3364888831"><ele>50.000</ele></trkpt>
      <trkpt lat="22.4333648892" lon="114.3364894205"><ele>50.000</ele></trkpt>
      <trkpt lat="22.4333221890" lon="114.3364846216"><ele>50.000</ele></trkpt>
      <trkpt lat="22.4332982927" lon="114.3364772992"><ele>48.000</ele></trkpt>
      <trkpt lat="22.4332739160" lon="114.3364625548"><ele>51.000</ele></trkpt>
      <trkpt lat="22.4332518280" lon="114.3364438596"><ele>50.000</ele></trkpt>
      <trkpt lat="22.4332435302" lon="114.3364335243"><ele>50.000</ele></trkpt>
      <trkpt lat="22.4332292713" lon="114.3364241827"><ele>50.000</ele></trkpt>
      <trkpt lat="22.4331796606" lon="114.3364124888"><ele>52.000</ele></trkpt>
      <trkpt lat="22.4331649345" lon="114.3364006891"><ele>52.000</ele></trkpt>
      <trkpt lat="22.4331561762" lon="114.3363903435"><ele>52.000</ele></trkpt>
      <trkpt lat="22.4330408196" lon="114.3362805348"><ele>49.000</ele></trkpt>
      <trkpt lat="22.4330256537" lon="114.3362724744"><ele>53.000</ele></trkpt>
      <trkpt lat="22.4329676185" lon="114.3362515924"><ele>49.000</ele></trkpt>
      <trkpt lat="22.4329113555" lon="114.3362174647"><ele>52.000</ele></trkpt>
      <trkpt lat="22.4328849799" lon="114.3362032407"><ele>52.000</ele></trkpt>
      <trkpt lat="22.4327585456" lon="114.3361893766"><ele>53.000</ele></trkpt>
      <trkpt lat="22.4327363479" lon="114.3361756315"><ele>57.000</ele></trkpt>
      <trkpt lat="22.4326998764" lon="114.3361419995"><ele>56.000</ele></trkpt>
      <trkpt lat="22.4326743775" lon="114.3361315621"><ele>56.000</ele></trkpt>
      <trkpt lat="22.4325808093" lon="114.3360823414"><ele>58.000</ele></trkpt>
      <trkpt lat="22.4325745325" lon="114.3360811103"><ele>58.000</ele></trkpt>
      <trkpt lat="22.4325639769" lon="114.3360801657"><ele>58.000</ele></trkpt>
      <trkpt lat="22.4325596080" lon="114.3360809718"><ele>58.000</ele></trkpt>
      <trkpt lat="22.4325203880" lon="114.3360882076"><ele>56.000</ele></trkpt>
      <trkpt lat="22.4325066094" lon="114.3360862782"><ele>56.000</ele></trkpt>
      <trkpt lat="22.4324877682" lon="114.3360809044"><ele>54.000</ele></trkpt>
      <trkpt lat="22.4324643541" lon="114.3360790030"><ele>54.000</ele></trkpt>
      <trkpt lat="22.4324281132" lon="114.3360899868"><ele>54.000</ele></trkpt>
      <trkpt lat="22.4323982831" lon="114.3360925560"><ele>53.000</ele></trkpt>
      <trkpt lat="22.4323638433" lon="114.3360902048"><ele>54.000</ele></trkpt>
      <trkpt lat="22.4323510000" lon="114.3360922204"><ele>54.000</ele></trkpt>
      <trkpt lat="22.4323340269" lon="114.3360972133"><ele>54.000</ele></trkpt>
      <trkpt lat="22.4322973556" lon="114.3361141220"><ele>54.000</ele></trkpt>
      <trkpt lat="22.4322794897" lon="114.3361270209"><ele>54.000</ele></trkpt>
      <trkpt lat="22.4322588812" lon="114.3361463570"><ele>51.000</ele></trkpt>
      <trkpt lat="22.4322231636" lon="114.3361760986"><ele>50.000</ele></trkpt>
      <trkpt lat="22.4322112734" lon="114.3361914522"><ele>50.000</ele></trkpt>
      <trkpt lat="22.4322003094" lon="114.3362107507"><ele>50.000</ele></trkpt>
      <trkpt lat="22.4321902534" lon="114.3362251059"><ele>50.000</ele></trkpt>
      <trkpt lat="22.4321829395" lon="114.3362335193"><ele>48.000</ele></trkpt>
      <trkpt lat="22.4321559037" lon="114.3362504001"><ele>48.000</ele></trkpt>
      <trkpt lat="22.4321352769" lon="114.3362608383"><ele>46.000</ele></trkpt>
      <trkpt lat="22.4321054651" lon="114.3362722956"><ele>46.000</ele></trkpt>
      <trkpt lat="22.4320705941" lon="114.3362768601"><ele>42.000</ele></trkpt>
      <trkpt lat="22.4320513272" lon="114.3362818601"><ele>42.000</ele></trkpt>
      <trkpt lat="22.4318707250" lon="114.3362801990"><ele>40.000</ele></trkpt>
      <trkpt lat="22.4318041255" lon="114.3362795864"><ele>40.000</ele></trkpt>
      <trkpt lat="22.4317875568" lon="114.3362710087"><ele>42.000</ele></trkpt>
      <trkpt lat="22.4317723314" lon="114.3362446001"><ele>41.000</ele></trkpt>
      <trkpt lat="22.4317663822" lon="114.3362253348"><ele>41.000</ele></trkpt>
      <trkpt lat="22.4317365696" lon="114.3361981966"><ele>42.000</ele></trkpt>
      <trkpt lat="22.4317127315" lon="114.3361639313"><ele>42.000</ele></trkpt>
      <trkpt lat="22.4316994789" lon="114.3361542870"><ele>42.000</ele></trkpt>
      <trkpt lat="22.4316596947" lon="114.3361521016"><ele>40.000</ele></trkpt>
      <trkpt lat="22.4316199058" lon="114.3361556231"><ele>40.000</ele></trkpt>
      <trkpt lat="22.4315887266" lon="114.3361691401"><ele>41.000</ele></trkpt>
      <trkpt lat="22.4315615206" lon="114.3361883675"><ele>40.000</ele></trkpt>
      <trkpt lat="22.4315217181" lon="114.3362047266"><ele>40.000</ele></trkpt>
      <trkpt lat="22.4314945247" lon="114.3362111153"><ele>43.000</ele></trkpt>
      <trkpt lat="22.4314693367" lon="114.3362003879"><ele>43.000</ele></trkpt>
      <trkpt lat="22.4314170052" lon="114.3361464753"><ele>44.000</ele></trkpt>
      <trkpt lat="22.4314031098" lon="114.3361165024"><ele>46.000</ele></trkpt>
      <trkpt lat="22.4313686547" lon="114.3360893579"><ele>46.000</ele></trkpt>
      <trkpt lat="22.4313408105" lon="114.3360836203"><ele>46.000</ele></trkpt>
      <trkpt lat="22.4312433679" lon="114.3360492722"><ele>46.000</ele></trkpt>
      <trkpt lat="22.4311525685" lon="114.3360035192"><ele>46.000</ele></trkpt>
      <trkpt lat="22.4311307043" lon="114.3359849488"><ele>44.000</ele></trkpt>
      <trkpt lat="22.4311227712" lon="114.3359599756"><ele>44.000</ele></trkpt>
      <trkpt lat="22.4311215018" lon="114.3359029120"><ele>44.000</ele></trkpt>
      <trkpt lat="22.4311156045" lon="114.3358308647"><ele>44.000</ele></trkpt>
      <trkpt lat="22.4311010905" lon="114.3357559546"><ele>40.000</ele></trkpt>
      <trkpt lat="22.4310918406" lon="114.3357209933"><ele>44.000</ele></trkpt>
      <trkpt lat="22.4310786017" lon="114.3356974410"><ele>44.000</ele></trkpt>
      <trkpt lat="22.4310492260" lon="114.3356732632"><ele>41.000</ele></trkpt>
      <trkpt lat="22.4310459611" lon="114.3356653593"><ele>41.000</ele></trkpt>
      <trkpt lat="22.4310427066" lon="114.3356505520"><ele>41.000</ele></trkpt>
      <trkpt lat="22.4310421979" lon="114.3356352426"><ele>42.000</ele></trkpt>
      <trkpt lat="22.4310443775" lon="114.3355952344"><ele>42.000</ele></trkpt>
      <trkpt lat="22.4310501909" lon="114.3355423694"><ele>42.000</ele></trkpt>
      <trkpt lat="22.4310496841" lon="114.3355250882"><ele>42.000</ele></trkpt>
      <trkpt lat="22.4310463804" lon="114.3354959628"><ele>42.000</ele></trkpt>
      <trkpt lat="22.4310431255" lon="114.3354816508"><ele>42.000</ele></trkpt>
      <trkpt lat="22.4310411832" lon="114.3354456011"><ele>41.000</ele></trkpt>
      <trkpt lat="22.4310383670" lon="114.3354258597"><ele>41.000</ele></trkpt>
      <trkpt lat="22.4310295634" lon="114.3353972429"><ele>41.000</ele></trkpt>
      <trkpt lat="22.4310194177" lon="114.3353834477"><ele>42.000</ele></trkpt>
      <trkpt lat="22.4310110621" lon="114.3353619408"><ele>40.000</ele></trkpt>
      <trkpt lat="22.4310014213" lon="114.3353489505"><ele>40.000</ele></trkpt>
      <trkpt lat="22.4309806830" lon="114.3353323126"><ele>42.000</ele></trkpt>
      <trkpt lat="22.4309756176" lon="114.3353297551"><ele>42.000</ele></trkpt>
      <trkpt lat="22.4309367480" lon="114.3353204043"><ele>39.000</ele></trkpt>
      <trkpt lat="22.4307882527" lon="114.3352098221"><ele>36.000</ele></trkpt>
      <trkpt lat="22.4307753536" lon="114.3352002164"><ele>38.000</ele></trkpt>
      <trkpt lat="22.4306593759" lon="114.3351326934"><ele>39.000</ele></trkpt>
      <trkpt lat="22.4305738663" lon="114.3350961071"><ele>43.000</ele></trkpt>
      <trkpt lat="22.4303996633" lon="114.3350466129"><ele>42.000</ele></trkpt>
      <trkpt lat="22.4303102560" lon="114.3350341946"><ele>38.000</ele></trkpt>
      <trkpt lat="22.4301887352" lon="114.3350414490"><ele>40.000</ele></trkpt>
      <trkpt lat="22.4301091245" lon="114.3350673136"><ele>40.000</ele></trkpt>
      <trkpt lat="22.4300649456" lon="114.3350785702"><ele>42.000</ele></trkpt>
      <trkpt lat="22.4300102617" lon="114.3350739913"><ele>42.000</ele></trkpt>
      <trkpt lat="22.4298801588" lon="114.3350659855"><ele>42.000</ele></trkpt>
      <trkpt lat="22.4298034243" lon="114.3350319884"><ele>44.000</ele></trkpt>
      <trkpt lat="22.4297530139" lon="114.3349607209"><ele>46.000</ele></trkpt>
      <trkpt lat="22.4297310086" lon="114.3348849688"><ele>46.000</ele></trkpt>
      <trkpt lat="22.4297366297" lon="114.3347514132"><ele>42.000</ele></trkpt>
      <trkpt lat="22.4297494401" lon="114.3345576306"><ele>44.000</ele></trkpt>
      <trkpt lat="22.4297502228" lon="114.3345457917"><ele>44.000</ele></trkpt>
      <trkpt lat="22.4297532923" lon="114.3345004229"><ele>52.000</ele></trkpt>
      <trkpt lat="22.4297727378" lon="114.3343770239"><ele>48.000</ele></trkpt>
      <trkpt lat="22.4297948076" lon="114.3342943181"><ele>46.000</ele></trkpt>
      <trkpt lat="22.4298361638" lon="114.3341957133"><ele>46.000</ele></trkpt>
      <trkpt lat="22.4298793239" lon="114.3341086212"><ele>45.000</ele></trkpt>
      <trkpt lat="22.4299621935" lon="114.3339360063"><ele>46.000</ele></trkpt>
      <trkpt lat="22.4299685088" lon="114.3339228517"><ele>46.000</ele></trkpt>
      <trkpt lat="22.4300255362" lon="114.3337925980"><ele>46.000</ele></trkpt>
      <trkpt lat="22.4300591893" lon="114.3337031346"><ele>47.000</ele></trkpt>
      <trkpt lat="22.4300669891" lon="114.3336499515"><ele>46.000</ele></trkpt>
      <trkpt lat="22.4300670329" lon="114.3336048124"><ele>44.000</ele></trkpt>
      <trkpt lat="22.4300677491" lon="114.3335647736"><ele>40.000</ele></trkpt>
      <trkpt lat="22.4301001025" lon="114.3333736438"><ele>44.000</ele></trkpt>
      <trkpt lat="22.4301154320" lon="114.3332830835"><ele>44.000</ele></trkpt>
      <trkpt lat="22.4301364856" lon="114.3332233975"><ele>42.000</ele></trkpt>
      <trkpt lat="22.4302362299" lon="114.3330614388"><ele>41.000</ele></trkpt>
      <trkpt lat="22.4302565625" lon="114.3330284240"><ele>42.000</ele></trkpt>
      <trkpt lat="22.4302918157" lon="114.3329927949"><ele>40.000</ele></trkpt>
      <trkpt lat="22.4303195969" lon="114.3329797223"><ele>42.000</ele></trkpt>
      <trkpt lat="22.4303652529" lon="114.3329724881"><ele>42.000</ele></trkpt>
      <trkpt lat="22.4304334802" lon="114.3329607721"><ele>42.000</ele></trkpt>
      <trkpt lat="22.4305337516" lon="114.3329261968"><ele>42.000</ele></trkpt>
      <trkpt lat="22.4306048772" lon="114.3328681886"><ele>40.000</ele></trkpt>
      <trkpt lat="22.4306148567" lon="114.3328486268"><ele>38.000</ele></trkpt>
      <trkpt lat="22.4306256034" lon="114.3328761673"><ele>40.000</ele></trkpt>
      <trkpt lat="22.4306299659" lon="114.3329501805"><ele>40.000</ele></trkpt>
      <trkpt lat="22.4306291846" lon="114.3329923467"><ele>42.000</ele></trkpt>
      <trkpt lat="22.4306165560" lon="114.3330432612"><ele>41.000</ele></trkpt>
      <trkpt lat="22.4305868745" lon="114.3331068913"><ele>41.000</ele></trkpt>
      <trkpt lat="22.4304879722" lon="114.3332664050"><ele>46.000</ele></trkpt>
      <trkpt lat="22.4304523942" lon="114.3333109314"><ele>46.000</ele></trkpt>
      <trkpt lat="22.4304442287" lon="114.3333316123"><ele>46.000</ele></trkpt>
      <trkpt lat="22.4304442526" lon="114.3333443178"><ele>46.000</ele></trkpt>
      <trkpt lat="22.4304401241" lon="114.3335385398"><ele>52.000</ele></trkpt>
      <trkpt lat="22.4304395499" lon="114.3335655505"><ele>52.000</ele></trkpt>
      <trkpt lat="22.4304382021" lon="114.3337598179"><ele>56.000</ele></trkpt>
      <trkpt lat="22.4304378384" lon="114.3338122363"><ele>56.000</ele></trkpt>
      <trkpt lat="22.4304353620" lon="114.3340064909"><ele>58.000</ele></trkpt>
      <trkpt lat="22.4304352183" lon="114.3340177644"><ele>58.000</ele></trkpt>
      <trkpt lat="22.4304510757" lon="114.3341570177"><ele>58.000</ele></trkpt>
      <trkpt lat="22.4304661311" lon="114.3342108968"><ele>58.000</ele></trkpt>
      <trkpt lat="22.4304798563" lon="114.3342583246"><ele>60.000</ele></trkpt>
      <trkpt lat="22.4304961121" lon="114.3342943514"><ele>62.000</ele></trkpt>
      <trkpt lat="22.4305391891" lon="114.3343480971"><ele>60.000</ele></trkpt>
      <trkpt lat="22.4306676556" lon="114.3344846501"><ele>62.000</ele></trkpt>
      <trkpt lat="22.4306938567" lon="114.3345125005"><ele>62.000</ele></trkpt>
      <trkpt lat="22.4306787143" lon="114.3345468407"><ele>56.000</ele></trkpt>
      <trkpt lat="22.4306643871" lon="114.3345795498"><ele>55.000</ele></trkpt>
      <trkpt lat="22.4306521316" lon="114.3346177495"><ele>54.000</ele></trkpt>
      <trkpt lat="22.4306443801" lon="114.3346489799"><ele>54.000</ele></trkpt>
      <trkpt lat="22.4306392616" lon="114.3346749290"><ele>52.000</ele></trkpt>
      <trkpt lat="22.4306386056" lon="114.3347085666"><ele>52.000</ele></trkpt>
      <trkpt lat="22.4306510550" lon="114.3347306987"><ele>52.000</ele></trkpt>
      <trkpt lat="22.4306647996" lon="114.3347489177"><ele>52.000</ele></trkpt>
      <trkpt lat="22.4306723258" lon="114.3347615947"><ele>52.000</ele></trkpt>
      <trkpt lat="22.4306892409" lon="114.3347900827"><ele>56.000</ele></trkpt>
      <trkpt lat="22.4307381153" lon="114.3348446763"><ele>54.000</ele></trkpt>
      <trkpt lat="22.4307842457" lon="114.3348962052"><ele>52.000</ele></trkpt>
      <trkpt lat="22.4308204169" lon="114.3349195687"><ele>50.000</ele></trkpt>
      <trkpt lat="22.4308384884" lon="114.3349364326"><ele>50.000</ele></trkpt>
      <trkpt lat="22.4308776376" lon="114.3349553642"><ele>50.000</ele></trkpt>
      <trkpt lat="22.4308785555" lon="114.3349558082"><ele>50.000</ele></trkpt>
      <trkpt lat="22.4308916033" lon="114.3349663041"><ele>49.000</ele></trkpt>
      <trkpt lat="22.4309008810" lon="114.3349812251"><ele>49.000</ele></trkpt>
      <trkpt lat="22.4309218158" lon="114.3350250575"><ele>46.000</ele></trkpt>
      <trkpt lat="22.4309147782" lon="114.3350464196"><ele>46.000</ele></trkpt>
      <trkpt lat="22.4308967632" lon="114.3350549375"><ele>46.000</ele></trkpt>
      <trkpt lat="22.4308684466" lon="114.3350612484"><ele>43.000</ele></trkpt>
      <trkpt lat="22.4308547962" lon="114.3350667309"><ele>43.000</ele></trkpt>
      <trkpt lat="22.4308457624" lon="114.3350729219"><ele>43.000</ele></trkpt>
      <trkpt lat="22.4308383678" lon="114.3350779899"><ele>43.000</ele></trkpt>
      <trkpt lat="22.4308253109" lon="114.3350952848"><ele>43.000</ele></trkpt>
      <trkpt lat="22.4308266029" lon="114.3351222320"><ele>40.000</ele></trkpt>
      <trkpt lat="22.4308705325" lon="114.3351737371"><ele>40.000</ele></trkpt>
      <trkpt lat="22.4308878290" lon="114.3352045666"><ele>40.000</ele></trkpt>
      <trkpt lat="22.4309012877" lon="114.3352325359"><ele>40.000</ele></trkpt>
      <trkpt lat="22.4309052701" lon="114.3352408135"><ele>40.000</ele></trkpt>
      <trkpt lat="22.4309170354" lon="114.3352652645"><ele>38.000</ele></trkpt>
      <trkpt lat="22.4309411427" lon="114.3352922901"><ele>40.000</ele></trkpt>
      <trkpt lat="22.4309450903" lon="114.3353001957"><ele>39.000</ele></trkpt>
      <trkpt lat="22.4309478869" lon="114.3353057959"><ele>39.000</ele></trkpt>
      <trkpt lat="22.4309525911" lon="114.3353101870"><ele>39.000</ele></trkpt>
      <trkpt lat="22.4309583761" lon="114.3353155866"><ele>39.000</ele></trkpt>
      <trkpt lat="22.4309711263" lon="114.3353274877"><ele>39.000</ele></trkpt>
      <trkpt lat="22.4309718520" lon="114.3353278537"><ele>42.000</ele></trkpt>
      <trkpt lat="22.4309759120" lon="114.3353288307"><ele>42.000</ele></trkpt>
      <trkpt lat="22.4309811489" lon="114.3353314749"><ele>42.000</ele></trkpt>
      <trkpt lat="22.4310020542" lon="114.3353482460"><ele>42.000</ele></trkpt>
      <trkpt lat="22.4310118465" lon="114.3353614405"><ele>40.000</ele></trkpt>
      <trkpt lat="22.4310202029" lon="114.3353829503"><ele>42.000</ele></trkpt>
      <trkpt lat="22.4310303702" lon="114.3353967747"><ele>42.000</ele></trkpt>
      <trkpt lat="22.4310392477" lon="114.3354256315"><ele>41.000</ele></trkpt>
      <trkpt lat="22.4310420819" lon="114.3354454992"><ele>41.000</ele></trkpt>
      <trkpt lat="22.4310440224" lon="114.3354815062"><ele>42.000</ele></trkpt>
      <trkpt lat="22.4310472701" lon="114.3354957880"><ele>42.000</ele></trkpt>
      <trkpt lat="22.4310505854" lon="114.3355250135"><ele>42.000</ele></trkpt>
      <trkpt lat="22.4310510957" lon="114.3355424112"><ele>42.000</ele></trkpt>
      <trkpt lat="22.4310452777" lon="114.3355953199"><ele>42.000</ele></trkpt>
      <trkpt lat="22.4310431019" lon="114.3356352534"><ele>42.000</ele></trkpt>
      <trkpt lat="22.4310436062" lon="114.3356504219"><ele>41.000</ele></trkpt>
      <trkpt lat="22.4310468202" lon="114.3356650475"><ele>41.000</ele></trkpt>
      <trkpt lat="22.4310499571" lon="114.3356726423"><ele>41.000</ele></trkpt>
      <trkpt lat="22.4310792869" lon="114.3356967812"><ele>44.000</ele></trkpt>
      <trkpt lat="22.4310926763" lon="114.3357206028"><ele>44.000</ele></trkpt>
      <trkpt lat="22.4311019675" lon="114.3357557225"><ele>40.000</ele></trkpt>
      <trkpt lat="22.4311164996" lon="114.3358307229"><ele>44.000</ele></trkpt>
      <trkpt lat="22.4311224040" lon="114.3359028577"><ele>44.000</ele></trkpt>
      <trkpt lat="22.4311236709" lon="114.3359598028"><ele>44.000</ele></trkpt>
      <trkpt lat="22.4311314724" lon="114.3359843640"><ele>44.000</ele></trkpt>
      <trkpt lat="22.4311530462" lon="114.3360026872"><ele>46.000</ele></trkpt>
      <trkpt lat="22.4312437011" lon="114.3360483673"><ele>46.000</ele></trkpt>
      <trkpt lat="22.4313410372" lon="114.3360826783"><ele>46.000</ele></trkpt>
      <trkpt lat="22.4313690250" lon="114.3360884452"><ele>46.000</ele></trkpt>
      <trkpt lat="22.4314038203" lon="114.3361158572"><ele>46.000</ele></trkpt>
      <trkpt lat="22.4314177436" lon="114.3361458904"><ele>44.000</ele></trkpt>
      <trkpt lat="22.4314698342" lon="114.3361995540"><ele>43.000</ele></trkpt>
      <trkpt lat="22.4314946007" lon="114.3362101032"><ele>43.000</ele></trkpt>
      <trkpt lat="22.4315214589" lon="114.3362037938"><ele>40.000</ele></trkpt>
      <trkpt lat="22.4315611060" lon="114.3361874976"><ele>40.000</ele></trkpt>
      <trkpt lat="22.4315883057" lon="114.3361682751"><ele>41.000</ele></trkpt>
      <trkpt lat="22.4316196954" lon="114.3361546670"><ele>40.000</ele></trkpt>
      <trkpt lat="22.4316596812" lon="114.3361511283"><ele>40.000</ele></trkpt>
      <trkpt lat="22.4316997769" lon="114.3361533305"><ele>42.000</ele></trkpt>
      <trkpt lat="22.4317133634" lon="114.3361632191"><ele>42.000</ele></trkpt>
      <trkpt lat="22.4317372313" lon="114.3361975261"><ele>42.000</ele></trkpt>
      <trkpt lat="22.4317671593" lon="114.3362247694"><ele>41.000</ele></trkpt>
      <trkpt lat="22.4317731545" lon="114.3362441853"><ele>41.000</ele></trkpt>
      <trkpt lat="22.4317881852" lon="114.3362702557"><ele>42.000</ele></trkpt>
      <trkpt lat="22.4318043351" lon="114.3362786172"><ele>40.000</ele></trkpt>
      <trkpt lat="22.4319849373" lon="114.3362802781"><ele>44.000</ele></trkpt>
      <trkpt lat="22.4320512234" lon="114.3362808877"><ele>42.000</ele></trkpt>
      <trkpt lat="22.4320704334" lon="114.3362759031"><ele>42.000</ele></trkpt>
      <trkpt lat="22.4321052557" lon="114.3362713444"><ele>46.000</ele></trkpt>
      <trkpt lat="22.4321349319" lon="114.3362599394"><ele>46.000</ele></trkpt>
      <trkpt lat="22.4321554838" lon="114.3362495390"><ele>48.000</ele></trkpt>
      <trkpt lat="22.4321823713" lon="114.3362327513"><ele>48.000</ele></trkpt>
      <trkpt lat="22.4321895614" lon="114.3362244805"><ele>50.000</ele></trkpt>
      <trkpt lat="22.4321995614" lon="114.3362102039"><ele>50.000</ele></trkpt>
      <trkpt lat="22.4322105371" lon="114.3361908851"><ele>50.000</ele></trkpt>
      <trkpt lat="22.4322225330" lon="114.3361753956"><ele>52.000</ele></trkpt>
      <trkpt lat="22.4322583076" lon="114.3361456064"><ele>51.000</ele></trkpt>
      <trkpt lat="22.4322789387" lon="114.3361262490"><ele>54.000</ele></trkpt>
      <trkpt lat="22.4322969221" lon="114.3361132648"><ele>54.000</ele></trkpt>
      <trkpt lat="22.4323337289" lon="114.3360962940"><ele>54.000</ele></trkpt>
      <trkpt lat="22.4323508149" lon="114.3360912682"><ele>54.000</ele></trkpt>
      <trkpt lat="22.4323638063" lon="114.3360892286"><ele>54.000</ele></trkpt>
      <trkpt lat="22.4323982759" lon="114.3360915817"><ele>53.000</ele></trkpt>
      <trkpt lat="22.4324279534" lon="114.3360890259"><ele>54.000</ele></trkpt>
      <trkpt lat="22.4324642630" lon="114.3360780218"><ele>57.000</ele></trkpt>
      <trkpt lat="22.4324879191" lon="114.3360799429"><ele>54.000</ele></trkpt>
      <trkpt lat="22.4325067838" lon="114.3360853236"><ele>56.000</ele></trkpt>
      <trkpt lat="22.4325203691" lon="114.3360872255"><ele>56.000</ele></trkpt>
      <trkpt lat="22.4325639372" lon="114.3360791875"><ele>58.000</ele></trkpt>
      <trkpt lat="22.4325746509" lon="114.3360801458"><ele>58.000</ele></trkpt>
      <trkpt lat="22.4325810937" lon="114.3360814092"><ele>58.000</ele></trkpt>
      <trkpt lat="22.4326747369" lon="114.3361306698"><ele>56.000</ele></trkpt>
      <trkpt lat="22.4327003451" lon="114.3361411520"><ele>56.000</ele></trkpt>
      <trkpt lat="22.4327368716" lon="114.3361748346"><ele>57.000</ele></trkpt>
      <trkpt lat="22.4327588292" lon="114.3361884318"><ele>53.000</ele></trkpt>
      <trkpt lat="22.4328852364" lon="114.3362022930"><ele>52.000</ele></trkpt>
      <trkpt lat="22.4329117799" lon="114.3362166065"><ele>52.000</ele></trkpt>
      <trkpt lat="22.4329679869" lon="114.3362507001"><ele>49.000</ele></trkpt>
      <trkpt lat="22.4330259986" lon="114.3362715744"><ele>53.000</ele></trkpt>
      <trkpt lat="22.4330413279" lon="114.3362797214"><ele>49.000</ele></trkpt>
      <trkpt lat="22.4331568108" lon="114.3363896507"><ele>52.000</ele></trkpt>
      <trkpt lat="22.4331655439" lon="114.3363999661"><ele>52.000</ele></trkpt>
      <trkpt lat="22.4331800444" lon="114.3364115849"><ele>52.000</ele></trkpt>
      <trkpt lat="22.4332296118" lon="114.3364232690"><ele>50.000</ele></trkpt>
      <trkpt lat="22.4332441206" lon="114.3364327741"><ele>50.000</ele></trkpt>
      <trkpt lat="22.4332524545" lon="114.3364431541"><ele>50.000</ele></trkpt>
      <trkpt lat="22.4332744198" lon="114.3364617453"><ele>51.000</ele></trkpt>
      <trkpt lat="22.4332986421" lon="114.3364763962"><ele>48.000</ele></trkpt>
      <trkpt lat="22.4333223606" lon="114.3364836640"><ele>50.000</ele></trkpt>
      <trkpt lat="22.4333649209" lon="114.3364884473"><ele>50.000</ele></trkpt>
      <trkpt lat="22.4333790306" lon="114.3364879146"><ele>50.000</ele></trkpt>
      <trkpt lat="22.4334096366" lon="114.3364824088"><ele>48.000</ele></trkpt>
      <trkpt lat="22.4334402146" lon="114.3364705142"><ele>48.000</ele></trkpt>
      <trkpt lat="22.4334648589" lon="114.3364556695"><ele>50.000</ele></trkpt>
      <trkpt lat="22.4335221210" lon="114.3364144938"><ele>50.000</ele></trkpt>
      <trkpt lat="22.4335606016" lon="114.3363906689"><ele>47.000</ele></trkpt>
      <trkpt lat="22.4335779370" lon="114.3363773273"><ele>47.000</ele></trkpt>
      <trkpt lat="22.4335943532" lon="114.3363620273"><ele>47.000</ele></trkpt>
      <trkpt lat="22.4336254132" lon="114.3363274193"><ele>47.000</ele></trkpt>
      <trkpt lat="22.4336368555" lon="114.3363120475"><ele>48.000</ele></trkpt>
      <trkpt lat="22.4336598575" lon="114.3362886439"><ele>48.000</ele></trkpt>
      <trkpt lat="22.4337066485" lon="114.3362578393"><ele>48.000</ele></trkpt>
      <trkpt lat="22.4337340773" lon="114.3362370451"><ele>44.000</ele></trkpt>
      <trkpt lat="22.4337866818" lon="114.3361899938"><ele>44.000</ele></trkpt>
      <trkpt lat="22.4338494404" lon="114.3361280083"><ele>48.000</ele></trkpt>
      <trkpt lat="22.4338811611" lon="114.3361065992"><ele>46.000</ele></trkpt>
      <trkpt lat="22.4338952974" lon="114.3360991852"><ele>46.000</ele></trkpt>
      <trkpt lat="22.4339061256" lon="114.3360884326"><ele>41.000</ele></trkpt>
      <trkpt lat="22.4339183508" lon="114.3360712744"><ele>46.000</ele></trkpt>
      <trkpt lat="22.4339220419" lon="114.3360617638"><ele>46.000</ele></trkpt>
      <trkpt lat="22.4339315301" lon="114.3360535509"><ele>46.000</ele></trkpt>
      <trkpt lat="22.4339590479" lon="114.3360460550"><ele>43.000</ele></trkpt>
      <trkpt lat="22.4339741030" lon="114.3360327184"><ele>43.000</ele></trkpt>
      <trkpt lat="22.4339839941" lon="114.3360281205"><ele>46.000</ele></trkpt>
      <trkpt lat="22.4339917202" lon="114.3360275766"><ele>46.000</ele></trkpt>
      <trkpt lat="22.4340219096" lon="114.3360424432"><ele>44.000</ele></trkpt>
      <trkpt lat="22.4340509389" lon="114.3360680607"><ele>44.000</ele></trkpt>
      <trkpt lat="22.4340765320" lon="114.3360836778"><ele>42.000</ele></trkpt>
      <trkpt lat="22.4340910812" lon="114.3360880288"><ele>42.000</ele></trkpt>
      <trkpt lat="22.4341254381" lon="114.3360938332"><ele>42.000</ele></trkpt>
      <trkpt lat="22.4341432665" lon="114.3360952455"><ele>42.000</ele></trkpt>
      <trkpt lat="22.4342065485" lon="114.3360940471"><ele>44.000</ele></trkpt>
      <trkpt lat="22.4342436269" lon="114.3360909800"><ele>44.000</ele></trkpt>
      <trkpt lat="22.4342732952" lon="114.3360830077"><ele>44.000</ele></trkpt>
      <trkpt lat="22.4343054244" lon="114.3360685677"><ele>44.000</ele></trkpt>
      <trkpt lat="22.4343161049" lon="114.3360665341"><ele>44.000</ele></trkpt>
      <trkpt lat="22.4343487571" lon="114.3360629695"><ele>44.000</ele></trkpt>
      <trkpt lat="22.4344198847" lon="114.3360609048"><ele>43.000</ele></trkpt>
      <trkpt lat="22.4343946602" lon="114.3360826789"><ele>42.000</ele></trkpt>
      <trkpt lat="22.4343549682" lon="114.3361261559"><ele>44.000</ele></trkpt>
      <trkpt lat="22.4342834527" lon="114.3362266385"><ele>39.000</ele></trkpt>
      <trkpt lat="22.4342776121" lon="114.3362373958"><ele>39.000</ele></trkpt>
      <trkpt lat="22.4342695733" lon="114.3362655900"><ele>39.000</ele></trkpt>
      <trkpt lat="22.4342522573" lon="114.3362968422"><ele>34.000</ele></trkpt>
      <trkpt lat="22.4342247040" lon="114.3363230121"><ele>34.000</ele></trkpt>
      <trkpt lat="22.4342130050" lon="114.3363293992"><ele>33.000</ele></trkpt>
      <trkpt lat="22.4341935526" lon="114.3363367003"><ele>33.000</ele></trkpt>
      <trkpt lat="22.4341900474" lon="114.3363481344"><ele>33.000</ele></trkpt>
      <trkpt lat="22.4341883539" lon="114.3363603341"><ele>33.000</ele></trkpt>
      <trkpt lat="22.4341895735" lon="114.3363744323"><ele>26.000</ele></trkpt>
      <trkpt lat="22.4341918148" lon="114.3363808616"><ele>26.000</ele></trkpt>
      <trkpt lat="22.4342007691" lon="114.3363922021"><ele>26.000</ele></trkpt>
      <trkpt lat="22.4342293616" lon="114.3364074060"><ele>26.000</ele></trkpt>
      <trkpt lat="22.4343320055" lon="114.3364966466"><ele>18.000</ele></trkpt>
      <trkpt lat="22.4343734592" lon="114.3365081254"><ele>19.000</ele></trkpt>
      <trkpt lat="22.4344196654" lon="114.3365262354"><ele>24.000</ele></trkpt>
      <trkpt lat="22.4344434389" lon="114.3365482015"><ele>24.000</ele></trkpt>
      <trkpt lat="22.4344569442" lon="114.3365580348"><ele>25.000</ele></trkpt>
      <trkpt lat="22.4344691215" lon="114.3365746897"><ele>24.000</ele></trkpt>
      <trkpt lat="22.4344823459" lon="114.3365963863"><ele>24.000</ele></trkpt>
      <trkpt lat="22.4345286936" lon="114.3366932309"><ele>14.000</ele></trkpt>
      <trkpt lat="22.4345359549" lon="114.3367060937"><ele>14.000</ele></trkpt>
      <trkpt lat="22.4345563389" lon="114.3367348304"><ele>17.000</ele></trkpt>
      <trkpt lat="22.4345761657" lon="114.3367826748"><ele>17.000</ele></trkpt>
      <trkpt lat="22.4345833999" lon="114.3367954890"><ele>12.000</ele></trkpt>
      <trkpt lat="22.4345932165" lon="114.3368077427"><ele>12.000</ele></trkpt>
      <trkpt lat="22.4346085015" lon="114.3368213549"><ele>9.000</ele></trkpt>
      <trkpt lat="22.4346421035" lon="114.3368343780"><ele>7.000</ele></trkpt>
    </trkseg>
  </trk>
</gpx>
