<?xml version="1.0" encoding="UTF-8"?>
<gpx xmlns:xsi="http://www.w3.org/2001/XMLSchema-instance"
     xsi:schemaLocation="http://www.topografix.com/GPX/1/1 http://www.topografix.com/GPX/1/1/gpx.xsd"
     version="1.1" creator="json3d_batch_to_gpx"
     xmlns="http://www.topografix.com/GPX/1/1">
  <metadata>
    <name>TaiMeiTukFamilyWalk</name>
  </metadata>
  <trk>
    <name>TaiMeiTukFamilyWalk</name>
    <type>hike</type>
    <trkseg>
      <trkpt lat="22.4692972317" lon="114.2336263755"><ele>6.000</ele></trkpt>
      <trkpt lat="22.4693323525" lon="114.2336569078"><ele>7.000</ele></trkpt>
      <trkpt lat="22.4693429194" lon="114.2336660942"><ele>8.000</ele></trkpt>
      <trkpt lat="22.4693834954" lon="114.2336874053"><ele>8.000</ele></trkpt>
      <trkpt lat="22.4694240714" lon="114.2337087164"><ele>11.000</ele></trkpt>
      <trkpt lat="22.4694384499" lon="114.2337162683"><ele>12.000</ele></trkpt>
      <trkpt lat="22.4694384328" lon="114.2337648502"><ele>12.000</ele></trkpt>
      <trkpt lat="22.4694384156" lon="114.2338134321"><ele>11.000</ele></trkpt>
      <trkpt lat="22.4694383985" lon="114.2338620140"><ele>10.000</ele></trkpt>
      <trkpt lat="22.4694383910" lon="114.2338830208"><ele>10.000</ele></trkpt>
      <trkpt lat="22.4694581292" lon="114.2339267149"><ele>10.000</ele></trkpt>
      <trkpt lat="22.4694778674" lon="114.2339704090"><ele>18.000</ele></trkpt>
      <trkpt lat="22.4694976056" lon="114.2340141030"><ele>19.000</ele></trkpt>
      <trkpt lat="22.4695173437" lon="114.2340577971"><ele>23.000</ele></trkpt>
      <trkpt lat="22.4695370819" lon="114.2341014912"><ele>24.000</ele></trkpt>
      <trkpt lat="22.4695568200" lon="114.2341451854"><ele>27.000</ele></trkpt>
      <trkpt lat="22.4695672083" lon="114.2341681817"><ele>27.000</ele></trkpt>
      <trkpt lat="22.4695366266" lon="114.2342039237"><ele>27.000</ele></trkpt>
      <trkpt lat="22.4695294364" lon="114.2342123272"><ele>27.000</ele></trkpt>
      <trkpt lat="22.4695221664" lon="114.2342390928"><ele>27.000</ele></trkpt>
      <trkpt lat="22.4695221491" lon="114.2342876748"><ele>29.000</ele></trkpt>
      <trkpt lat="22.4695221484" lon="114.2342896569"><ele>29.000</ele></trkpt>
      <trkpt lat="22.4695348128" lon="114.2343362887"><ele>32.000</ele></trkpt>
      <trkpt lat="22.4695404110" lon="114.2343569019"><ele>34.000</ele></trkpt>
      <trkpt lat="22.4695576983" lon="114.2343989810"><ele>35.000</ele></trkpt>
      <trkpt lat="22.4695754799" lon="114.2344222203"><ele>35.000</ele></trkpt>
      <trkpt lat="22.4695944459" lon="114.2344417095"><ele>38.000</ele></trkpt>
      <trkpt lat="22.4696212149" lon="114.2344591323"><ele>36.000</ele></trkpt>
      <trkpt lat="22.4696543449" lon="114.2344921403"><ele>37.000</ele></trkpt>
      <trkpt lat="22.4696555183" lon="114.2344933094"><ele>37.000</ele></trkpt>
      <trkpt lat="22.4696796750" lon="114.2345343537"><ele>37.000</ele></trkpt>
      <trkpt lat="22.4697037837" lon="114.2345753164"><ele>38.000</ele></trkpt>
      <trkpt lat="22.4697121653" lon="114.2346230540"><ele>40.000</ele></trkpt>
      <trkpt lat="22.4697126605" lon="114.2346258745"><ele>40.000</ele></trkpt>
      <trkpt lat="22.4697050239" lon="114.2346422726"><ele>42.000</ele></trkpt>
      <trkpt lat="22.4696897786" lon="114.2346477269"><ele>42.000</ele></trkpt>
      <trkpt lat="22.4696669080" lon="114.2346381565"><ele>42.000</ele></trkpt>
      <trkpt lat="22.4696258644" lon="114.2346179086"><ele>42.000</ele></trkpt>
      <trkpt lat="22.4696059183" lon="114.2346080686"><ele>42.000</ele></trkpt>
      <trkpt lat="22.4695664800" lon="114.2345844136"><ele>42.000</ele></trkpt>
      <trkpt lat="22.4695270418" lon="114.2345607586"><ele>43.000</ele></trkpt>
      <trkpt lat="22.4694876036" lon="114.2345371036"><ele>44.000</ele></trkpt>
      <trkpt lat="22.4694481653" lon="114.2345134486"><ele>44.000</ele></trkpt>
      <trkpt lat="22.4694087271" lon="114.2344897936"><ele>45.000</ele></trkpt>
      <trkpt lat="22.4693692889" lon="114.2344661387"><ele>45.000</ele></trkpt>
      <trkpt lat="22.4693575717" lon="114.2344591107"><ele>45.000</ele></trkpt>
      <trkpt lat="22.4693213412" lon="114.2344301183"><ele>45.000</ele></trkpt>
      <trkpt lat="22.4692851107" lon="114.2344011259"><ele>45.000</ele></trkpt>
      <trkpt lat="22.4692488802" lon="114.2343721336"><ele>45.000</ele></trkpt>
      <trkpt lat="22.4692126497" lon="114.2343431412"><ele>46.000</ele></trkpt>
      <trkpt lat="22.4691764192" lon="114.2343141489"><ele>46.000</ele></trkpt>
      <trkpt lat="22.4691401887" lon="114.2342851565"><ele>46.000</ele></trkpt>
      <trkpt lat="22.4691039581" lon="114.2342561642"><ele>46.000</ele></trkpt>
      <trkpt lat="22.4690677276" lon="114.2342271719"><ele>46.000</ele></trkpt>
      <trkpt lat="22.4690314971" lon="114.2341981797"><ele>46.000</ele></trkpt>
      <trkpt lat="22.4690060091" lon="114.2341777838"><ele>46.000</ele></trkpt>
      <trkpt lat="22.4689657224" lon="114.2341558465"><ele>46.000</ele></trkpt>
      <trkpt lat="22.4689254357" lon="114.2341339093"><ele>46.000</ele></trkpt>
      <trkpt lat="22.4689166342" lon="114.2341291167"><ele>46.000</ele></trkpt>
      <trkpt lat="22.4688721170" lon="114.2341209985"><ele>46.000</ele></trkpt>
      <trkpt lat="22.4688275997" lon="114.2341128803"><ele>46.000</ele></trkpt>
      <trkpt lat="22.4687830824" lon="114.2341047622"><ele>46.000</ele></trkpt>
      <trkpt lat="22.4687733577" lon="114.2341029888"><ele>46.000</ele></trkpt>
      <trkpt lat="22.4687282056" lon="114.2341029702"><ele>46.000</ele></trkpt>
      <trkpt lat="22.4687138292" lon="114.2341029643"><ele>46.000</ele></trkpt>
      <trkpt lat="22.4686707959" lon="114.2341176718"><ele>46.000</ele></trkpt>
      <trkpt lat="22.4686653299" lon="114.2341195399"><ele>46.000</ele></trkpt>
      <trkpt lat="22.4686387577" lon="114.2341327820"><ele>45.000</ele></trkpt>
      <trkpt lat="22.4686132658" lon="114.2341553329"><ele>45.000</ele></trkpt>
      <trkpt lat="22.4686039321" lon="114.2341702825"><ele>44.000</ele></trkpt>
      <trkpt lat="22.4685997635" lon="114.2341859435"><ele>44.000</ele></trkpt>
      <trkpt lat="22.4686080493" lon="114.2341976065"><ele>44.000</ele></trkpt>
      <trkpt lat="22.4686192454" lon="114.2342020709"><ele>44.000</ele></trkpt>
      <trkpt lat="22.4686567121" lon="114.2342036992"><ele>45.000</ele></trkpt>
      <trkpt lat="22.4687012860" lon="114.2342114493"><ele>45.000</ele></trkpt>
      <trkpt lat="22.4687458598" lon="114.2342191995"><ele>45.000</ele></trkpt>
      <trkpt lat="22.4687904337" lon="114.2342269496"><ele>45.000</ele></trkpt>
      <trkpt lat="22.4688350076" lon="114.2342346998"><ele>45.000</ele></trkpt>
      <trkpt lat="22.4688644713" lon="114.2342398227"><ele>45.000</ele></trkpt>
      <trkpt lat="22.4689067856" lon="114.2342567741"><ele>45.000</ele></trkpt>
      <trkpt lat="22.4689490999" lon="114.2342737255"><ele>45.000</ele></trkpt>
      <trkpt lat="22.4689682883" lon="114.2342814126"><ele>46.000</ele></trkpt>
      <trkpt lat="22.4690057684" lon="114.2343085034"><ele>46.000</ele></trkpt>
      <trkpt lat="22.4690432486" lon="114.2343355943"><ele>47.000</ele></trkpt>
      <trkpt lat="22.4690647264" lon="114.2343511186"><ele>47.000</ele></trkpt>
      <trkpt lat="22.4690984746" lon="114.2343833934"><ele>47.000</ele></trkpt>
      <trkpt lat="22.4691322227" lon="114.2344156682"><ele>48.000</ele></trkpt>
      <trkpt lat="22.4691659708" lon="114.2344479430"><ele>48.000</ele></trkpt>
      <trkpt lat="22.4691997189" lon="114.2344802178"><ele>48.000</ele></trkpt>
      <trkpt lat="22.4692334670" lon="114.2345124926"><ele>48.000</ele></trkpt>
      <trkpt lat="22.4692672151" lon="114.2345447674"><ele>48.000</ele></trkpt>
      <trkpt lat="22.4693009632" lon="114.2345770423"><ele>48.000</ele></trkpt>
      <trkpt lat="22.4693347113" lon="114.2346093172"><ele>48.000</ele></trkpt>
      <trkpt lat="22.4693507396" lon="114.2346246459"><ele>48.000</ele></trkpt>
      <trkpt lat="22.4693851486" lon="114.2346561025"><ele>48.000</ele></trkpt>
      <trkpt lat="22.4694195576" lon="114.2346875591"><ele>48.000</ele></trkpt>
      <trkpt lat="22.4694539666" lon="114.2347190157"><ele>48.000</ele></trkpt>
      <trkpt lat="22.4694757429" lon="114.2347389236"><ele>48.000</ele></trkpt>
      <trkpt lat="22.4695076697" lon="114.2347732769"><ele>48.000</ele></trkpt>
      <trkpt lat="22.4695250390" lon="114.2347919664"><ele>48.000</ele></trkpt>
      <trkpt lat="22.4695502141" lon="114.2348322960"><ele>48.000</ele></trkpt>
      <trkpt lat="22.4695753892" lon="114.2348726256"><ele>49.000</ele></trkpt>
      <trkpt lat="22.4696005642" lon="114.2349129553"><ele>48.000</ele></trkpt>
      <trkpt lat="22.4696085494" lon="114.2349257473"><ele>49.000</ele></trkpt>
      <trkpt lat="22.4696407450" lon="114.2349598089"><ele>49.000</ele></trkpt>
      <trkpt lat="22.4696729406" lon="114.2349938706"><ele>49.000</ele></trkpt>
      <trkpt lat="22.4697051361" lon="114.2350279322"><ele>50.000</ele></trkpt>
      <trkpt lat="22.4697373317" lon="114.2350619939"><ele>50.000</ele></trkpt>
      <trkpt lat="22.4697581897" lon="114.2350840608"><ele>51.000</ele></trkpt>
      <trkpt lat="22.4697924023" lon="114.2351157645"><ele>51.000</ele></trkpt>
      <trkpt lat="22.4697985241" lon="114.2351214373"><ele>51.000</ele></trkpt>
      <trkpt lat="22.4698327595" lon="114.2351531125"><ele>52.000</ele></trkpt>
      <trkpt lat="22.4698362259" lon="114.2351563197"><ele>52.000</ele></trkpt>
      <trkpt lat="22.4698674543" lon="114.2351914084"><ele>52.000</ele></trkpt>
      <trkpt lat="22.4698840307" lon="114.2352100341"><ele>52.000</ele></trkpt>
      <trkpt lat="22.4699201419" lon="114.2352391985"><ele>52.000</ele></trkpt>
      <trkpt lat="22.4699463922" lon="114.2352603990"><ele>52.000</ele></trkpt>
      <trkpt lat="22.4699873349" lon="114.2352399160"><ele>52.000</ele></trkpt>
      <trkpt lat="22.4700282777" lon="114.2352194329"><ele>52.000</ele></trkpt>
      <trkpt lat="22.4700692204" lon="114.2351989498"><ele>52.000</ele></trkpt>
      <trkpt lat="22.4701101632" lon="114.2351784667"><ele>52.000</ele></trkpt>
      <trkpt lat="22.4701511059" lon="114.2351579836"><ele>52.000</ele></trkpt>
      <trkpt lat="22.4701720392" lon="114.2351475109"><ele>52.000</ele></trkpt>
      <trkpt lat="22.4702137736" lon="114.2351289695"><ele>51.000</ele></trkpt>
      <trkpt lat="22.4702555080" lon="114.2351104281"><ele>51.000</ele></trkpt>
      <trkpt lat="22.4702972424" lon="114.2350918867"><ele>51.000</ele></trkpt>
      <trkpt lat="22.4703145089" lon="114.2350842157"><ele>51.000</ele></trkpt>
      <trkpt lat="22.4703575826" lon="114.2350696455"><ele>50.000</ele></trkpt>
      <trkpt lat="22.4704006563" lon="114.2350550754"><ele>50.000</ele></trkpt>
      <trkpt lat="22.4704437299" lon="114.2350405052"><ele>50.000</ele></trkpt>
      <trkpt lat="22.4704868036" lon="114.2350259350"><ele>50.000</ele></trkpt>
      <trkpt lat="22.4705298773" lon="114.2350113648"><ele>50.000</ele></trkpt>
      <trkpt lat="22.4705370098" lon="114.2350089522"><ele>50.000</ele></trkpt>
      <trkpt lat="22.4705819861" lon="114.2350046694"><ele>51.000</ele></trkpt>
      <trkpt lat="22.4705837960" lon="114.2350044971"><ele>51.000</ele></trkpt>
      <trkpt lat="22.4706277322" lon="114.2349932989"><ele>51.000</ele></trkpt>
      <trkpt lat="22.4706451417" lon="114.2349888617"><ele>52.000</ele></trkpt>
      <trkpt lat="22.4706836167" lon="114.2349676234"><ele>54.000</ele></trkpt>
      <trkpt lat="22.4707228984" lon="114.2349436686"><ele>54.000</ele></trkpt>
      <trkpt lat="22.4707487661" lon="114.2349278939"><ele>54.000</ele></trkpt>
      <trkpt lat="22.4707890613" lon="114.2349059745"><ele>55.000</ele></trkpt>
      <trkpt lat="22.4708293565" lon="114.2348840551"><ele>55.000</ele></trkpt>
      <trkpt lat="22.4708413460" lon="114.2348775332"><ele>55.000</ele></trkpt>
      <trkpt lat="22.4708843193" lon="114.2348626236"><ele>56.000</ele></trkpt>
      <trkpt lat="22.4709142126" lon="114.2348522521"><ele>57.000</ele></trkpt>
      <trkpt lat="22.4709591675" lon="114.2348477167"><ele>57.000</ele></trkpt>
      <trkpt lat="22.4709943966" lon="114.2348441625"><ele>57.000</ele></trkpt>
      <trkpt lat="22.4710290491" lon="114.2348130165"><ele>58.000</ele></trkpt>
      <trkpt lat="22.4710373050" lon="114.2348055961"><ele>58.000</ele></trkpt>
      <trkpt lat="22.4710728999" lon="114.2347757059"><ele>59.000</ele></trkpt>
      <trkpt lat="22.4711084949" lon="114.2347458157"><ele>58.000</ele></trkpt>
      <trkpt lat="22.4711440899" lon="114.2347159254"><ele>57.000</ele></trkpt>
      <trkpt lat="22.4711672287" lon="114.2346964950"><ele>57.000</ele></trkpt>
      <trkpt lat="22.4711871128" lon="114.2346737374"><ele>54.000</ele></trkpt>
      <trkpt lat="22.4712025181" lon="114.2346579747"><ele>54.000</ele></trkpt>
      <trkpt lat="22.4711820050" lon="114.2346390280"><ele>54.000</ele></trkpt>
      <trkpt lat="22.4711406700" lon="114.2346194782"><ele>54.000</ele></trkpt>
      <trkpt lat="22.4711297575" lon="114.2346143171"><ele>55.000</ele></trkpt>
      <trkpt lat="22.4710879517" lon="114.2345959630"><ele>55.000</ele></trkpt>
      <trkpt lat="22.4710461458" lon="114.2345776089"><ele>51.000</ele></trkpt>
      <trkpt lat="22.4710043399" lon="114.2345592548"><ele>51.000</ele></trkpt>
      <trkpt lat="22.4709625340" lon="114.2345409007"><ele>51.000</ele></trkpt>
      <trkpt lat="22.4709207281" lon="114.2345225466"><ele>47.000</ele></trkpt>
      <trkpt lat="22.4709104238" lon="114.2345180227"><ele>47.000</ele></trkpt>
      <trkpt lat="22.4709475575" lon="114.2344903846"><ele>47.000</ele></trkpt>
      <trkpt lat="22.4709645007" lon="114.2344777739"><ele>43.000</ele></trkpt>
      <trkpt lat="22.4709728239" lon="114.2344609977"><ele>43.000</ele></trkpt>
      <trkpt lat="22.4709705189" lon="114.2344445618"><ele>43.000</ele></trkpt>
      <trkpt lat="22.4709321566" lon="114.2344189400"><ele>41.000</ele></trkpt>
      <trkpt lat="22.4708937942" lon="114.2343933182"><ele>41.000</ele></trkpt>
      <trkpt lat="22.4708689689" lon="114.2343767376"><ele>39.000</ele></trkpt>
      <trkpt lat="22.4708287749" lon="114.2343546040"><ele>38.000</ele></trkpt>
      <trkpt lat="22.4708134517" lon="114.2343461661"><ele>36.000</ele></trkpt>
      <trkpt lat="22.4707798706" lon="114.2343378252"><ele>34.000</ele></trkpt>
      <trkpt lat="22.4707347185" lon="114.2343378065"><ele>33.000</ele></trkpt>
      <trkpt lat="22.4707307993" lon="114.2343378049"><ele>33.000</ele></trkpt>
      <trkpt lat="22.4706865610" lon="114.2343280800"><ele>34.000</ele></trkpt>
      <trkpt lat="22.4706675190" lon="114.2343238940"><ele>35.000</ele></trkpt>
      <trkpt lat="22.4706297393" lon="114.2342972888"><ele>35.000</ele></trkpt>
      <trkpt lat="22.4706005481" lon="114.2342767318"><ele>34.000</ele></trkpt>
      <trkpt lat="22.4705715765" lon="114.2342394690"><ele>34.000</ele></trkpt>
      <trkpt lat="22.4705476270" lon="114.2342086656"><ele>34.000</ele></trkpt>
      <trkpt lat="22.4705287076" lon="114.2341645538"><ele>35.000</ele></trkpt>
      <trkpt lat="22.4705097882" lon="114.2341204421"><ele>34.000</ele></trkpt>
      <trkpt lat="22.4705089095" lon="114.2341183934"><ele>34.000</ele></trkpt>
      <trkpt lat="22.4704848735" lon="114.2340772669"><ele>35.000</ele></trkpt>
      <trkpt lat="22.4704608375" lon="114.2340361403"><ele>35.000</ele></trkpt>
      <trkpt lat="22.4704532166" lon="114.2340231007"><ele>36.000</ele></trkpt>
      <trkpt lat="22.4704220517" lon="114.2339879466"><ele>36.000</ele></trkpt>
      <trkpt lat="22.4703936216" lon="114.2339558772"><ele>38.000</ele></trkpt>
      <trkpt lat="22.4703573240" lon="114.2339269819"><ele>39.000</ele></trkpt>
      <trkpt lat="22.4703464960" lon="114.2339183621"><ele>39.000</ele></trkpt>
      <trkpt lat="22.4703061117" lon="114.2338966334"><ele>41.000</ele></trkpt>
      <trkpt lat="22.4702922606" lon="114.2338891809"><ele>41.000</ele></trkpt>
      <trkpt lat="22.4702514817" lon="114.2338820032"><ele>42.000</ele></trkpt>
      <trkpt lat="22.4702071337" lon="114.2338728753"><ele>43.000</ele></trkpt>
      <trkpt lat="22.4701717308" lon="114.2338655886"><ele>44.000</ele></trkpt>
      <trkpt lat="22.4701265860" lon="114.2338664627"><ele>45.000</ele></trkpt>
      <trkpt lat="22.4701225869" lon="114.2338665401"><ele>45.000</ele></trkpt>
      <trkpt lat="22.4701026012" lon="114.2338705740"><ele>45.000</ele></trkpt>
      <trkpt lat="22.4700831796" lon="114.2338881042"><ele>46.000</ele></trkpt>
      <trkpt lat="22.4700504006" lon="114.2339215155"><ele>46.000</ele></trkpt>
      <trkpt lat="22.4700299712" lon="114.2339423389"><ele>46.000</ele></trkpt>
      <trkpt lat="22.4699969361" lon="114.2339754569"><ele>47.000</ele></trkpt>
      <trkpt lat="22.4699639010" lon="114.2340085749"><ele>48.000</ele></trkpt>
      <trkpt lat="22.4699434561" lon="114.2340290711"><ele>47.000</ele></trkpt>
      <trkpt lat="22.4699255797" lon="114.2340691537"><ele>46.000</ele></trkpt>
      <trkpt lat="22.4699247897" lon="114.2341067268"><ele>45.000</ele></trkpt>
      <trkpt lat="22.4699511907" lon="114.2341434851"><ele>45.000</ele></trkpt>
      <trkpt lat="22.4699850627" lon="114.2341756095"><ele>43.000</ele></trkpt>
      <trkpt lat="22.4699969956" lon="114.2341869267"><ele>43.000</ele></trkpt>
      <trkpt lat="22.4700406170" lon="114.2341994694"><ele>41.000</ele></trkpt>
      <trkpt lat="22.4700499897" lon="114.2342021644"><ele>41.000</ele></trkpt>
      <trkpt lat="22.4700948923" lon="114.2342072655"><ele>41.000</ele></trkpt>
      <trkpt lat="22.4701397948" lon="114.2342123666"><ele>41.000</ele></trkpt>
      <trkpt lat="22.4701845015" lon="114.2342174454"><ele>40.000</ele></trkpt>
      <trkpt lat="22.4702074678" lon="114.2342120623"><ele>40.000</ele></trkpt>
      <trkpt lat="22.4702216707" lon="114.2342174607"><ele>40.000</ele></trkpt>
      <trkpt lat="22.4702216653" lon="114.2342326864"><ele>40.000</ele></trkpt>
      <trkpt lat="22.4702092695" lon="114.2342498114"><ele>39.000</ele></trkpt>
      <trkpt lat="22.4701774013" lon="114.2342745363"><ele>39.000</ele></trkpt>
      <trkpt lat="22.4701342133" lon="114.2342887091"><ele>39.000</ele></trkpt>
      <trkpt lat="22.4701136752" lon="114.2342954489"><ele>39.000</ele></trkpt>
      <trkpt lat="22.4700697325" lon="114.2343066176"><ele>39.000</ele></trkpt>
      <trkpt lat="22.4700257897" lon="114.2343177863"><ele>39.000</ele></trkpt>
      <trkpt lat="22.4699818469" lon="114.2343289550"><ele>39.000</ele></trkpt>
      <trkpt lat="22.4699791368" lon="114.2343296438"><ele>39.000</ele></trkpt>
      <trkpt lat="22.4699343260" lon="114.2343356058"><ele>39.000</ele></trkpt>
      <trkpt lat="22.4698895151" lon="114.2343415678"><ele>38.000</ele></trkpt>
      <trkpt lat="22.4698622866" lon="114.2343451905"><ele>36.000</ele></trkpt>
      <trkpt lat="22.4698177063" lon="114.2343374835"><ele>36.000</ele></trkpt>
      <trkpt lat="22.4697731259" lon="114.2343297764"><ele>35.000</ele></trkpt>
      <trkpt lat="22.4697285456" lon="114.2343220694"><ele>33.000</ele></trkpt>
      <trkpt lat="22.4696947374" lon="114.2343162247"><ele>33.000</ele></trkpt>
      <trkpt lat="22.4696643541" lon="114.2343047954"><ele>30.000</ele></trkpt>
      <trkpt lat="22.4696345736" lon="114.2342743319"><ele>29.000</ele></trkpt>
      <trkpt lat="22.4696091120" lon="114.2342342111"><ele>29.000</ele></trkpt>
      <trkpt lat="22.4695836504" lon="114.2341940902"><ele>27.000</ele></trkpt>
      <trkpt lat="22.4695672083" lon="114.2341681817"><ele>27.000</ele></trkpt>
      <trkpt lat="22.4695474701" lon="114.2341244876"><ele>24.000</ele></trkpt>
      <trkpt lat="22.4695277320" lon="114.2340807935"><ele>23.000</ele></trkpt>
      <trkpt lat="22.4695079938" lon="114.2340370994"><ele>19.000</ele></trkpt>
      <trkpt lat="22.4694882557" lon="114.2339934053"><ele>18.000</ele></trkpt>
      <trkpt lat="22.4694685175" lon="114.2339497112"><ele>17.000</ele></trkpt>
      <trkpt lat="22.4694487793" lon="114.2339060172"><ele>10.000</ele></trkpt>
      <trkpt lat="22.4694383910" lon="114.2338830208"><ele>10.000</ele></trkpt>
      <trkpt lat="22.4694384082" lon="114.2338344389"><ele>11.000</ele></trkpt>
      <trkpt lat="22.4694384254" lon="114.2337858570"><ele>12.000</ele></trkpt>
      <trkpt lat="22.4694384425" lon="114.2337372751"><ele>12.000</ele></trkpt>
      <trkpt lat="22.4694384499" lon="114.2337162683"><ele>12.000</ele></trkpt>
      <trkpt lat="22.4693978739" lon="114.2336949571"><ele>8.000</ele></trkpt>
      <trkpt lat="22.4693572979" lon="114.2336736460"><ele>8.000</ele></trkpt>
      <trkpt lat="22.4693429194" lon="114.2336660942"><ele>8.000</ele></trkpt>
      <trkpt lat="22.4693069043" lon="114.2336367928"><ele>6.000</ele></trkpt>
      <trkpt lat="22.4692961480" lon="114.2336280416"><ele>6.000</ele></trkpt>
    </trkseg>
  </trk>
</gpx>
