<?xml version="1.0" encoding="UTF-8"?>
<gpx xmlns:xsi="http://www.w3.org/2001/XMLSchema-instance"
     xsi:schemaLocation="http://www.topografix.com/GPX/1/1 http://www.topografix.com/GPX/1/1/gpx.xsd"
     version="1.1" creator="json3d_batch_to_gpx"
     xmlns="http://www.topografix.com/GPX/1/1">
  <metadata>
    <name>SheungYiuFamilyWalk</name>
  </metadata>
  <trk>
    <name>SheungYiuFamilyWalk</name>
    <type>hike</type>
    <trkseg>
      <trkpt lat="22.3911663047" lon="114.3210090158"><ele>16.000</ele></trkpt>
      <trkpt lat="22.3912567410" lon="114.3211350889"><ele>21.000</ele></trkpt>
      <trkpt lat="22.3912840524" lon="114.3213270740"><ele>24.000</ele></trkpt>
      <trkpt lat="22.3912924582" lon="114.3213861630"><ele>24.000</ele></trkpt>
      <trkpt lat="22.3912704832" lon="114.3215789385"><ele>28.000</ele></trkpt>
      <trkpt lat="22.3912662902" lon="114.3216157217"><ele>29.000</ele></trkpt>
      <trkpt lat="22.3912443050" lon="114.3216414523"><ele>29.000</ele></trkpt>
      <trkpt lat="22.3910765914" lon="114.3216305481"><ele>33.000</ele></trkpt>
      <trkpt lat="22.3910605992" lon="114.3216498368"><ele>36.000</ele></trkpt>
      <trkpt lat="22.3910764934" lon="114.3217298906"><ele>38.000</ele></trkpt>
      <trkpt lat="22.3910754020" lon="114.3218393121"><ele>38.000</ele></trkpt>
      <trkpt lat="22.3910733062" lon="114.3219508883"><ele>40.000</ele></trkpt>
      <trkpt lat="22.3910613103" lon="114.3220753212"><ele>44.000</ele></trkpt>
      <trkpt lat="22.3910761180" lon="114.3221482850"><ele>46.000</ele></trkpt>
      <trkpt lat="22.3911616527" lon="114.3222812580"><ele>46.000</ele></trkpt>
      <trkpt lat="22.3912006190" lon="114.3223016624"><ele>47.000</ele></trkpt>
      <trkpt lat="22.3913360096" lon="114.3222756225"><ele>48.000</ele></trkpt>
      <trkpt lat="22.3913836492" lon="114.3222814889"><ele>48.000</ele></trkpt>
      <trkpt lat="22.3914632177" lon="114.3223106656"><ele>48.000</ele></trkpt>
      <trkpt lat="22.3915351509" lon="114.3223951091"><ele>48.000</ele></trkpt>
      <trkpt lat="22.3915875779" lon="114.3224998866"><ele>49.000</ele></trkpt>
      <trkpt lat="22.3916130139" lon="114.3226921698"><ele>50.000</ele></trkpt>
      <trkpt lat="22.3916268368" lon="114.3227966650"><ele>54.000</ele></trkpt>
      <trkpt lat="22.3916765965" lon="114.3228548953"><ele>54.000</ele></trkpt>
      <trkpt lat="22.3917323661" lon="114.3228578668"><ele>54.000</ele></trkpt>
      <trkpt lat="22.3918634956" lon="114.3227503576"><ele>58.000</ele></trkpt>
      <trkpt lat="22.3919856211" lon="114.3226072699"><ele>60.000</ele></trkpt>
      <trkpt lat="22.3919924880" lon="114.3225992243"><ele>60.000</ele></trkpt>
      <trkpt lat="22.3920344565" lon="114.3224103212"><ele>56.000</ele></trkpt>
      <trkpt lat="22.3920433281" lon="114.3223703895"><ele>54.000</ele></trkpt>
      <trkpt lat="22.3920869389" lon="114.3223273181"><ele>54.000</ele></trkpt>
      <trkpt lat="22.3921459885" lon="114.3222880986"><ele>54.000</ele></trkpt>
      <trkpt lat="22.3922976027" lon="114.3222766225"><ele>56.000</ele></trkpt>
      <trkpt lat="22.3924518973" lon="114.3222971469"><ele>59.000</ele></trkpt>
      <trkpt lat="22.3925709766" lon="114.3223438157"><ele>57.000</ele></trkpt>
      <trkpt lat="22.3927031433" lon="114.3224761847"><ele>56.000</ele></trkpt>
      <trkpt lat="22.3927181042" lon="114.3224911685"><ele>57.000</ele></trkpt>
      <trkpt lat="22.3927451068" lon="114.3225697492"><ele>57.000</ele></trkpt>
      <trkpt lat="22.3927802645" lon="114.3226076006"><ele>58.000</ele></trkpt>
      <trkpt lat="22.3928452336" lon="114.3226134852"><ele>58.000</ele></trkpt>
      <trkpt lat="22.3928939910" lon="114.3225815381"><ele>58.000</ele></trkpt>
      <trkpt lat="22.3929779701" lon="114.3225263504"><ele>58.000</ele></trkpt>
      <trkpt lat="22.3931133228" lon="114.3225323083"><ele>56.000</ele></trkpt>
      <trkpt lat="22.3932675780" lon="114.3225964746"><ele>57.000</ele></trkpt>
      <trkpt lat="22.3934155833" lon="114.3227077857"><ele>62.000</ele></trkpt>
      <trkpt lat="22.3934380123" lon="114.3227246540"><ele>65.000</ele></trkpt>
      <trkpt lat="22.3935165484" lon="114.3226869210"><ele>66.000</ele></trkpt>
      <trkpt lat="22.3935950620" lon="114.3226840895"><ele>66.000</ele></trkpt>
      <trkpt lat="22.3937570605" lon="114.3227699599"><ele>66.000</ele></trkpt>
      <trkpt lat="22.3937655394" lon="114.3227744543"><ele>66.000</ele></trkpt>
      <trkpt lat="22.3938439874" lon="114.3228443590"><ele>67.000</ele></trkpt>
      <trkpt lat="22.3938547230" lon="114.3229461912"><ele>70.000</ele></trkpt>
      <trkpt lat="22.3938248379" lon="114.3230596148"><ele>66.000</ele></trkpt>
      <trkpt lat="22.3938627020" lon="114.3231003828"><ele>64.000</ele></trkpt>
      <trkpt lat="22.3940389103" lon="114.3230577660"><ele>62.000</ele></trkpt>
      <trkpt lat="22.3941741053" lon="114.3230250685"><ele>64.000</ele></trkpt>
      <trkpt lat="22.3943400132" lon="114.3231018235"><ele>62.000</ele></trkpt>
      <trkpt lat="22.3943460101" lon="114.3231045979"><ele>62.000</ele></trkpt>
      <trkpt lat="22.3944473910" lon="114.3231094818"><ele>64.000</ele></trkpt>
      <trkpt lat="22.3945090386" lon="114.3230834039"><ele>66.000</ele></trkpt>
      <trkpt lat="22.3945999275" lon="114.3230068197"><ele>62.000</ele></trkpt>
      <trkpt lat="22.3947069899" lon="114.3229703399"><ele>62.000</ele></trkpt>
      <trkpt lat="22.3948594208" lon="114.3229844347"><ele>63.000</ele></trkpt>
      <trkpt lat="22.3950263978" lon="114.3230508395"><ele>62.000</ele></trkpt>
      <trkpt lat="22.3951278601" lon="114.3231154183"><ele>64.000</ele></trkpt>
      <trkpt lat="22.3952162572" lon="114.3231181230"><ele>65.000</ele></trkpt>
      <trkpt lat="22.3953013993" lon="114.3231051505"><ele>64.000</ele></trkpt>
      <trkpt lat="22.3953922205" lon="114.3231034975"><ele>64.000</ele></trkpt>
      <trkpt lat="22.3955165245" lon="114.3231241959"><ele>64.000</ele></trkpt>
      <trkpt lat="22.3956322481" lon="114.3231564708"><ele>62.000</ele></trkpt>
      <trkpt lat="22.3956682577" lon="114.3231708714"><ele>64.000</ele></trkpt>
      <trkpt lat="22.3956958658" lon="114.3231887690"><ele>63.000</ele></trkpt>
      <trkpt lat="22.3957283025" lon="114.3232195487"><ele>64.000</ele></trkpt>
      <trkpt lat="22.3957640723" lon="114.3232992863"><ele>64.000</ele></trkpt>
      <trkpt lat="22.3957708400" lon="114.3233946675"><ele>66.000</ele></trkpt>
      <trkpt lat="22.3957710267" lon="114.3234876334"><ele>66.000</ele></trkpt>
      <trkpt lat="22.3957706997" lon="114.3235494256"><ele>66.000</ele></trkpt>
      <trkpt lat="22.3957792908" lon="114.3235758978"><ele>68.000</ele></trkpt>
      <trkpt lat="22.3958263011" lon="114.3236083438"><ele>68.000</ele></trkpt>
      <trkpt lat="22.3959542758" lon="114.3237038135"><ele>66.000</ele></trkpt>
      <trkpt lat="22.3960997861" lon="114.3238188678"><ele>66.000</ele></trkpt>
      <trkpt lat="22.3962007575" lon="114.3238987057"><ele>69.000</ele></trkpt>
      <trkpt lat="22.3963393226" lon="114.3240232816"><ele>70.000</ele></trkpt>
      <trkpt lat="22.3963697873" lon="114.3240506707"><ele>68.000</ele></trkpt>
      <trkpt lat="22.3964573705" lon="114.3241537026"><ele>68.000</ele></trkpt>
      <trkpt lat="22.3965401042" lon="114.3242270615"><ele>67.000</ele></trkpt>
      <trkpt lat="22.3966158893" lon="114.3242752511"><ele>68.000</ele></trkpt>
      <trkpt lat="22.3966953446" lon="114.3243192106"><ele>66.000</ele></trkpt>
      <trkpt lat="22.3967599075" lon="114.3243247558"><ele>70.000</ele></trkpt>
      <trkpt lat="22.3969247894" lon="114.3242518909"><ele>70.000</ele></trkpt>
      <trkpt lat="22.3970604899" lon="114.3241534349"><ele>68.000</ele></trkpt>
      <trkpt lat="22.3971421074" lon="114.3240841334"><ele>68.000</ele></trkpt>
      <trkpt lat="22.3972865558" lon="114.3240678539"><ele>72.000</ele></trkpt>
      <trkpt lat="22.3974408506" lon="114.3240680261"><ele>72.000</ele></trkpt>
      <trkpt lat="22.3974850260" lon="114.3240698984"><ele>72.000</ele></trkpt>
      <trkpt lat="22.3975037234" lon="114.3240553122"><ele>72.000</ele></trkpt>
      <trkpt lat="22.3975207370" lon="114.3240352373"><ele>72.000</ele></trkpt>
      <trkpt lat="22.3975479727" lon="114.3239859711"><ele>73.000</ele></trkpt>
      <trkpt lat="22.3975446147" lon="114.3239348372"><ele>72.000</ele></trkpt>
      <trkpt lat="22.3975140617" lon="114.3238982903"><ele>70.000</ele></trkpt>
      <trkpt lat="22.3973969385" lon="114.3237666949"><ele>68.000</ele></trkpt>
      <trkpt lat="22.3973664459" lon="114.3236735407"><ele>69.000</ele></trkpt>
      <trkpt lat="22.3973749776" lon="114.3236260709"><ele>69.000</ele></trkpt>
      <trkpt lat="22.3974208963" lon="114.3235877786"><ele>68.000</ele></trkpt>
      <trkpt lat="22.3975584760" lon="114.3236372179"><ele>70.000</ele></trkpt>
      <trkpt lat="22.3976092493" lon="114.3237324523"><ele>72.000</ele></trkpt>
      <trkpt lat="22.3976194743" lon="114.3238290135"><ele>71.000</ele></trkpt>
      <trkpt lat="22.3976600243" lon="114.3239150115"><ele>74.000</ele></trkpt>
      <trkpt lat="22.3977561491" lon="114.3240393211"><ele>74.000</ele></trkpt>
      <trkpt lat="22.3978129821" lon="114.3240446639"><ele>76.000</ele></trkpt>
      <trkpt lat="22.3979132577" lon="114.3240137319"><ele>76.000</ele></trkpt>
      <trkpt lat="22.3980932898" lon="114.3239982114"><ele>78.000</ele></trkpt>
      <trkpt lat="22.3982480170" lon="114.3239848724"><ele>74.000</ele></trkpt>
      <trkpt lat="22.3983057707" lon="114.3240104936"><ele>74.000</ele></trkpt>
      <trkpt lat="22.3983363187" lon="114.3240525179"><ele>74.000</ele></trkpt>
      <trkpt lat="22.3983481636" lon="114.3241054868"><ele>74.000</ele></trkpt>
      <trkpt lat="22.3983140755" lon="114.3242223083"><ele>76.000</ele></trkpt>
      <trkpt lat="22.3983123287" lon="114.3242661341"><ele>76.000</ele></trkpt>
      <trkpt lat="22.3983275431" lon="114.3243574472"><ele>76.000</ele></trkpt>
      <trkpt lat="22.3984107474" lon="114.3244196201"><ele>72.000</ele></trkpt>
      <trkpt lat="22.3984242950" lon="114.3244671038"><ele>72.000</ele></trkpt>
      <trkpt lat="22.3984123601" lon="114.3245127446"><ele>72.000</ele></trkpt>
      <trkpt lat="22.3983357957" lon="114.3246258697"><ele>72.000</ele></trkpt>
      <trkpt lat="22.3982372187" lon="114.3246458584"><ele>71.000</ele></trkpt>
      <trkpt lat="22.3981093918" lon="114.3246363615"><ele>71.000</ele></trkpt>
      <trkpt lat="22.3980032900" lon="114.3245997442"><ele>72.000</ele></trkpt>
      <trkpt lat="22.3978529556" lon="114.3245446480"><ele>72.000</ele></trkpt>
      <trkpt lat="22.3977215163" lon="114.3244114393"><ele>72.000</ele></trkpt>
      <trkpt lat="22.3977140869" lon="114.3244039098"><ele>72.000</ele></trkpt>
      <trkpt lat="22.3976480371" lon="114.3243651500"><ele>72.000</ele></trkpt>
      <trkpt lat="22.3976138388" lon="114.3243946656"><ele>72.000</ele></trkpt>
      <trkpt lat="22.3975849127" lon="114.3244457654"><ele>71.000</ele></trkpt>
      <trkpt lat="22.3975372444" lon="114.3245406630"><ele>68.000</ele></trkpt>
      <trkpt lat="22.3974947053" lon="114.3245862712"><ele>66.000</ele></trkpt>
      <trkpt lat="22.3973154229" lon="114.3245627672"><ele>66.000</ele></trkpt>
      <trkpt lat="22.3972840402" lon="114.3245586529"><ele>66.000</ele></trkpt>
      <trkpt lat="22.3971701696" lon="114.3245841025"><ele>66.000</ele></trkpt>
      <trkpt lat="22.3970868535" lon="114.3246442636"><ele>65.000</ele></trkpt>
      <trkpt lat="22.3970307599" lon="114.3246697742"><ele>66.000</ele></trkpt>
      <trkpt lat="22.3968812216" lon="114.3246823962"><ele>64.000</ele></trkpt>
      <trkpt lat="22.3968081242" lon="114.3247170077"><ele>64.000</ele></trkpt>
      <trkpt lat="22.3967622026" lon="114.3247680892"><ele>65.000</ele></trkpt>
      <trkpt lat="22.3966735215" lon="114.3248982433"><ele>66.000</ele></trkpt>
      <trkpt lat="22.3966604788" lon="114.3249406388"><ele>69.000</ele></trkpt>
      <trkpt lat="22.3966703609" lon="114.3249869818"><ele>66.000</ele></trkpt>
      <trkpt lat="22.3967286080" lon="114.3250850015"><ele>66.000</ele></trkpt>
      <trkpt lat="22.3967730048" lon="114.3251506873"><ele>64.000</ele></trkpt>
      <trkpt lat="22.3968609007" lon="114.3252172545"><ele>62.000</ele></trkpt>
      <trkpt lat="22.3969580163" lon="114.3253727484"><ele>56.000</ele></trkpt>
      <trkpt lat="22.3969633713" lon="114.3254318378"><ele>56.000</ele></trkpt>
      <trkpt lat="22.3971382832" lon="114.3254802384"><ele>50.000</ele></trkpt>
      <trkpt lat="22.3971742608" lon="114.3254901939"><ele>48.000</ele></trkpt>
      <trkpt lat="22.3973167906" lon="114.3254981728"><ele>46.000</ele></trkpt>
      <trkpt lat="22.3974381347" lon="114.3255555697"><ele>40.000</ele></trkpt>
      <trkpt lat="22.3974622773" lon="114.3255805924"><ele>40.000</ele></trkpt>
      <trkpt lat="22.3974769290" lon="114.3256544629"><ele>40.000</ele></trkpt>
      <trkpt lat="22.3974686281" lon="114.3257251333"><ele>40.000</ele></trkpt>
      <trkpt lat="22.3974711345" lon="114.3257491618"><ele>39.000</ele></trkpt>
      <trkpt lat="22.3974821039" lon="114.3257716456"><ele>38.000</ele></trkpt>
      <trkpt lat="22.3975406240" lon="114.3258081061"><ele>38.000</ele></trkpt>
      <trkpt lat="22.3976010566" lon="114.3258173089"><ele>38.000</ele></trkpt>
      <trkpt lat="22.3976289809" lon="114.3258444625"><ele>38.000</ele></trkpt>
      <trkpt lat="22.3976615423" lon="114.3259060382"><ele>31.000</ele></trkpt>
      <trkpt lat="22.3976932455" lon="114.3259581152"><ele>34.000</ele></trkpt>
    </trkseg>
  </trk>
</gpx>
