<?xml version="1.0" encoding="UTF-8"?>
<gpx xmlns:xsi="http://www.w3.org/2001/XMLSchema-instance"
     xsi:schemaLocation="http://www.topografix.com/GPX/1/1 http://www.topografix.com/GPX/1/1/gpx.xsd"
     version="1.1" creator="json3d_batch_to_gpx"
     xmlns="http://www.topografix.com/GPX/1/1">
  <metadata>
    <name>HoPuiReservoirFamilyWalk</name>
  </metadata>
  <trk>
    <name>HoPuiReservoirFamilyWalk</name>
    <type>hike</type>
    <trkseg>
      <trkpt lat="22.4070392916" lon="114.0737344051"><ele>168.000</ele></trkpt>
      <trkpt lat="22.4068816195" lon="114.0737078493"><ele>168.000</ele></trkpt>
      <trkpt lat="22.4067246837" lon="114.0736117105"><ele>172.000</ele></trkpt>
      <trkpt lat="22.4066547780" lon="114.0735688864"><ele>172.000</ele></trkpt>
      <trkpt lat="22.4065926325" lon="114.0735329581"><ele>174.000</ele></trkpt>
      <trkpt lat="22.4065462075" lon="114.0735538431"><ele>170.000</ele></trkpt>
      <trkpt lat="22.4064764234" lon="114.0735424296"><ele>168.000</ele></trkpt>
      <trkpt lat="22.4063954854" lon="114.0733687862"><ele>170.000</ele></trkpt>
      <trkpt lat="22.4063822498" lon="114.0733403909"><ele>170.000</ele></trkpt>
      <trkpt lat="22.4063234986" lon="114.0731567153"><ele>170.000</ele></trkpt>
      <trkpt lat="22.4062647472" lon="114.0729730399"><ele>168.000</ele></trkpt>
      <trkpt lat="22.4062059956" lon="114.0727893647"><ele>170.000</ele></trkpt>
      <trkpt lat="22.4061472437" lon="114.0726056896"><ele>171.000</ele></trkpt>
      <trkpt lat="22.4060884917" lon="114.0724220147"><ele>169.000</ele></trkpt>
      <trkpt lat="22.4060411060" lon="114.0722738747"><ele>170.000</ele></trkpt>
      <trkpt lat="22.4060631633" lon="114.0720810894"><ele>174.000</ele></trkpt>
      <trkpt lat="22.4060684077" lon="114.0720352517"><ele>174.000</ele></trkpt>
      <trkpt lat="22.4060621629" lon="114.0718411286"><ele>171.000</ele></trkpt>
      <trkpt lat="22.4060559179" lon="114.0716470055"><ele>172.000</ele></trkpt>
      <trkpt lat="22.4060537763" lon="114.0715804378"><ele>171.000</ele></trkpt>
      <trkpt lat="22.4060390819" lon="114.0713868425"><ele>170.000</ele></trkpt>
      <trkpt lat="22.4060243872" lon="114.0711932473"><ele>172.000</ele></trkpt>
      <trkpt lat="22.4060200356" lon="114.0711359176"><ele>172.000</ele></trkpt>
      <trkpt lat="22.4059905156" lon="114.0709442905"><ele>172.000</ele></trkpt>
      <trkpt lat="22.4059816427" lon="114.0708866931"><ele>172.000</ele></trkpt>
      <trkpt lat="22.4060150008" lon="114.0707453384"><ele>174.000</ele></trkpt>
      <trkpt lat="22.4059671652" lon="114.0706708558"><ele>172.000</ele></trkpt>
      <trkpt lat="22.4059145922" lon="114.0706580469"><ele>170.000</ele></trkpt>
      <trkpt lat="22.4058285920" lon="114.0706812393"><ele>170.000</ele></trkpt>
      <trkpt lat="22.4057851671" lon="114.0707816811"><ele>171.000</ele></trkpt>
      <trkpt lat="22.4057782366" lon="114.0709757769"><ele>169.000</ele></trkpt>
      <trkpt lat="22.4057753877" lon="114.0710555615"><ele>169.000</ele></trkpt>
      <trkpt lat="22.4057559853" lon="114.0712486762"><ele>170.000</ele></trkpt>
      <trkpt lat="22.4057549017" lon="114.0712594608"><ele>170.000</ele></trkpt>
      <trkpt lat="22.4057081376" lon="114.0714470756"><ele>169.000</ele></trkpt>
      <trkpt lat="22.4056953246" lon="114.0714984806"><ele>168.000</ele></trkpt>
      <trkpt lat="22.4056609027" lon="114.0716891590"><ele>170.000</ele></trkpt>
      <trkpt lat="22.4056264807" lon="114.0718798373"><ele>169.000</ele></trkpt>
      <trkpt lat="22.4056048560" lon="114.0719996243"><ele>167.000</ele></trkpt>
      <trkpt lat="22.4056216464" lon="114.0720998272"><ele>168.000</ele></trkpt>
      <trkpt lat="22.4056261486" lon="114.0722024217"><ele>168.000</ele></trkpt>
      <trkpt lat="22.4055357970" lon="114.0722503050"><ele>169.000</ele></trkpt>
      <trkpt lat="22.4054855215" lon="114.0722027134"><ele>170.000</ele></trkpt>
      <trkpt lat="22.4054114276" lon="114.0721642252"><ele>170.000</ele></trkpt>
      <trkpt lat="22.4053633313" lon="114.0722060914"><ele>168.000</ele></trkpt>
      <trkpt lat="22.4053876362" lon="114.0723209895"><ele>166.000</ele></trkpt>
      <trkpt lat="22.4054369419" lon="114.0725078497"><ele>164.000</ele></trkpt>
      <trkpt lat="22.4054850208" lon="114.0726900611"><ele>164.000</ele></trkpt>
      <trkpt lat="22.4054763179" lon="114.0727500494"><ele>164.000</ele></trkpt>
      <trkpt lat="22.4053927771" lon="114.0728837320"><ele>166.000</ele></trkpt>
      <trkpt lat="22.4054023115" lon="114.0729652206"><ele>168.000</ele></trkpt>
      <trkpt lat="22.4055190214" lon="114.0731134572"><ele>166.000</ele></trkpt>
      <trkpt lat="22.4055831373" lon="114.0731948928"><ele>166.000</ele></trkpt>
      <trkpt lat="22.4056081296" lon="114.0733717995"><ele>164.000</ele></trkpt>
      <trkpt lat="22.4056057998" lon="114.0735660219"><ele>164.000</ele></trkpt>
      <trkpt lat="22.4056044695" lon="114.0736769200"><ele>164.000</ele></trkpt>
      <trkpt lat="22.4055603989" lon="114.0738652873"><ele>164.000</ele></trkpt>
      <trkpt lat="22.4055372967" lon="114.0739640309"><ele>164.000</ele></trkpt>
      <trkpt lat="22.4054366901" lon="114.0741253433"><ele>164.000</ele></trkpt>
      <trkpt lat="22.4053792933" lon="114.0742173728"><ele>164.000</ele></trkpt>
      <trkpt lat="22.4052409586" lon="114.0743422529"><ele>164.000</ele></trkpt>
      <trkpt lat="22.4052169124" lon="114.0743639602"><ele>164.000</ele></trkpt>
      <trkpt lat="22.4051106580" lon="114.0745210280"><ele>164.000</ele></trkpt>
      <trkpt lat="22.4050951708" lon="114.0745439216"><ele>164.000</ele></trkpt>
      <trkpt lat="22.4050494859" lon="114.0745716106"><ele>164.000</ele></trkpt>
      <trkpt lat="22.4049404381" lon="114.0745485712"><ele>166.000</ele></trkpt>
      <trkpt lat="22.4048228018" lon="114.0745646781"><ele>166.000</ele></trkpt>
      <trkpt lat="22.4046744341" lon="114.0746554420"><ele>166.000</ele></trkpt>
      <trkpt lat="22.4046014140" lon="114.0748019630"><ele>168.000</ele></trkpt>
      <trkpt lat="22.4045169061" lon="114.0749736258"><ele>166.000</ele></trkpt>
      <trkpt lat="22.4045011910" lon="114.0750055481"><ele>166.000</ele></trkpt>
      <trkpt lat="22.4044636027" lon="114.0751955320"><ele>166.000</ele></trkpt>
      <trkpt lat="22.4044468864" lon="114.0752800213"><ele>165.000</ele></trkpt>
      <trkpt lat="22.4043730642" lon="114.0754572920"><ele>168.000</ele></trkpt>
      <trkpt lat="22.4042992419" lon="114.0756345624"><ele>170.000</ele></trkpt>
      <trkpt lat="22.4042779770" lon="114.0756856260"><ele>170.000</ele></trkpt>
      <trkpt lat="22.4042709165" lon="114.0758567664"><ele>170.000</ele></trkpt>
      <trkpt lat="22.4044100272" lon="114.0759414629"><ele>176.000</ele></trkpt>
      <trkpt lat="22.4044588020" lon="114.0759938475"><ele>178.000</ele></trkpt>
      <trkpt lat="22.4045047642" lon="114.0761325725"><ele>182.000</ele></trkpt>
      <trkpt lat="22.4046331156" lon="114.0762692260"><ele>179.000</ele></trkpt>
      <trkpt lat="22.4046697360" lon="114.0763082151"><ele>178.000</ele></trkpt>
      <trkpt lat="22.4047724840" lon="114.0764318540"><ele>177.000</ele></trkpt>
      <trkpt lat="22.4049530341" lon="114.0764268593"><ele>175.000</ele></trkpt>
      <trkpt lat="22.4049579626" lon="114.0764267230"><ele>175.000</ele></trkpt>
      <trkpt lat="22.4050826950" lon="114.0764435933"><ele>174.000</ele></trkpt>
      <trkpt lat="22.4051916850" lon="114.0765021021"><ele>174.000</ele></trkpt>
      <trkpt lat="22.4052835122" lon="114.0766269197"><ele>174.000</ele></trkpt>
      <trkpt lat="22.4053636194" lon="114.0768010068"><ele>174.000</ele></trkpt>
      <trkpt lat="22.4054026610" lon="114.0768858511"><ele>174.000</ele></trkpt>
      <trkpt lat="22.4054590833" lon="114.0770703681"><ele>174.000</ele></trkpt>
      <trkpt lat="22.4054931594" lon="114.0771818069"><ele>174.000</ele></trkpt>
      <trkpt lat="22.4055710149" lon="114.0773570719"><ele>176.000</ele></trkpt>
      <trkpt lat="22.4055821654" lon="114.0773821734"><ele>178.000</ele></trkpt>
      <trkpt lat="22.4057291221" lon="114.0774950897"><ele>178.000</ele></trkpt>
      <trkpt lat="22.4057585807" lon="114.0775177247"><ele>178.000</ele></trkpt>
      <trkpt lat="22.4058359134" lon="114.0775854368"><ele>178.000</ele></trkpt>
      <trkpt lat="22.4059183137" lon="114.0777582823"><ele>178.000</ele></trkpt>
      <trkpt lat="22.4059404294" lon="114.0778046732"><ele>179.000</ele></trkpt>
      <trkpt lat="22.4060633453" lon="114.0779469906"><ele>177.000</ele></trkpt>
      <trkpt lat="22.4060971960" lon="114.0779861846"><ele>176.000</ele></trkpt>
      <trkpt lat="22.4062506414" lon="114.0780693320"><ele>174.000</ele></trkpt>
      <trkpt lat="22.4063495962" lon="114.0781617561"><ele>174.000</ele></trkpt>
      <trkpt lat="22.4064975044" lon="114.0782732267"><ele>172.000</ele></trkpt>
      <trkpt lat="22.4065131205" lon="114.0782849957"><ele>172.000</ele></trkpt>
      <trkpt lat="22.4066206880" lon="114.0783635511"><ele>172.000</ele></trkpt>
      <trkpt lat="22.4067081384" lon="114.0783665731"><ele>172.000</ele></trkpt>
      <trkpt lat="22.4067926830" lon="114.0783048422"><ele>176.000</ele></trkpt>
      <trkpt lat="22.4068299253" lon="114.0782539366"><ele>178.000</ele></trkpt>
      <trkpt lat="22.4068499561" lon="114.0781891676"><ele>178.000</ele></trkpt>
      <trkpt lat="22.4068642383" lon="114.0781012754"><ele>179.000</ele></trkpt>
      <trkpt lat="22.4068943140" lon="114.0780519170"><ele>179.000</ele></trkpt>
      <trkpt lat="22.4069401408" lon="114.0779732541"><ele>178.000</ele></trkpt>
      <trkpt lat="22.4069544116" lon="114.0778668604"><ele>176.000</ele></trkpt>
      <trkpt lat="22.4069185469" lon="114.0778267995"><ele>174.000</ele></trkpt>
      <trkpt lat="22.4068668885" lon="114.0777466633"><ele>176.000</ele></trkpt>
      <trkpt lat="22.4068467313" lon="114.0776048326"><ele>176.000</ele></trkpt>
      <trkpt lat="22.4068397583" lon="114.0774107370"><ele>176.000</ele></trkpt>
      <trkpt lat="22.4068379800" lon="114.0773612371"><ele>176.000</ele></trkpt>
      <trkpt lat="22.4068419958" lon="114.0771670447"><ele>172.000</ele></trkpt>
      <trkpt lat="22.4068421568" lon="114.0771592600"><ele>172.000</ele></trkpt>
      <trkpt lat="22.4068693536" lon="114.0770929435"><ele>174.000</ele></trkpt>
      <trkpt lat="22.4069710837" lon="114.0770034474"><ele>173.000</ele></trkpt>
      <trkpt lat="22.4070914871" lon="114.0769740679"><ele>174.000</ele></trkpt>
      <trkpt lat="22.4072663821" lon="114.0769677748"><ele>174.000</ele></trkpt>
      <trkpt lat="22.4073409078" lon="114.0769338022"><ele>176.000</ele></trkpt>
      <trkpt lat="22.4074010785" lon="114.0768690040"><ele>172.000</ele></trkpt>
      <trkpt lat="22.4074655809" lon="114.0768535400"><ele>174.000</ele></trkpt>
      <trkpt lat="22.4075286407" lon="114.0768242013"><ele>173.000</ele></trkpt>
      <trkpt lat="22.4075443811" lon="114.0767779364"><ele>176.000</ele></trkpt>
      <trkpt lat="22.4074912920" lon="114.0767024262"><ele>174.000</ele></trkpt>
      <trkpt lat="22.4074711730" lon="114.0766238088"><ele>177.000</ele></trkpt>
      <trkpt lat="22.4074797430" lon="114.0765729241"><ele>178.000</ele></trkpt>
      <trkpt lat="22.4074911639" lon="114.0764958264"><ele>178.000</ele></trkpt>
      <trkpt lat="22.4074898776" lon="114.0763015900"><ele>178.000</ele></trkpt>
      <trkpt lat="22.4074895813" lon="114.0762568495"><ele>178.000</ele></trkpt>
      <trkpt lat="22.4074579329" lon="114.0760811073"><ele>176.000</ele></trkpt>
      <trkpt lat="22.4074270838" lon="114.0758897205"><ele>171.000</ele></trkpt>
      <trkpt lat="22.4074233930" lon="114.0758668230"><ele>171.000</ele></trkpt>
      <trkpt lat="22.4074192631" lon="114.0756726326"><ele>169.000</ele></trkpt>
      <trkpt lat="22.4074174579" lon="114.0755877522"><ele>170.000</ele></trkpt>
      <trkpt lat="22.4073915732" lon="114.0754181848"><ele>170.000</ele></trkpt>
      <trkpt lat="22.4073326803" lon="114.0752347543"><ele>168.000</ele></trkpt>
      <trkpt lat="22.4073139714" lon="114.0751191333"><ele>168.000</ele></trkpt>
      <trkpt lat="22.4073669905" lon="114.0750820917"><ele>168.000</ele></trkpt>
      <trkpt lat="22.4074601334" lon="114.0750172687"><ele>166.000</ele></trkpt>
      <trkpt lat="22.4073737823" lon="114.0748466666"><ele>160.000</ele></trkpt>
      <trkpt lat="22.4072874311" lon="114.0746760648"><ele>156.000</ele></trkpt>
      <trkpt lat="22.4072807106" lon="114.0746627873"><ele>156.000</ele></trkpt>
      <trkpt lat="22.4072189975" lon="114.0745533660"><ele>160.000</ele></trkpt>
      <trkpt lat="22.4071873893" lon="114.0744454631"><ele>158.000</ele></trkpt>
      <trkpt lat="22.4072202988" lon="114.0743452233"><ele>160.000</ele></trkpt>
      <trkpt lat="22.4072847345" lon="114.0742249156"><ele>158.000</ele></trkpt>
      <trkpt lat="22.4073477428" lon="114.0741154029"><ele>162.000</ele></trkpt>
      <trkpt lat="22.4074035916" lon="114.0740197699"><ele>160.000</ele></trkpt>
      <trkpt lat="22.4074135722" lon="114.0739334224"><ele>162.000</ele></trkpt>
      <trkpt lat="22.4073961663" lon="114.0737695306"><ele>164.000</ele></trkpt>
      <trkpt lat="22.4073296763" lon="114.0735889312"><ele>166.000</ele></trkpt>
      <trkpt lat="22.4072951278" lon="114.0734950911"><ele>168.000</ele></trkpt>
      <trkpt lat="22.4071589846" lon="114.0736227280"><ele>170.000</ele></trkpt>
      <trkpt lat="22.4070398650" lon="114.0737344047"><ele>168.000</ele></trkpt>
    </trkseg>
  </trk>
</gpx>
