<?xml version="1.0" encoding="UTF-8"?>
<gpx xmlns:xsi="http://www.w3.org/2001/XMLSchema-instance"
     xsi:schemaLocation="http://www.topografix.com/GPX/1/1 http://www.topografix.com/GPX/1/1/gpx.xsd"
     version="1.1" creator="json3d_batch_to_gpx"
     xmlns="http://www.topografix.com/GPX/1/1">
  <metadata>
    <name>PokFuLamFamilyWalk</name>
  </metadata>
  <trk>
    <name>PokFuLamFamilyWalk</name>
    <type>hike</type>
    <trkseg>
      <trkpt lat="22.2649598952" lon="114.1363269123"><ele>181.000</ele></trkpt>
      <trkpt lat="22.2649820202" lon="114.1362179695"><ele>186.000</ele></trkpt>
      <trkpt lat="22.2650125396" lon="114.1361540086"><ele>192.000</ele></trkpt>
      <trkpt lat="22.2651082062" lon="114.1360653123"><ele>198.000</ele></trkpt>
      <trkpt lat="22.2652435959" lon="114.1359368787"><ele>204.000</ele></trkpt>
      <trkpt lat="22.2653789855" lon="114.1358084448"><ele>206.000</ele></trkpt>
      <trkpt lat="22.2654181183" lon="114.1357713223"><ele>206.000</ele></trkpt>
      <trkpt lat="22.2655517528" lon="114.1356407838"><ele>212.000</ele></trkpt>
      <trkpt lat="22.2656853872" lon="114.1355102450"><ele>219.000</ele></trkpt>
      <trkpt lat="22.2656897202" lon="114.1355060125"><ele>219.000</ele></trkpt>
      <trkpt lat="22.2658670169" lon="114.1355430265"><ele>222.000</ele></trkpt>
      <trkpt lat="22.2659653864" lon="114.1355635631"><ele>222.000</ele></trkpt>
      <trkpt lat="22.2661437657" lon="114.1355864858"><ele>225.000</ele></trkpt>
      <trkpt lat="22.2662307058" lon="114.1355947655"><ele>231.000</ele></trkpt>
      <trkpt lat="22.2662737764" lon="114.1357832132"><ele>232.000</ele></trkpt>
      <trkpt lat="22.2663040979" lon="114.1359158804"><ele>234.000</ele></trkpt>
      <trkpt lat="22.2663192023" lon="114.1360443345"><ele>233.000</ele></trkpt>
      <trkpt lat="22.2662506523" lon="114.1362238610"><ele>234.000</ele></trkpt>
      <trkpt lat="22.2662419506" lon="114.1362466498"><ele>234.000</ele></trkpt>
      <trkpt lat="22.2662017158" lon="114.1364147051"><ele>232.000</ele></trkpt>
      <trkpt lat="22.2662040682" lon="114.1364324596"><ele>232.000</ele></trkpt>
      <trkpt lat="22.2662405664" lon="114.1364905659"><ele>232.000</ele></trkpt>
      <trkpt lat="22.2663872663" lon="114.1366037594"><ele>234.000</ele></trkpt>
      <trkpt lat="22.2665194863" lon="114.1367057804"><ele>230.000</ele></trkpt>
      <trkpt lat="22.2665453243" lon="114.1367479781"><ele>230.000</ele></trkpt>
      <trkpt lat="22.2665605998" lon="114.1368031799"><ele>234.000</ele></trkpt>
      <trkpt lat="22.2666650345" lon="114.1369614982"><ele>233.000</ele></trkpt>
      <trkpt lat="22.2667229410" lon="114.1370492819"><ele>235.000</ele></trkpt>
      <trkpt lat="22.2668393555" lon="114.1371976423"><ele>238.000</ele></trkpt>
      <trkpt lat="22.2668394727" lon="114.1371977917"><ele>238.000</ele></trkpt>
      <trkpt lat="22.2668659704" lon="114.1373536039"><ele>238.000</ele></trkpt>
      <trkpt lat="22.2669403942" lon="114.1375304108"><ele>237.000</ele></trkpt>
      <trkpt lat="22.2669581361" lon="114.1375725600"><ele>237.000</ele></trkpt>
      <trkpt lat="22.2670093524" lon="114.1376243562"><ele>238.000</ele></trkpt>
      <trkpt lat="22.2670667961" lon="114.1376603360"><ele>239.000</ele></trkpt>
      <trkpt lat="22.2670951544" lon="114.1376689632"><ele>240.000</ele></trkpt>
      <trkpt lat="22.2672757642" lon="114.1376678113"><ele>239.000</ele></trkpt>
      <trkpt lat="22.2673019560" lon="114.1376676443"><ele>239.000</ele></trkpt>
      <trkpt lat="22.2673598339" lon="114.1376321175"><ele>238.000</ele></trkpt>
      <trkpt lat="22.2674098468" lon="114.1375623435"><ele>242.000</ele></trkpt>
      <trkpt lat="22.2674398254" lon="114.1375492369"><ele>241.000</ele></trkpt>
      <trkpt lat="22.2676051014" lon="114.1376118682"><ele>242.000</ele></trkpt>
      <trkpt lat="22.2677560487" lon="114.1377184219"><ele>246.000</ele></trkpt>
      <trkpt lat="22.2678682090" lon="114.1377975960"><ele>246.000</ele></trkpt>
      <trkpt lat="22.2678169580" lon="114.1379772018"><ele>242.000</ele></trkpt>
      <trkpt lat="22.2677262104" lon="114.1380207906"><ele>239.000</ele></trkpt>
      <trkpt lat="22.2676729436" lon="114.1380796988"><ele>239.000</ele></trkpt>
      <trkpt lat="22.2675831255" lon="114.1382346707"><ele>237.000</ele></trkpt>
      <trkpt lat="22.2675396259" lon="114.1383534399"><ele>236.000</ele></trkpt>
      <trkpt lat="22.2675463333" lon="114.1384577387"><ele>236.000</ele></trkpt>
      <trkpt lat="22.2675906939" lon="114.1385431076"><ele>236.000</ele></trkpt>
      <trkpt lat="22.2677123012" lon="114.1386865802"><ele>236.000</ele></trkpt>
      <trkpt lat="22.2677408250" lon="114.1387202326"><ele>237.000</ele></trkpt>
      <trkpt lat="22.2677842871" lon="114.1388255889"><ele>236.000</ele></trkpt>
      <trkpt lat="22.2678325287" lon="114.1389022249"><ele>236.000</ele></trkpt>
      <trkpt lat="22.2679271858" lon="114.1389704074"><ele>236.000</ele></trkpt>
      <trkpt lat="22.2679675529" lon="114.1389706876"><ele>236.000</ele></trkpt>
      <trkpt lat="22.2680114297" lon="114.1389188649"><ele>237.000</ele></trkpt>
      <trkpt lat="22.2680438391" lon="114.1388732548"><ele>236.000</ele></trkpt>
      <trkpt lat="22.2681808886" lon="114.1387468668"><ele>236.000</ele></trkpt>
      <trkpt lat="22.2682598959" lon="114.1386740055"><ele>240.000</ele></trkpt>
      <trkpt lat="22.2683039631" lon="114.1386640000"><ele>242.000</ele></trkpt>
      <trkpt lat="22.2683199583" lon="114.1387104704"><ele>244.000</ele></trkpt>
      <trkpt lat="22.2682943317" lon="114.1387978963"><ele>243.000</ele></trkpt>
      <trkpt lat="22.2682388883" lon="114.1389825760"><ele>241.000</ele></trkpt>
      <trkpt lat="22.2682324296" lon="114.1390040897"><ele>241.000</ele></trkpt>
      <trkpt lat="22.2682322773" lon="114.1391258553"><ele>238.000</ele></trkpt>
      <trkpt lat="22.2682594538" lon="114.1393176948"><ele>237.000</ele></trkpt>
      <trkpt lat="22.2682795847" lon="114.1394598006"><ele>238.000</ele></trkpt>
      <trkpt lat="22.2682912702" lon="114.1396161037"><ele>240.000</ele></trkpt>
      <trkpt lat="22.2682673437" lon="114.1396368733"><ele>240.000</ele></trkpt>
      <trkpt lat="22.2681602130" lon="114.1395183379"><ele>238.000</ele></trkpt>
      <trkpt lat="22.2680684523" lon="114.1394780002"><ele>236.000</ele></trkpt>
      <trkpt lat="22.2678933451" lon="114.1395255472"><ele>236.000</ele></trkpt>
      <trkpt lat="22.2678763824" lon="114.1395301531"><ele>236.000</ele></trkpt>
      <trkpt lat="22.2678599600" lon="114.1395886629"><ele>234.000</ele></trkpt>
      <trkpt lat="22.2678610434" lon="114.1397827076"><ele>236.000</ele></trkpt>
      <trkpt lat="22.2678610900" lon="114.1397910549"><ele>236.000</ele></trkpt>
      <trkpt lat="22.2679051786" lon="114.1398745811"><ele>236.000</ele></trkpt>
      <trkpt lat="22.2679307429" lon="114.1399077566"><ele>237.000</ele></trkpt>
      <trkpt lat="22.2679805100" lon="114.1399442246"><ele>238.000</ele></trkpt>
      <trkpt lat="22.2680137721" lon="114.1400734521"><ele>238.000</ele></trkpt>
      <trkpt lat="22.2678766032" lon="114.1401996903"><ele>240.000</ele></trkpt>
      <trkpt lat="22.2678543240" lon="114.1402201942"><ele>238.000</ele></trkpt>
      <trkpt lat="22.2677979038" lon="114.1403151954"><ele>238.000</ele></trkpt>
      <trkpt lat="22.2677717412" lon="114.1404325042"><ele>237.000</ele></trkpt>
      <trkpt lat="22.2677714783" lon="114.1404680151"><ele>236.000</ele></trkpt>
      <trkpt lat="22.2678139435" lon="114.1405627966"><ele>236.000</ele></trkpt>
      <trkpt lat="22.2679105954" lon="114.1406701774"><ele>240.000</ele></trkpt>
      <trkpt lat="22.2679720107" lon="114.1407009183"><ele>240.000</ele></trkpt>
      <trkpt lat="22.2680757561" lon="114.1408597604"><ele>241.000</ele></trkpt>
      <trkpt lat="22.2681205250" lon="114.1409283051"><ele>239.000</ele></trkpt>
      <trkpt lat="22.2681477186" lon="114.1409797210"><ele>240.000</ele></trkpt>
      <trkpt lat="22.2681632636" lon="114.1410357971"><ele>240.000</ele></trkpt>
      <trkpt lat="22.2681669054" lon="114.1411697867"><ele>238.000</ele></trkpt>
      <trkpt lat="22.2682158655" lon="114.1412338104"><ele>239.000</ele></trkpt>
      <trkpt lat="22.2682768333" lon="114.1412833744"><ele>242.000</ele></trkpt>
      <trkpt lat="22.2683153958" lon="114.1412908355"><ele>242.000</ele></trkpt>
      <trkpt lat="22.2683697537" lon="114.1412605502"><ele>243.000</ele></trkpt>
      <trkpt lat="22.2684499262" lon="114.1411711704"><ele>244.000</ele></trkpt>
      <trkpt lat="22.2685079932" lon="114.1411704765"><ele>238.000</ele></trkpt>
      <trkpt lat="22.2686050859" lon="114.1412310923"><ele>244.000</ele></trkpt>
      <trkpt lat="22.2686317494" lon="114.1413363572"><ele>245.000</ele></trkpt>
      <trkpt lat="22.2686271551" lon="114.1413881695"><ele>242.000</ele></trkpt>
      <trkpt lat="22.2686402679" lon="114.1414723836"><ele>243.000</ele></trkpt>
      <trkpt lat="22.2687452511" lon="114.1416302849"><ele>244.000</ele></trkpt>
      <trkpt lat="22.2687588790" lon="114.1416507822"><ele>244.000</ele></trkpt>
      <trkpt lat="22.2687875109" lon="114.1416727027"><ele>244.000</ele></trkpt>
      <trkpt lat="22.2688516315" lon="114.1416862701"><ele>244.000</ele></trkpt>
      <trkpt lat="22.2689036548" lon="114.1417178872"><ele>247.000</ele></trkpt>
      <trkpt lat="22.2689177568" lon="114.1417831814"><ele>248.000</ele></trkpt>
      <trkpt lat="22.2688888664" lon="114.1418191848"><ele>248.000</ele></trkpt>
      <trkpt lat="22.2687950550" lon="114.1418979922"><ele>249.000</ele></trkpt>
      <trkpt lat="22.2686903117" lon="114.1419549717"><ele>248.000</ele></trkpt>
      <trkpt lat="22.2685765498" lon="114.1420685186"><ele>248.000</ele></trkpt>
      <trkpt lat="22.2685292619" lon="114.1422215380"><ele>248.000</ele></trkpt>
      <trkpt lat="22.2685457098" lon="114.1422782934"><ele>250.000</ele></trkpt>
      <trkpt lat="22.2685604157" lon="114.1424716982"><ele>247.000</ele></trkpt>
      <trkpt lat="22.2685644554" lon="114.1425248282"><ele>248.000</ele></trkpt>
      <trkpt lat="22.2685453358" lon="114.1427177870"><ele>248.000</ele></trkpt>
      <trkpt lat="22.2685262159" lon="114.1429107457"><ele>249.000</ele></trkpt>
      <trkpt lat="22.2685070958" lon="114.1431037044"><ele>249.000</ele></trkpt>
      <trkpt lat="22.2684879755" lon="114.1432966630"><ele>252.000</ele></trkpt>
      <trkpt lat="22.2684876761" lon="114.1432996847"><ele>253.000</ele></trkpt>
      <trkpt lat="22.2685195847" lon="114.1434475425"><ele>254.000</ele></trkpt>
      <trkpt lat="22.2685752227" lon="114.1434923547"><ele>256.000</ele></trkpt>
      <trkpt lat="22.2686287723" lon="114.1434814753"><ele>256.000</ele></trkpt>
      <trkpt lat="22.2686869247" lon="114.1434574964"><ele>260.000</ele></trkpt>
      <trkpt lat="22.2687090498" lon="114.1434575882"><ele>260.000</ele></trkpt>
      <trkpt lat="22.2688686657" lon="114.1435483971"><ele>262.000</ele></trkpt>
      <trkpt lat="22.2688903793" lon="114.1435607504"><ele>262.000</ele></trkpt>
      <trkpt lat="22.2689244624" lon="114.1436558364"><ele>265.000</ele></trkpt>
      <trkpt lat="22.2689193408" lon="114.1438498080"><ele>265.000</ele></trkpt>
      <trkpt lat="22.2689142190" lon="114.1440437796"><ele>263.000</ele></trkpt>
      <trkpt lat="22.2689090970" lon="114.1442377512"><ele>266.000</ele></trkpt>
      <trkpt lat="22.2689041811" lon="114.1444239090"><ele>268.000</ele></trkpt>
      <trkpt lat="22.2689454803" lon="114.1446128175"><ele>264.000</ele></trkpt>
      <trkpt lat="22.2689867793" lon="114.1448017261"><ele>264.000</ele></trkpt>
      <trkpt lat="22.2690145814" lon="114.1449288981"><ele>265.000</ele></trkpt>
      <trkpt lat="22.2690298979" lon="114.1451222489"><ele>265.000</ele></trkpt>
      <trkpt lat="22.2690334116" lon="114.1451666048"><ele>266.000</ele></trkpt>
      <trkpt lat="22.2690854582" lon="114.1453212509"><ele>268.000</ele></trkpt>
      <trkpt lat="22.2691521615" lon="114.1454763692"><ele>268.000</ele></trkpt>
      <trkpt lat="22.2691609146" lon="114.1455826678"><ele>270.000</ele></trkpt>
      <trkpt lat="22.2690949284" lon="114.1456805903"><ele>271.000</ele></trkpt>
      <trkpt lat="22.2689920166" lon="114.1458400583"><ele>268.000</ele></trkpt>
      <trkpt lat="22.2689805530" lon="114.1458578218"><ele>268.000</ele></trkpt>
      <trkpt lat="22.2688577669" lon="114.1460001320"><ele>269.000</ele></trkpt>
      <trkpt lat="22.2688321760" lon="114.1460297921"><ele>268.000</ele></trkpt>
      <trkpt lat="22.2688482181" lon="114.1461923536"><ele>269.000</ele></trkpt>
      <trkpt lat="22.2688860617" lon="114.1463158385"><ele>276.000</ele></trkpt>
      <trkpt lat="22.2688628000" lon="114.1464190100"><ele>278.000</ele></trkpt>
      <trkpt lat="22.2688235360" lon="114.1464737307"><ele>275.000</ele></trkpt>
      <trkpt lat="22.2687877018" lon="114.1464704493"><ele>272.000</ele></trkpt>
      <trkpt lat="22.2687391295" lon="114.1462971155"><ele>272.000</ele></trkpt>
      <trkpt lat="22.2685957534" lon="114.1461791066"><ele>275.000</ele></trkpt>
      <trkpt lat="22.2685834260" lon="114.1461689604"><ele>277.000</ele></trkpt>
      <trkpt lat="22.2685455913" lon="114.1461408218"><ele>276.000</ele></trkpt>
      <trkpt lat="22.2685324919" lon="114.1461142690"><ele>278.000</ele></trkpt>
      <trkpt lat="22.2685513844" lon="114.1459735793"><ele>269.000</ele></trkpt>
      <trkpt lat="22.2684803564" lon="114.1457951653"><ele>274.000</ele></trkpt>
      <trkpt lat="22.2684698709" lon="114.1457688269"><ele>273.000</ele></trkpt>
      <trkpt lat="22.2684625871" lon="114.1457422535"><ele>273.000</ele></trkpt>
      <trkpt lat="22.2684715703" lon="114.1455484447"><ele>271.000</ele></trkpt>
      <trkpt lat="22.2684741795" lon="114.1454921509"><ele>271.000</ele></trkpt>
      <trkpt lat="22.2685468939" lon="114.1453498773"><ele>266.000</ele></trkpt>
      <trkpt lat="22.2685483369" lon="114.1452936124"><ele>266.000</ele></trkpt>
      <trkpt lat="22.2684754595" lon="114.1451160615"><ele>265.000</ele></trkpt>
      <trkpt lat="22.2684569756" lon="114.1450710296"><ele>264.000</ele></trkpt>
      <trkpt lat="22.2684281478" lon="114.1450147036"><ele>264.000</ele></trkpt>
      <trkpt lat="22.2683358420" lon="114.1449507854"><ele>266.000</ele></trkpt>
      <trkpt lat="22.2682303614" lon="114.1449372259"><ele>262.000</ele></trkpt>
      <trkpt lat="22.2680502923" lon="114.1449522744"><ele>264.000</ele></trkpt>
      <trkpt lat="22.2680056825" lon="114.1449560025"><ele>264.000</ele></trkpt>
      <trkpt lat="22.2679586373" lon="114.1449789108"><ele>266.000</ele></trkpt>
      <trkpt lat="22.2679005723" lon="114.1449894026"><ele>264.000</ele></trkpt>
      <trkpt lat="22.2678698072" lon="114.1449555384"><ele>264.000</ele></trkpt>
      <trkpt lat="22.2678550441" lon="114.1449194585"><ele>264.000</ele></trkpt>
      <trkpt lat="22.2678854624" lon="114.1448431907"><ele>262.000</ele></trkpt>
      <trkpt lat="22.2679817956" lon="114.1447222767"><ele>260.000</ele></trkpt>
      <trkpt lat="22.2679890108" lon="114.1446756064"><ele>260.000</ele></trkpt>
      <trkpt lat="22.2679274958" lon="114.1445026070"><ele>256.000</ele></trkpt>
      <trkpt lat="22.2678680188" lon="114.1444515472"><ele>256.000</ele></trkpt>
      <trkpt lat="22.2677137186" lon="114.1443506893"><ele>254.000</ele></trkpt>
      <trkpt lat="22.2675978587" lon="114.1442749579"><ele>256.000</ele></trkpt>
      <trkpt lat="22.2675554551" lon="114.1442512260"><ele>257.000</ele></trkpt>
      <trkpt lat="22.2674261064" lon="114.1441157940"><ele>256.000</ele></trkpt>
      <trkpt lat="22.2673786880" lon="114.1440661456"><ele>255.000</ele></trkpt>
      <trkpt lat="22.2671983132" lon="114.1440561828"><ele>259.000</ele></trkpt>
      <trkpt lat="22.2671355441" lon="114.1440527159"><ele>262.000</ele></trkpt>
      <trkpt lat="22.2670833456" lon="114.1440462857"><ele>264.000</ele></trkpt>
      <trkpt lat="22.2670833430" lon="114.1440336726"><ele>264.000</ele></trkpt>
      <trkpt lat="22.2670833186" lon="114.1439126939"><ele>258.000</ele></trkpt>
      <trkpt lat="22.2669886262" lon="114.1438384446"><ele>258.000</ele></trkpt>
      <trkpt lat="22.2668786247" lon="114.1438873411"><ele>262.000</ele></trkpt>
      <trkpt lat="22.2667988750" lon="114.1438873598"><ele>260.000</ele></trkpt>
      <trkpt lat="22.2667691665" lon="114.1438099518"><ele>257.000</ele></trkpt>
      <trkpt lat="22.2667926605" lon="114.1436584055"><ele>254.000</ele></trkpt>
      <trkpt lat="22.2668022799" lon="114.1434905916"><ele>247.000</ele></trkpt>
      <trkpt lat="22.2667992803" lon="114.1432965717"><ele>243.000</ele></trkpt>
      <trkpt lat="22.2667983809" lon="114.1432383997"><ele>242.000</ele></trkpt>
      <trkpt lat="22.2667563638" lon="114.1431195368"><ele>239.000</ele></trkpt>
      <trkpt lat="22.2667095216" lon="114.1430315867"><ele>240.000</ele></trkpt>
      <trkpt lat="22.2666758964" lon="114.1428409326"><ele>237.000</ele></trkpt>
      <trkpt lat="22.2666565663" lon="114.1427313318"><ele>233.000</ele></trkpt>
      <trkpt lat="22.2666361381" lon="114.1426843290"><ele>231.000</ele></trkpt>
      <trkpt lat="22.2665899137" lon="114.1426579014"><ele>231.000</ele></trkpt>
      <trkpt lat="22.2665133518" lon="114.1426579200"><ele>232.000</ele></trkpt>
      <trkpt lat="22.2664281329" lon="114.1426307451"><ele>226.000</ele></trkpt>
      <trkpt lat="22.2663896228" lon="114.1425717159"><ele>228.000</ele></trkpt>
      <trkpt lat="22.2663472926" lon="114.1424694833"><ele>224.000</ele></trkpt>
      <trkpt lat="22.2662661058" lon="114.1423785829"><ele>227.000</ele></trkpt>
      <trkpt lat="22.2661886381" lon="114.1422803176"><ele>222.000</ele></trkpt>
      <trkpt lat="22.2661006038" lon="114.1421367163"><ele>220.000</ele></trkpt>
      <trkpt lat="22.2660407835" lon="114.1420045568"><ele>218.000</ele></trkpt>
      <trkpt lat="22.2660225522" lon="114.1418856890"><ele>214.000</ele></trkpt>
      <trkpt lat="22.2660225123" lon="114.1417004142"><ele>210.000</ele></trkpt>
      <trkpt lat="22.2660224960" lon="114.1416250469"><ele>210.000</ele></trkpt>
      <trkpt lat="22.2660680967" lon="114.1415232294"><ele>210.000</ele></trkpt>
      <trkpt lat="22.2661174229" lon="114.1414436874"><ele>206.000</ele></trkpt>
      <trkpt lat="22.2661526972" lon="114.1413223416"><ele>203.000</ele></trkpt>
      <trkpt lat="22.2661667782" lon="114.1412086466"><ele>202.000</ele></trkpt>
      <trkpt lat="22.2661632098" lon="114.1410381977"><ele>201.000</ele></trkpt>
      <trkpt lat="22.2661526749" lon="114.1409741167"><ele>200.000</ele></trkpt>
      <trkpt lat="22.2661736120" lon="114.1409103576"><ele>200.000</ele></trkpt>
      <trkpt lat="22.2662403129" lon="114.1408311213"><ele>196.000</ele></trkpt>
      <trkpt lat="22.2663177241" lon="114.1407516882"><ele>198.000</ele></trkpt>
      <trkpt lat="22.2663811952" lon="114.1406872680"><ele>194.000</ele></trkpt>
      <trkpt lat="22.2664305932" lon="114.1406075994"><ele>192.000</ele></trkpt>
      <trkpt lat="22.2664764371" lon="114.1405052476"><ele>194.000</ele></trkpt>
      <trkpt lat="22.2664975837" lon="114.1404104505"><ele>194.000</ele></trkpt>
      <trkpt lat="22.2665081463" lon="114.1403157241"><ele>192.000</ele></trkpt>
      <trkpt lat="22.2665081207" lon="114.1402020323"><ele>190.000</ele></trkpt>
      <trkpt lat="22.2664913642" lon="114.1401013752"><ele>185.000</ele></trkpt>
      <trkpt lat="22.2664657750" lon="114.1400376280"><ele>178.000</ele></trkpt>
      <trkpt lat="22.2663860614" lon="114.1398635036"><ele>183.000</ele></trkpt>
      <trkpt lat="22.2663801762" lon="114.1398506481"><ele>179.000</ele></trkpt>
      <trkpt lat="22.2663951197" lon="114.1398014341"><ele>177.000</ele></trkpt>
      <trkpt lat="22.2664209499" lon="114.1397731159"><ele>176.000</ele></trkpt>
      <trkpt lat="22.2665509790" lon="114.1396797260"><ele>182.000</ele></trkpt>
      <trkpt lat="22.2666027727" lon="114.1395742093"><ele>186.000</ele></trkpt>
      <trkpt lat="22.2665956291" lon="114.1394544554"><ele>183.000</ele></trkpt>
      <trkpt lat="22.2665963616" lon="114.1393024586"><ele>177.000</ele></trkpt>
      <trkpt lat="22.2665707195" lon="114.1391287551"><ele>181.000</ele></trkpt>
      <trkpt lat="22.2665360018" lon="114.1389955031"><ele>182.000</ele></trkpt>
      <trkpt lat="22.2665173605" lon="114.1389091672"><ele>184.000</ele></trkpt>
      <trkpt lat="22.2665133328" lon="114.1387932159"><ele>182.000</ele></trkpt>
      <trkpt lat="22.2665066216" lon="114.1387098554"><ele>176.000</ele></trkpt>
      <trkpt lat="22.2664598268" lon="114.1386036084"><ele>179.000</ele></trkpt>
      <trkpt lat="22.2663699285" lon="114.1384353070"><ele>179.000</ele></trkpt>
      <trkpt lat="22.2662800301" lon="114.1382670059"><ele>180.000</ele></trkpt>
      <trkpt lat="22.2661901314" lon="114.1380987050"><ele>182.000</ele></trkpt>
      <trkpt lat="22.2661002326" lon="114.1379304043"><ele>180.000</ele></trkpt>
      <trkpt lat="22.2660103335" lon="114.1377621038"><ele>180.000</ele></trkpt>
      <trkpt lat="22.2660016242" lon="114.1377457990"><ele>180.000</ele></trkpt>
      <trkpt lat="22.2659375663" lon="114.1375643680"><ele>179.000</ele></trkpt>
      <trkpt lat="22.2659242238" lon="114.1375265782"><ele>186.000</ele></trkpt>
      <trkpt lat="22.2658250820" lon="114.1373643803"><ele>178.000</ele></trkpt>
      <trkpt lat="22.2657814557" lon="114.1372930069"><ele>176.000</ele></trkpt>
      <trkpt lat="22.2656970979" lon="114.1371214276"><ele>182.000</ele></trkpt>
      <trkpt lat="22.2656127398" lon="114.1369498484"><ele>182.000</ele></trkpt>
      <trkpt lat="22.2655283816" lon="114.1367782695"><ele>182.000</ele></trkpt>
      <trkpt lat="22.2655041035" lon="114.1367288895"><ele>179.000</ele></trkpt>
      <trkpt lat="22.2654843891" lon="114.1366901153"><ele>180.000</ele></trkpt>
      <trkpt lat="22.2654843777" lon="114.1366442722"><ele>185.000</ele></trkpt>
      <trkpt lat="22.2654873758" lon="114.1364982234"><ele>188.000</ele></trkpt>
      <trkpt lat="22.2654666669" lon="114.1364551029"><ele>186.000</ele></trkpt>
      <trkpt lat="22.2654342461" lon="114.1364159442"><ele>186.000</ele></trkpt>
      <trkpt lat="22.2653844621" lon="114.1363874436"><ele>187.000</ele></trkpt>
      <trkpt lat="22.2653388185" lon="114.1363767164"><ele>186.000</ele></trkpt>
      <trkpt lat="22.2652847421" lon="114.1363731518"><ele>182.000</ele></trkpt>
      <trkpt lat="22.2651866446" lon="114.1363832994"><ele>182.000</ele></trkpt>
      <trkpt lat="22.2651130793" lon="114.1363767522"><ele>181.000</ele></trkpt>
      <trkpt lat="22.2650437186" lon="114.1363554854"><ele>184.000</ele></trkpt>
      <trkpt lat="22.2650271288" lon="114.1363538214"><ele>184.000</ele></trkpt>
      <trkpt lat="22.2649562900" lon="114.1363441784"><ele>181.000</ele></trkpt>
    </trkseg>
  </trk>
</gpx>
