<?xml version="1.0" encoding="UTF-8"?>
<gpx xmlns:xsi="http://www.w3.org/2001/XMLSchema-instance"
     xsi:schemaLocation="http://www.topografix.com/GPX/1/1 http://www.topografix.com/GPX/1/1/gpx.xsd"
     version="1.1" creator="json3d_batch_to_gpx"
     xmlns="http://www.topografix.com/GPX/1/1">
  <metadata>
    <name>TwiskNatureTrail</name>
  </metadata>
  <trk>
    <name>TwiskNatureTrail</name>
    <type>hike</type>
    <trkseg>
      <trkpt lat="22.4070394922" lon="114.1047648697"><ele>464.000</ele></trkpt>
      <trkpt lat="22.4070123846" lon="114.1047357441"><ele>464.000</ele></trkpt>
      <trkpt lat="22.4069940903" lon="114.1046979543"><ele>464.000</ele></trkpt>
      <trkpt lat="22.4069892177" lon="114.1046874863"><ele>464.000</ele></trkpt>
      <trkpt lat="22.4069554559" lon="114.1046552421"><ele>464.000</ele></trkpt>
      <trkpt lat="22.4069453883" lon="114.1046456270"><ele>464.000</ele></trkpt>
      <trkpt lat="22.4069270303" lon="114.1046012617"><ele>465.000</ele></trkpt>
      <trkpt lat="22.4069086723" lon="114.1045568963"><ele>467.000</ele></trkpt>
      <trkpt lat="22.4069064033" lon="114.1045514128"><ele>467.000</ele></trkpt>
      <trkpt lat="22.4068646581" lon="114.1045329071"><ele>466.000</ele></trkpt>
      <trkpt lat="22.4068229129" lon="114.1045144014"><ele>468.000</ele></trkpt>
      <trkpt lat="22.4067890220" lon="114.1044993775"><ele>468.000</ele></trkpt>
      <trkpt lat="22.4067508366" lon="114.1044734630"><ele>467.000</ele></trkpt>
      <trkpt lat="22.4067126511" lon="114.1044475485"><ele>468.000</ele></trkpt>
      <trkpt lat="22.4066744657" lon="114.1044216340"><ele>467.000</ele></trkpt>
      <trkpt lat="22.4066362802" lon="114.1043957195"><ele>468.000</ele></trkpt>
      <trkpt lat="22.4065980948" lon="114.1043698051"><ele>465.000</ele></trkpt>
      <trkpt lat="22.4065823133" lon="114.1043590950"><ele>468.000</ele></trkpt>
      <trkpt lat="22.4065513796" lon="114.1043237212"><ele>465.000</ele></trkpt>
      <trkpt lat="22.4065204459" lon="114.1042883475"><ele>468.000</ele></trkpt>
      <trkpt lat="22.4064895122" lon="114.1042529737"><ele>467.000</ele></trkpt>
      <trkpt lat="22.4064585785" lon="114.1042176000"><ele>465.000</ele></trkpt>
      <trkpt lat="22.4064438239" lon="114.1042007277"><ele>465.000</ele></trkpt>
      <trkpt lat="22.4064203497" lon="114.1041592461"><ele>463.000</ele></trkpt>
      <trkpt lat="22.4064015773" lon="114.1041260732"><ele>465.000</ele></trkpt>
      <trkpt lat="22.4063937090" lon="114.1040782562"><ele>465.000</ele></trkpt>
      <trkpt lat="22.4063858407" lon="114.1040304393"><ele>466.000</ele></trkpt>
      <trkpt lat="22.4063779723" lon="114.1039826223"><ele>464.000</ele></trkpt>
      <trkpt lat="22.4063744084" lon="114.1039609638"><ele>466.000</ele></trkpt>
      <trkpt lat="22.4063527154" lon="114.1039183753"><ele>467.000</ele></trkpt>
      <trkpt lat="22.4063310225" lon="114.1038757868"><ele>464.000</ele></trkpt>
      <trkpt lat="22.4063219787" lon="114.1038580317"><ele>464.000</ele></trkpt>
      <trkpt lat="22.4062971124" lon="114.1038174992"><ele>465.000</ele></trkpt>
      <trkpt lat="22.4062722461" lon="114.1037769667"><ele>464.000</ele></trkpt>
      <trkpt lat="22.4062695570" lon="114.1037725834"><ele>464.000</ele></trkpt>
      <trkpt lat="22.4062455095" lon="114.1037314834"><ele>466.000</ele></trkpt>
      <trkpt lat="22.4062297873" lon="114.1037046123"><ele>463.000</ele></trkpt>
      <trkpt lat="22.4061985158" lon="114.1036695839"><ele>462.000</ele></trkpt>
      <trkpt lat="22.4061672443" lon="114.1036345554"><ele>464.000</ele></trkpt>
      <trkpt lat="22.4061448475" lon="114.1036094680"><ele>461.000</ele></trkpt>
      <trkpt lat="22.4061199006" lon="114.1035689928"><ele>463.000</ele></trkpt>
      <trkpt lat="22.4060949537" lon="114.1035285176"><ele>461.000</ele></trkpt>
      <trkpt lat="22.4060700069" lon="114.1034880424"><ele>462.000</ele></trkpt>
      <trkpt lat="22.4060562731" lon="114.1034657600"><ele>460.000</ele></trkpt>
      <trkpt lat="22.4060289074" lon="114.1034271351"><ele>460.000</ele></trkpt>
      <trkpt lat="22.4060015416" lon="114.1033885102"><ele>458.000</ele></trkpt>
      <trkpt lat="22.4059741759" lon="114.1033498853"><ele>459.000</ele></trkpt>
      <trkpt lat="22.4059640919" lon="114.1033356525"><ele>456.000</ele></trkpt>
      <trkpt lat="22.4059350951" lon="114.1032984295"><ele>457.000</ele></trkpt>
      <trkpt lat="22.4059060983" lon="114.1032612066"><ele>454.000</ele></trkpt>
      <trkpt lat="22.4058771014" lon="114.1032239836"><ele>453.000</ele></trkpt>
      <trkpt lat="22.4058481046" lon="114.1031867607"><ele>454.000</ele></trkpt>
      <trkpt lat="22.4058249243" lon="114.1031570044"><ele>452.000</ele></trkpt>
      <trkpt lat="22.4057953113" lon="114.1031203468"><ele>453.000</ele></trkpt>
      <trkpt lat="22.4057656984" lon="114.1030836892"><ele>452.000</ele></trkpt>
      <trkpt lat="22.4057417869" lon="114.1030540894"><ele>451.000</ele></trkpt>
      <trkpt lat="22.4056977048" lon="114.1030435785"><ele>449.000</ele></trkpt>
      <trkpt lat="22.4056604941" lon="114.1030347060"><ele>449.000</ele></trkpt>
      <trkpt lat="22.4056229126" lon="114.1030077899"><ele>448.000</ele></trkpt>
      <trkpt lat="22.4055853311" lon="114.1029808738"><ele>446.000</ele></trkpt>
      <trkpt lat="22.4055846039" lon="114.1029803529"><ele>446.000</ele></trkpt>
      <trkpt lat="22.4055685091" lon="114.1029349830"><ele>447.000</ele></trkpt>
      <trkpt lat="22.4055524144" lon="114.1028896131"><ele>446.000</ele></trkpt>
      <trkpt lat="22.4055363196" lon="114.1028442432"><ele>446.000</ele></trkpt>
      <trkpt lat="22.4055267273" lon="114.1028172034"><ele>446.000</ele></trkpt>
      <trkpt lat="22.4054888574" lon="114.1027907591"><ele>446.000</ele></trkpt>
      <trkpt lat="22.4054544517" lon="114.1027667338"><ele>446.000</ele></trkpt>
      <trkpt lat="22.4054098209" lon="114.1027593736"><ele>445.000</ele></trkpt>
      <trkpt lat="22.4053651901" lon="114.1027520134"><ele>444.000</ele></trkpt>
      <trkpt lat="22.4053205593" lon="114.1027446532"><ele>444.000</ele></trkpt>
      <trkpt lat="22.4053135484" lon="114.1027434970"><ele>444.000</ele></trkpt>
      <trkpt lat="22.4052795731" lon="114.1027115136"><ele>444.000</ele></trkpt>
      <trkpt lat="22.4052455978" lon="114.1026795303"><ele>443.000</ele></trkpt>
      <trkpt lat="22.4052116225" lon="114.1026475470"><ele>444.000</ele></trkpt>
      <trkpt lat="22.4051776471" lon="114.1026155638"><ele>444.000</ele></trkpt>
      <trkpt lat="22.4051436718" lon="114.1025835805"><ele>443.000</ele></trkpt>
      <trkpt lat="22.4051238035" lon="114.1025648771"><ele>444.000</ele></trkpt>
      <trkpt lat="22.4050827367" lon="114.1025446922"><ele>443.000</ele></trkpt>
      <trkpt lat="22.4050416699" lon="114.1025245073"><ele>444.000</ele></trkpt>
      <trkpt lat="22.4050172070" lon="114.1025124835"><ele>444.000</ele></trkpt>
      <trkpt lat="22.4049732875" lon="114.1025237542"><ele>443.000</ele></trkpt>
      <trkpt lat="22.4049293681" lon="114.1025350249"><ele>442.000</ele></trkpt>
      <trkpt lat="22.4048854487" lon="114.1025462956"><ele>442.000</ele></trkpt>
      <trkpt lat="22.4048654943" lon="114.1025514163"><ele>442.000</ele></trkpt>
      <trkpt lat="22.4048224392" lon="114.1025367883"><ele>441.000</ele></trkpt>
      <trkpt lat="22.4047793841" lon="114.1025221604"><ele>441.000</ele></trkpt>
      <trkpt lat="22.4047363290" lon="114.1025075325"><ele>440.000</ele></trkpt>
      <trkpt lat="22.4047227732" lon="114.1025029269"><ele>440.000</ele></trkpt>
      <trkpt lat="22.4046913752" lon="114.1024680300"><ele>440.000</ele></trkpt>
      <trkpt lat="22.4046703633" lon="114.1024446765"><ele>440.000</ele></trkpt>
      <trkpt lat="22.4046384199" lon="114.1024103568"><ele>439.000</ele></trkpt>
      <trkpt lat="22.4046064765" lon="114.1023760372"><ele>438.000</ele></trkpt>
      <trkpt lat="22.4045800030" lon="114.1023475943"><ele>438.000</ele></trkpt>
      <trkpt lat="22.4045398693" lon="114.1023253444"><ele>437.000</ele></trkpt>
      <trkpt lat="22.4045239929" lon="114.1023165425"><ele>434.000</ele></trkpt>
      <trkpt lat="22.4044818239" lon="114.1022991839"><ele>432.000</ele></trkpt>
      <trkpt lat="22.4044396550" lon="114.1022818252"><ele>432.000</ele></trkpt>
      <trkpt lat="22.4044155935" lon="114.1022719205"><ele>429.000</ele></trkpt>
      <trkpt lat="22.4043788044" lon="114.1022437668"><ele>426.000</ele></trkpt>
      <trkpt lat="22.4043420153" lon="114.1022156133"><ele>424.000</ele></trkpt>
      <trkpt lat="22.4043052263" lon="114.1021874597"><ele>424.000</ele></trkpt>
      <trkpt lat="22.4042836859" lon="114.1021709755"><ele>422.000</ele></trkpt>
      <trkpt lat="22.4042639131" lon="114.1021273199"><ele>423.000</ele></trkpt>
      <trkpt lat="22.4042511391" lon="114.1020991167"><ele>421.000</ele></trkpt>
      <trkpt lat="22.4042511166" lon="114.1020505575"><ele>423.000</ele></trkpt>
      <trkpt lat="22.4042510941" lon="114.1020019983"><ele>426.000</ele></trkpt>
      <trkpt lat="22.4042510824" lon="114.1019767329"><ele>428.000</ele></trkpt>
      <trkpt lat="22.4042763874" lon="114.1019365163"><ele>433.000</ele></trkpt>
      <trkpt lat="22.4042889871" lon="114.1019164919"><ele>433.000</ele></trkpt>
      <trkpt lat="22.4042645090" lon="114.1018756876"><ele>434.000</ele></trkpt>
      <trkpt lat="22.4042400309" lon="114.1018348832"><ele>435.000</ele></trkpt>
      <trkpt lat="22.4042365634" lon="114.1018291030"><ele>435.000</ele></trkpt>
      <trkpt lat="22.4042141419" lon="114.1017869538"><ele>436.000</ele></trkpt>
      <trkpt lat="22.4042004056" lon="114.1017611315"><ele>435.000</ele></trkpt>
      <trkpt lat="22.4041929098" lon="114.1017132461"><ele>436.000</ele></trkpt>
      <trkpt lat="22.4041854140" lon="114.1016653607"><ele>436.000</ele></trkpt>
      <trkpt lat="22.4041779183" lon="114.1016174753"><ele>436.000</ele></trkpt>
      <trkpt lat="22.4041704224" lon="114.1015695900"><ele>436.000</ele></trkpt>
      <trkpt lat="22.4041629266" lon="114.1015217046"><ele>435.000</ele></trkpt>
      <trkpt lat="22.4041569248" lon="114.1014833633"><ele>435.000</ele></trkpt>
      <trkpt lat="22.4041685371" lon="114.1014364374"><ele>435.000</ele></trkpt>
      <trkpt lat="22.4041801493" lon="114.1013895116"><ele>434.000</ele></trkpt>
      <trkpt lat="22.4041857716" lon="114.1013667916"><ele>434.000</ele></trkpt>
      <trkpt lat="22.4042200391" lon="114.1013351711"><ele>435.000</ele></trkpt>
      <trkpt lat="22.4042543066" lon="114.1013035507"><ele>434.000</ele></trkpt>
      <trkpt lat="22.4042868815" lon="114.1012734921"><ele>435.000</ele></trkpt>
      <trkpt lat="22.4043309061" lon="114.1012627065"><ele>435.000</ele></trkpt>
      <trkpt lat="22.4043749308" lon="114.1012519210"><ele>435.000</ele></trkpt>
      <trkpt lat="22.4044189554" lon="114.1012411354"><ele>435.000</ele></trkpt>
      <trkpt lat="22.4044458190" lon="114.1012345541"><ele>435.000</ele></trkpt>
      <trkpt lat="22.4044868934" lon="114.1012547210"><ele>435.000</ele></trkpt>
      <trkpt lat="22.4045090544" lon="114.1012656017"><ele>436.000</ele></trkpt>
      <trkpt lat="22.4045479232" lon="114.1012903129"><ele>436.000</ele></trkpt>
      <trkpt lat="22.4045867919" lon="114.1013150242"><ele>438.000</ele></trkpt>
      <trkpt lat="22.4045975902" lon="114.1013218893"><ele>438.000</ele></trkpt>
      <trkpt lat="22.4046363853" lon="114.1013467338"><ele>438.000</ele></trkpt>
      <trkpt lat="22.4046751805" lon="114.1013715784"><ele>440.000</ele></trkpt>
      <trkpt lat="22.4046915467" lon="114.1013820594"><ele>440.000</ele></trkpt>
      <trkpt lat="22.4047317106" lon="114.1014042462"><ele>440.000</ele></trkpt>
      <trkpt lat="22.4047718745" lon="114.1014264331"><ele>442.000</ele></trkpt>
      <trkpt lat="22.4048120384" lon="114.1014486199"><ele>442.000</ele></trkpt>
      <trkpt lat="22.4048180213" lon="114.1014519250"><ele>442.000</ele></trkpt>
      <trkpt lat="22.4048625631" lon="114.1014598841"><ele>446.000</ele></trkpt>
      <trkpt lat="22.4049071050" lon="114.1014678432"><ele>446.000</ele></trkpt>
      <trkpt lat="22.4049516468" lon="114.1014758023"><ele>448.000</ele></trkpt>
      <trkpt lat="22.4049961886" lon="114.1014837614"><ele>449.000</ele></trkpt>
      <trkpt lat="22.4050347970" lon="114.1014906602"><ele>450.000</ele></trkpt>
      <trkpt lat="22.4050606004" lon="114.1015305091"><ele>455.000</ele></trkpt>
      <trkpt lat="22.4050637187" lon="114.1015353247"><ele>455.000</ele></trkpt>
      <trkpt lat="22.4050897315" lon="114.1015750159"><ele>459.000</ele></trkpt>
      <trkpt lat="22.4051157442" lon="114.1016147072"><ele>462.000</ele></trkpt>
      <trkpt lat="22.4051417570" lon="114.1016543984"><ele>463.000</ele></trkpt>
      <trkpt lat="22.4051677697" lon="114.1016940897"><ele>464.000</ele></trkpt>
      <trkpt lat="22.4051884430" lon="114.1017256338"><ele>465.000</ele></trkpt>
      <trkpt lat="22.4052122618" lon="114.1017668872"><ele>467.000</ele></trkpt>
      <trkpt lat="22.4052360806" lon="114.1018081406"><ele>467.000</ele></trkpt>
      <trkpt lat="22.4052598994" lon="114.1018493940"><ele>468.000</ele></trkpt>
      <trkpt lat="22.4052770236" lon="114.1018790527"><ele>468.000</ele></trkpt>
      <trkpt lat="22.4053206206" lon="114.1018664166"><ele>469.000</ele></trkpt>
      <trkpt lat="22.4053642175" lon="114.1018537805"><ele>469.000</ele></trkpt>
      <trkpt lat="22.4054078145" lon="114.1018411444"><ele>471.000</ele></trkpt>
      <trkpt lat="22.4054514114" lon="114.1018285083"><ele>471.000</ele></trkpt>
      <trkpt lat="22.4054950084" lon="114.1018158722"><ele>472.000</ele></trkpt>
      <trkpt lat="22.4055386053" lon="114.1018032360"><ele>473.000</ele></trkpt>
      <trkpt lat="22.4055479774" lon="114.1018005196"><ele>473.000</ele></trkpt>
      <trkpt lat="22.4055924161" lon="114.1017919198"><ele>472.000</ele></trkpt>
      <trkpt lat="22.4056368549" lon="114.1017833199"><ele>473.000</ele></trkpt>
      <trkpt lat="22.4056812936" lon="114.1017747201"><ele>474.000</ele></trkpt>
      <trkpt lat="22.4057257323" lon="114.1017661202"><ele>474.000</ele></trkpt>
      <trkpt lat="22.4057701711" lon="114.1017575203"><ele>475.000</ele></trkpt>
      <trkpt lat="22.4058146098" lon="114.1017489205"><ele>476.000</ele></trkpt>
      <trkpt lat="22.4058164370" lon="114.1017485669"><ele>476.000</ele></trkpt>
      <trkpt lat="22.4058438121" lon="114.1017871840"><ele>477.000</ele></trkpt>
      <trkpt lat="22.4058711872" lon="114.1018258012"><ele>478.000</ele></trkpt>
      <trkpt lat="22.4058985623" lon="114.1018644184"><ele>480.000</ele></trkpt>
      <trkpt lat="22.4059259374" lon="114.1019030356"><ele>480.000</ele></trkpt>
      <trkpt lat="22.4059533124" lon="114.1019416528"><ele>481.000</ele></trkpt>
      <trkpt lat="22.4059806875" lon="114.1019802700"><ele>482.000</ele></trkpt>
      <trkpt lat="22.4060080625" lon="114.1020188873"><ele>482.000</ele></trkpt>
      <trkpt lat="22.4060354376" lon="114.1020575045"><ele>483.000</ele></trkpt>
      <trkpt lat="22.4060628126" lon="114.1020961218"><ele>483.000</ele></trkpt>
      <trkpt lat="22.4060893137" lon="114.1021335063"><ele>483.000</ele></trkpt>
      <trkpt lat="22.4061339283" lon="114.1021409789"><ele>483.000</ele></trkpt>
      <trkpt lat="22.4061785429" lon="114.1021484516"><ele>485.000</ele></trkpt>
      <trkpt lat="22.4062231576" lon="114.1021559243"><ele>486.000</ele></trkpt>
      <trkpt lat="22.4062410880" lon="114.1021589276"><ele>486.000</ele></trkpt>
      <trkpt lat="22.4062861613" lon="114.1021560519"><ele>488.000</ele></trkpt>
      <trkpt lat="22.4063312345" lon="114.1021531762"><ele>489.000</ele></trkpt>
      <trkpt lat="22.4063620204" lon="114.1021512121"><ele>490.000</ele></trkpt>
      <trkpt lat="22.4064039775" lon="114.1021332694"><ele>492.000</ele></trkpt>
      <trkpt lat="22.4064459346" lon="114.1021153268"><ele>493.000</ele></trkpt>
      <trkpt lat="22.4064878918" lon="114.1020973841"><ele>494.000</ele></trkpt>
      <trkpt lat="22.4065232361" lon="114.1020822693"><ele>493.000</ele></trkpt>
      <trkpt lat="22.4065659406" lon="114.1020664973"><ele>494.000</ele></trkpt>
      <trkpt lat="22.4066062171" lon="114.1020516219"><ele>495.000</ele></trkpt>
      <trkpt lat="22.4066450048" lon="114.1020267635"><ele>494.000</ele></trkpt>
      <trkpt lat="22.4066837924" lon="114.1020019050"><ele>495.000</ele></trkpt>
      <trkpt lat="22.4067225801" lon="114.1019770465"><ele>495.000</ele></trkpt>
      <trkpt lat="22.4067613678" lon="114.1019521880"><ele>495.000</ele></trkpt>
      <trkpt lat="22.4068001554" lon="114.1019273295"><ele>494.000</ele></trkpt>
      <trkpt lat="22.4068053463" lon="114.1019240028"><ele>494.000</ele></trkpt>
      <trkpt lat="22.4068320014" lon="114.1018848072"><ele>494.000</ele></trkpt>
      <trkpt lat="22.4068586566" lon="114.1018456116"><ele>494.000</ele></trkpt>
      <trkpt lat="22.4068853118" lon="114.1018064159"><ele>494.000</ele></trkpt>
      <trkpt lat="22.4069025029" lon="114.1017811368"><ele>493.000</ele></trkpt>
      <trkpt lat="22.4069037886" lon="114.1017325964"><ele>493.000</ele></trkpt>
      <trkpt lat="22.4069050743" lon="114.1016840559"><ele>493.000</ele></trkpt>
      <trkpt lat="22.4069063599" lon="114.1016355155"><ele>493.000</ele></trkpt>
      <trkpt lat="22.4069071637" lon="114.1016051667"><ele>493.000</ele></trkpt>
      <trkpt lat="22.4069147180" lon="114.1015572910"><ele>493.000</ele></trkpt>
      <trkpt lat="22.4069222723" lon="114.1015094153"><ele>494.000</ele></trkpt>
      <trkpt lat="22.4069260782" lon="114.1014852948"><ele>494.000</ele></trkpt>
      <trkpt lat="22.4069353580" lon="114.1014377712"><ele>494.000</ele></trkpt>
      <trkpt lat="22.4069446377" lon="114.1013902477"><ele>495.000</ele></trkpt>
      <trkpt lat="22.4069450034" lon="114.1013883750"><ele>495.000</ele></trkpt>
      <trkpt lat="22.4069512565" lon="114.1013402828"><ele>496.000</ele></trkpt>
      <trkpt lat="22.4069575097" lon="114.1012921905"><ele>497.000</ele></trkpt>
      <trkpt lat="22.4069637628" lon="114.1012440983"><ele>498.000</ele></trkpt>
      <trkpt lat="22.4069639056" lon="114.1012430002"><ele>498.000</ele></trkpt>
      <trkpt lat="22.4069808073" lon="114.1011979705"><ele>499.000</ele></trkpt>
      <trkpt lat="22.4069977089" lon="114.1011529407"><ele>500.000</ele></trkpt>
      <trkpt lat="22.4070089042" lon="114.1011231140"><ele>500.000</ele></trkpt>
      <trkpt lat="22.4070254837" lon="114.1010779460"><ele>502.000</ele></trkpt>
      <trkpt lat="22.4070420632" lon="114.1010327779"><ele>503.000</ele></trkpt>
      <trkpt lat="22.4070491647" lon="114.1010134312"><ele>505.000</ele></trkpt>
      <trkpt lat="22.4070411654" lon="114.1009656391"><ele>506.000</ele></trkpt>
      <trkpt lat="22.4070331660" lon="114.1009178471"><ele>508.000</ele></trkpt>
      <trkpt lat="22.4070325188" lon="114.1009139802"><ele>508.000</ele></trkpt>
      <trkpt lat="22.4070138138" lon="114.1008697828"><ele>509.000</ele></trkpt>
      <trkpt lat="22.4069969100" lon="114.1008298411"><ele>509.000</ele></trkpt>
      <trkpt lat="22.4069773016" lon="114.1007860990"><ele>510.000</ele></trkpt>
      <trkpt lat="22.4069576931" lon="114.1007423569"><ele>510.000</ele></trkpt>
      <trkpt lat="22.4069380847" lon="114.1006986148"><ele>511.000</ele></trkpt>
      <trkpt lat="22.4069351918" lon="114.1006921612"><ele>511.000</ele></trkpt>
      <trkpt lat="22.4069412697" lon="114.1006440430"><ele>511.000</ele></trkpt>
      <trkpt lat="22.4069422791" lon="114.1006360517"><ele>511.000</ele></trkpt>
      <trkpt lat="22.4069557251" lon="114.1005896947"><ele>512.000</ele></trkpt>
      <trkpt lat="22.4069659535" lon="114.1005544308"><ele>513.000</ele></trkpt>
      <trkpt lat="22.4069772628" lon="114.1005074185"><ele>513.000</ele></trkpt>
      <trkpt lat="22.4069825200" lon="114.1004855649"><ele>513.000</ele></trkpt>
      <trkpt lat="22.4069840146" lon="114.1004493972"><ele>513.000</ele></trkpt>
      <trkpt lat="22.4070276009" lon="114.1004412055"><ele>514.000</ele></trkpt>
      <trkpt lat="22.4070694381" lon="114.1004229417"><ele>515.000</ele></trkpt>
      <trkpt lat="22.4070758047" lon="114.1004201623"><ele>515.000</ele></trkpt>
      <trkpt lat="22.4071206395" lon="114.1004259127"><ele>515.000</ele></trkpt>
      <trkpt lat="22.4071654742" lon="114.1004316631"><ele>515.000</ele></trkpt>
      <trkpt lat="22.4072103090" lon="114.1004374135"><ele>515.000</ele></trkpt>
      <trkpt lat="22.4072265328" lon="114.1004394943"><ele>515.000</ele></trkpt>
      <trkpt lat="22.4072716852" lon="114.1004394696"><ele>515.000</ele></trkpt>
      <trkpt lat="22.4072907757" lon="114.1004394592"><ele>516.000</ele></trkpt>
      <trkpt lat="22.4073356878" lon="114.1004444625"><ele>516.000</ele></trkpt>
      <trkpt lat="22.4073524572" lon="114.1004463307"><ele>516.000</ele></trkpt>
      <trkpt lat="22.4073972987" lon="114.1004520191"><ele>517.000</ele></trkpt>
      <trkpt lat="22.4074421403" lon="114.1004577076"><ele>517.000</ele></trkpt>
      <trkpt lat="22.4074789307" lon="114.1004623746"><ele>517.000</ele></trkpt>
      <trkpt lat="22.4075185807" lon="114.1004856063"><ele>517.000</ele></trkpt>
      <trkpt lat="22.4075324920" lon="114.1004937571"><ele>517.000</ele></trkpt>
      <trkpt lat="22.4075686277" lon="114.1005228736"><ele>517.000</ele></trkpt>
      <trkpt lat="22.4075714497" lon="114.1005251474"><ele>517.000</ele></trkpt>
      <trkpt lat="22.4076109312" lon="114.1005487087"><ele>517.000</ele></trkpt>
      <trkpt lat="22.4076152728" lon="114.1005512997"><ele>517.000</ele></trkpt>
      <trkpt lat="22.4076203215" lon="114.1005995555"><ele>517.000</ele></trkpt>
      <trkpt lat="22.4076223335" lon="114.1006187863"><ele>517.000</ele></trkpt>
      <trkpt lat="22.4076634108" lon="114.1006389467"><ele>517.000</ele></trkpt>
      <trkpt lat="22.4076980757" lon="114.1006559600"><ele>517.000</ele></trkpt>
      <trkpt lat="22.4077342114" lon="114.1006850765"><ele>517.000</ele></trkpt>
      <trkpt lat="22.4077370336" lon="114.1006873505"><ele>517.000</ele></trkpt>
      <trkpt lat="22.4077652580" lon="114.1007252545"><ele>517.000</ele></trkpt>
      <trkpt lat="22.4077934823" lon="114.1007631585"><ele>517.000</ele></trkpt>
      <trkpt lat="22.4077954848" lon="114.1007658477"><ele>517.000</ele></trkpt>
      <trkpt lat="22.4078191685" lon="114.1008071918"><ele>517.000</ele></trkpt>
      <trkpt lat="22.4078344596" lon="114.1008338852"><ele>517.000</ele></trkpt>
      <trkpt lat="22.4078566971" lon="114.1008761480"><ele>517.000</ele></trkpt>
      <trkpt lat="22.4078789346" lon="114.1009184109"><ele>517.000</ele></trkpt>
      <trkpt lat="22.4078977985" lon="114.1009542621"><ele>518.000</ele></trkpt>
      <trkpt lat="22.4079137727" lon="114.1009996820"><ele>518.000</ele></trkpt>
      <trkpt lat="22.4079297469" lon="114.1010451020"><ele>518.000</ele></trkpt>
      <trkpt lat="22.4079457210" lon="114.1010905219"><ele>517.000</ele></trkpt>
      <trkpt lat="22.4079616952" lon="114.1011359419"><ele>517.000</ele></trkpt>
      <trkpt lat="22.4079740414" lon="114.1011710463"><ele>517.000</ele></trkpt>
      <trkpt lat="22.4080058741" lon="114.1012054855"><ele>517.000</ele></trkpt>
      <trkpt lat="22.4080377068" lon="114.1012399247"><ele>517.000</ele></trkpt>
      <trkpt lat="22.4080695395" lon="114.1012743640"><ele>517.000</ele></trkpt>
      <trkpt lat="22.4081013722" lon="114.1013088032"><ele>517.000</ele></trkpt>
      <trkpt lat="22.4081316372" lon="114.1013415465"><ele>517.000</ele></trkpt>
      <trkpt lat="22.4081614241" lon="114.1013780413"><ele>517.000</ele></trkpt>
      <trkpt lat="22.4081912110" lon="114.1014145361"><ele>517.000</ele></trkpt>
      <trkpt lat="22.4082209979" lon="114.1014510310"><ele>517.000</ele></trkpt>
      <trkpt lat="22.4082421399" lon="114.1014769342"><ele>516.000</ele></trkpt>
      <trkpt lat="22.4082694961" lon="114.1015155675"><ele>516.000</ele></trkpt>
      <trkpt lat="22.4082968523" lon="114.1015542008"><ele>516.000</ele></trkpt>
      <trkpt lat="22.4083167282" lon="114.1015822703"><ele>516.000</ele></trkpt>
      <trkpt lat="22.4083389187" lon="114.1016245619"><ele>515.000</ele></trkpt>
      <trkpt lat="22.4083611091" lon="114.1016668534"><ele>516.000</ele></trkpt>
      <trkpt lat="22.4083832996" lon="114.1017091450"><ele>515.000</ele></trkpt>
      <trkpt lat="22.4083845265" lon="114.1017114833"><ele>515.000</ele></trkpt>
      <trkpt lat="22.4084065157" lon="114.1017538963"><ele>515.000</ele></trkpt>
      <trkpt lat="22.4084285049" lon="114.1017963093"><ele>514.000</ele></trkpt>
      <trkpt lat="22.4084287889" lon="114.1017968571"><ele>514.000</ele></trkpt>
      <trkpt lat="22.4084538537" lon="114.1018372486"><ele>514.000</ele></trkpt>
      <trkpt lat="22.4084677609" lon="114.1018596599"><ele>512.000</ele></trkpt>
      <trkpt lat="22.4084851479" lon="114.1019044758"><ele>513.000</ele></trkpt>
      <trkpt lat="22.4084921292" lon="114.1019224705"><ele>513.000</ele></trkpt>
      <trkpt lat="22.4084991936" lon="114.1019704332"><ele>513.000</ele></trkpt>
      <trkpt lat="22.4085062579" lon="114.1020183958"><ele>512.000</ele></trkpt>
      <trkpt lat="22.4085133222" lon="114.1020663585"><ele>512.000</ele></trkpt>
      <trkpt lat="22.4085203865" lon="114.1021143212"><ele>512.000</ele></trkpt>
      <trkpt lat="22.4085214286" lon="114.1021213963"><ele>512.000</ele></trkpt>
      <trkpt lat="22.4085271926" lon="114.1021695597"><ele>512.000</ele></trkpt>
      <trkpt lat="22.4085329566" lon="114.1022177231"><ele>512.000</ele></trkpt>
      <trkpt lat="22.4085387206" lon="114.1022658865"><ele>512.000</ele></trkpt>
      <trkpt lat="22.4085444846" lon="114.1023140499"><ele>513.000</ele></trkpt>
      <trkpt lat="22.4085458620" lon="114.1023255602"><ele>513.000</ele></trkpt>
      <trkpt lat="22.4085487962" lon="114.1023740183"><ele>512.000</ele></trkpt>
      <trkpt lat="22.4085517304" lon="114.1024224763"><ele>512.000</ele></trkpt>
      <trkpt lat="22.4085546646" lon="114.1024709344"><ele>513.000</ele></trkpt>
      <trkpt lat="22.4085556178" lon="114.1024866773"><ele>513.000</ele></trkpt>
      <trkpt lat="22.4085603381" lon="114.1025349719"><ele>513.000</ele></trkpt>
      <trkpt lat="22.4085650584" lon="114.1025832665"><ele>514.000</ele></trkpt>
      <trkpt lat="22.4085654540" lon="114.1025873149"><ele>514.000</ele></trkpt>
      <trkpt lat="22.4085707517" lon="114.1026355402"><ele>514.000</ele></trkpt>
      <trkpt lat="22.4085752304" lon="114.1026763101"><ele>515.000</ele></trkpt>
      <trkpt lat="22.4085837009" lon="114.1027240086"><ele>515.000</ele></trkpt>
      <trkpt lat="22.4085921714" lon="114.1027717072"><ele>515.000</ele></trkpt>
      <trkpt lat="22.4085947524" lon="114.1027862409"><ele>515.000</ele></trkpt>
      <trkpt lat="22.4086036293" lon="114.1028338539"><ele>515.000</ele></trkpt>
      <trkpt lat="22.4086125063" lon="114.1028814670"><ele>515.000</ele></trkpt>
      <trkpt lat="22.4086142718" lon="114.1028909368"><ele>515.000</ele></trkpt>
      <trkpt lat="22.4086290740" lon="114.1029368139"><ele>515.000</ele></trkpt>
      <trkpt lat="22.4086383870" lon="114.1029656779"><ele>515.000</ele></trkpt>
      <trkpt lat="22.4086447995" lon="114.1030137465"><ele>516.000</ele></trkpt>
      <trkpt lat="22.4086512120" lon="114.1030618150"><ele>516.000</ele></trkpt>
      <trkpt lat="22.4086512815" lon="114.1030623362"><ele>516.000</ele></trkpt>
      <trkpt lat="22.4086655640" lon="114.1031084035"><ele>516.000</ele></trkpt>
      <trkpt lat="22.4086727960" lon="114.1031317300"><ele>516.000</ele></trkpt>
      <trkpt lat="22.4086880033" lon="114.1031774537"><ele>516.000</ele></trkpt>
      <trkpt lat="22.4086971688" lon="114.1032050116"><ele>516.000</ele></trkpt>
      <trkpt lat="22.4086929100" lon="114.1032533559"><ele>516.000</ele></trkpt>
      <trkpt lat="22.4086886511" lon="114.1033017002"><ele>516.000</ele></trkpt>
      <trkpt lat="22.4086874831" lon="114.1033149583"><ele>516.000</ele></trkpt>
      <trkpt lat="22.4086804660" lon="114.1033629291"><ele>518.000</ele></trkpt>
      <trkpt lat="22.4086769650" lon="114.1033868631"><ele>518.000</ele></trkpt>
      <trkpt lat="22.4086677366" lon="114.1034343988"><ele>518.000</ele></trkpt>
      <trkpt lat="22.4086585081" lon="114.1034819345"><ele>518.000</ele></trkpt>
      <trkpt lat="22.4086556733" lon="114.1034965366"><ele>518.000</ele></trkpt>
      <trkpt lat="22.4086494814" lon="114.1035446386"><ele>518.000</ele></trkpt>
      <trkpt lat="22.4086432895" lon="114.1035927406"><ele>517.000</ele></trkpt>
      <trkpt lat="22.4086386885" lon="114.1036284834"><ele>517.000</ele></trkpt>
      <trkpt lat="22.4086554885" lon="114.1036735577"><ele>516.000</ele></trkpt>
      <trkpt lat="22.4086722884" lon="114.1037186320"><ele>516.000</ele></trkpt>
      <trkpt lat="22.4086779373" lon="114.1037337880"><ele>516.000</ele></trkpt>
      <trkpt lat="22.4086964863" lon="114.1037780619"><ele>516.000</ele></trkpt>
      <trkpt lat="22.4087150352" lon="114.1038223358"><ele>515.000</ele></trkpt>
      <trkpt lat="22.4087217954" lon="114.1038384713"><ele>514.000</ele></trkpt>
      <trkpt lat="22.4087414578" lon="114.1038821859"><ele>516.000</ele></trkpt>
      <trkpt lat="22.4087611202" lon="114.1039259005"><ele>515.000</ele></trkpt>
      <trkpt lat="22.4087744454" lon="114.1039555258"><ele>516.000</ele></trkpt>
      <trkpt lat="22.4087912349" lon="114.1040006046"><ele>515.000</ele></trkpt>
      <trkpt lat="22.4088080244" lon="114.1040456834"><ele>515.000</ele></trkpt>
      <trkpt lat="22.4088124320" lon="114.1040575174"><ele>515.000</ele></trkpt>
      <trkpt lat="22.4088321183" lon="114.1041012197"><ele>515.000</ele></trkpt>
      <trkpt lat="22.4088518046" lon="114.1041449219"><ele>515.000</ele></trkpt>
      <trkpt lat="22.4088714908" lon="114.1041886242"><ele>515.000</ele></trkpt>
      <trkpt lat="22.4088836417" lon="114.1042155983"><ele>515.000</ele></trkpt>
      <trkpt lat="22.4088781380" lon="114.1042637970"><ele>514.000</ele></trkpt>
      <trkpt lat="22.4088729112" lon="114.1043095710"><ele>512.000</ele></trkpt>
      <trkpt lat="22.4088331661" lon="114.1043326143"><ele>511.000</ele></trkpt>
      <trkpt lat="22.4087934210" lon="114.1043556576"><ele>510.000</ele></trkpt>
      <trkpt lat="22.4087536759" lon="114.1043787009"><ele>508.000</ele></trkpt>
      <trkpt lat="22.4087139308" lon="114.1044017442"><ele>507.000</ele></trkpt>
      <trkpt lat="22.4086741857" lon="114.1044247874"><ele>505.000</ele></trkpt>
      <trkpt lat="22.4086344406" lon="114.1044478307"><ele>504.000</ele></trkpt>
      <trkpt lat="22.4086198483" lon="114.1044562910"><ele>504.000</ele></trkpt>
      <trkpt lat="22.4085760065" lon="114.1044679061"><ele>502.000</ele></trkpt>
      <trkpt lat="22.4085321646" lon="114.1044795213"><ele>501.000</ele></trkpt>
      <trkpt lat="22.4084883228" lon="114.1044911364"><ele>500.000</ele></trkpt>
      <trkpt lat="22.4084444810" lon="114.1045027516"><ele>498.000</ele></trkpt>
      <trkpt lat="22.4084006392" lon="114.1045143667"><ele>495.000</ele></trkpt>
      <trkpt lat="22.4083821359" lon="114.1045192688"><ele>495.000</ele></trkpt>
      <trkpt lat="22.4083485486" lon="114.1045517234"><ele>494.000</ele></trkpt>
      <trkpt lat="22.4083149613" lon="114.1045841779"><ele>491.000</ele></trkpt>
      <trkpt lat="22.4082813740" lon="114.1046166325"><ele>489.000</ele></trkpt>
      <trkpt lat="22.4082791705" lon="114.1046187617"><ele>489.000</ele></trkpt>
      <trkpt lat="22.4082363038" lon="114.1046035068"><ele>490.000</ele></trkpt>
      <trkpt lat="22.4081934372" lon="114.1045882520"><ele>490.000</ele></trkpt>
      <trkpt lat="22.4081505705" lon="114.1045729972"><ele>489.000</ele></trkpt>
      <trkpt lat="22.4081077038" lon="114.1045577424"><ele>489.000</ele></trkpt>
      <trkpt lat="22.4080648371" lon="114.1045424876"><ele>487.000</ele></trkpt>
      <trkpt lat="22.4080219704" lon="114.1045272329"><ele>486.000</ele></trkpt>
      <trkpt lat="22.4079791037" lon="114.1045119781"><ele>485.000</ele></trkpt>
      <trkpt lat="22.4079362370" lon="114.1044967234"><ele>484.000</ele></trkpt>
      <trkpt lat="22.4078933703" lon="114.1044814686"><ele>482.000</ele></trkpt>
      <trkpt lat="22.4078505036" lon="114.1044662139"><ele>481.000</ele></trkpt>
      <trkpt lat="22.4078142967" lon="114.1044533291"><ele>481.000</ele></trkpt>
      <trkpt lat="22.4077769099" lon="114.1044805574"><ele>481.000</ele></trkpt>
      <trkpt lat="22.4077395231" lon="114.1045077856"><ele>481.000</ele></trkpt>
      <trkpt lat="22.4077336992" lon="114.1045120270"><ele>480.000</ele></trkpt>
      <trkpt lat="22.4076979840" lon="114.1045417376"><ele>480.000</ele></trkpt>
      <trkpt lat="22.4076815502" lon="114.1045554085"><ele>480.000</ele></trkpt>
      <trkpt lat="22.4076429590" lon="114.1045806184"><ele>480.000</ele></trkpt>
      <trkpt lat="22.4076305864" lon="114.1045887009"><ele>480.000</ele></trkpt>
      <trkpt lat="22.4075970542" lon="114.1046212212"><ele>478.000</ele></trkpt>
      <trkpt lat="22.4075635221" lon="114.1046537415"><ele>478.000</ele></trkpt>
      <trkpt lat="22.4075344158" lon="114.1046819695"><ele>473.000</ele></trkpt>
      <trkpt lat="22.4074959727" lon="114.1047074397"><ele>469.000</ele></trkpt>
      <trkpt lat="22.4074711522" lon="114.1047238843"><ele>469.000</ele></trkpt>
      <trkpt lat="22.4074307763" lon="114.1047456220"><ele>467.000</ele></trkpt>
      <trkpt lat="22.4073904005" lon="114.1047673597"><ele>466.000</ele></trkpt>
      <trkpt lat="22.4073738185" lon="114.1047762871"><ele>466.000</ele></trkpt>
      <trkpt lat="22.4073295472" lon="114.1047858334"><ele>466.000</ele></trkpt>
      <trkpt lat="22.4073008075" lon="114.1047920306"><ele>465.000</ele></trkpt>
      <trkpt lat="22.4072557109" lon="114.1047944463"><ele>465.000</ele></trkpt>
      <trkpt lat="22.4072259774" lon="114.1047960390"><ele>465.000</ele></trkpt>
      <trkpt lat="22.4071809408" lon="114.1047995154"><ele>465.000</ele></trkpt>
      <trkpt lat="22.4071360459" lon="114.1048029809"><ele>464.000</ele></trkpt>
      <trkpt lat="22.4070932298" lon="114.1047875627"><ele>464.000</ele></trkpt>
      <trkpt lat="22.4070768812" lon="114.1047816755"><ele>464.000</ele></trkpt>
      <trkpt lat="22.4070379290" lon="114.1047607547"><ele>464.000</ele></trkpt>
    </trkseg>
  </trk>
</gpx>
