<?xml version="1.0" encoding="UTF-8"?>
<gpx xmlns:xsi="http://www.w3.org/2001/XMLSchema-instance"
     xsi:schemaLocation="http://www.topografix.com/GPX/1/1 http://www.topografix.com/GPX/1/1/gpx.xsd"
     version="1.1" creator="json3d_batch_to_gpx"
     xmlns="http://www.topografix.com/GPX/1/1">
  <metadata>
    <name>TaiLamNatureTrail</name>
  </metadata>
  <trk>
    <name>TaiLamNatureTrail</name>
    <type>hike</type>
    <trkseg>
      <trkpt lat="22.3994579700" lon="114.0345381826"><ele>156.000</ele></trkpt>
      <trkpt lat="22.3994426615" lon="114.0344755697"><ele>157.000</ele></trkpt>
      <trkpt lat="22.3994307985" lon="114.0344236408"><ele>157.000</ele></trkpt>
      <trkpt lat="22.3994068168" lon="114.0343433502"><ele>156.000</ele></trkpt>
      <trkpt lat="22.3993977781" lon="114.0342469292"><ele>156.000</ele></trkpt>
      <trkpt lat="22.3994335161" lon="114.0341280221"><ele>155.000</ele></trkpt>
      <trkpt lat="22.3994334367" lon="114.0340381093"><ele>155.000</ele></trkpt>
      <trkpt lat="22.3993735983" lon="114.0339097127"><ele>151.000</ele></trkpt>
      <trkpt lat="22.3992899110" lon="114.0338198660"><ele>150.000</ele></trkpt>
      <trkpt lat="22.3991972761" lon="114.0337685735"><ele>149.000</ele></trkpt>
      <trkpt lat="22.3990748121" lon="114.0337494409"><ele>148.000</ele></trkpt>
      <trkpt lat="22.3989613331" lon="114.0337656121"><ele>146.000</ele></trkpt>
      <trkpt lat="22.3988418843" lon="114.0338106954"><ele>146.000</ele></trkpt>
      <trkpt lat="22.3987313916" lon="114.0338686624"><ele>144.000</ele></trkpt>
      <trkpt lat="22.3986320726" lon="114.0338687640"><ele>144.000</ele></trkpt>
      <trkpt lat="22.3985363314" lon="114.0338238494"><ele>144.000</ele></trkpt>
      <trkpt lat="22.3984525966" lon="114.0337661327"><ele>146.000</ele></trkpt>
      <trkpt lat="22.3983139856" lon="114.0337403450"><ele>146.000</ele></trkpt>
      <trkpt lat="22.3981373335" lon="114.0337439229"><ele>146.000</ele></trkpt>
      <trkpt lat="22.3980521578" lon="114.0337406130"><ele>144.000</ele></trkpt>
      <trkpt lat="22.3979985201" lon="114.0337271079"><ele>146.000</ele></trkpt>
      <trkpt lat="22.3979101575" lon="114.0336932929"><ele>146.000</ele></trkpt>
      <trkpt lat="22.3977322795" lon="114.0336596405"><ele>146.000</ele></trkpt>
      <trkpt lat="22.3977319074" lon="114.0336595701"><ele>146.000</ele></trkpt>
      <trkpt lat="22.3976767128" lon="114.0336664110"><ele>146.000</ele></trkpt>
      <trkpt lat="22.3976041613" lon="114.0336800452"><ele>146.000</ele></trkpt>
      <trkpt lat="22.3975190435" lon="114.0337309859"><ele>146.000</ele></trkpt>
      <trkpt lat="22.3974370536" lon="114.0337683721"><ele>146.000</ele></trkpt>
      <trkpt lat="22.3973951778" lon="114.0338117538"><ele>146.000</ele></trkpt>
      <trkpt lat="22.3973621533" lon="114.0338679066"><ele>144.000</ele></trkpt>
      <trkpt lat="22.3972925913" lon="114.0339371944"><ele>143.000</ele></trkpt>
      <trkpt lat="22.3972491082" lon="114.0339652929"><ele>142.000</ele></trkpt>
      <trkpt lat="22.3971958155" lon="114.0339742993"><ele>144.000</ele></trkpt>
      <trkpt lat="22.3971949082" lon="114.0339735709"><ele>144.000</ele></trkpt>
      <trkpt lat="22.3971360817" lon="114.0339754888"><ele>144.000</ele></trkpt>
      <trkpt lat="22.3970668685" lon="114.0339644021"><ele>144.000</ele></trkpt>
      <trkpt lat="22.3970218584" lon="114.0339383956"><ele>144.000</ele></trkpt>
      <trkpt lat="22.3969667550" lon="114.0339728290"><ele>142.000</ele></trkpt>
      <trkpt lat="22.3969442427" lon="114.0339890087"><ele>142.000</ele></trkpt>
      <trkpt lat="22.3969310301" lon="114.0340195400"><ele>140.000</ele></trkpt>
      <trkpt lat="22.3969316482" lon="114.0340599424"><ele>140.000</ele></trkpt>
      <trkpt lat="22.3969409882" lon="114.0340872382"><ele>138.000</ele></trkpt>
      <trkpt lat="22.3969531526" lon="114.0341132676"><ele>140.000</ele></trkpt>
      <trkpt lat="22.3969598177" lon="114.0341374653"><ele>140.000</ele></trkpt>
      <trkpt lat="22.3969430267" lon="114.0341797024"><ele>140.000</ele></trkpt>
      <trkpt lat="22.3969168787" lon="114.0342296171"><ele>137.000</ele></trkpt>
      <trkpt lat="22.3969028966" lon="114.0342754746"><ele>138.000</ele></trkpt>
      <trkpt lat="22.3968995230" lon="114.0343034088"><ele>138.000</ele></trkpt>
      <trkpt lat="22.3968939502" lon="114.0343269003"><ele>136.000</ele></trkpt>
      <trkpt lat="22.3968699473" lon="114.0343853947"><ele>136.000</ele></trkpt>
      <trkpt lat="22.3968473949" lon="114.0344103718"><ele>134.000</ele></trkpt>
      <trkpt lat="22.3967983321" lon="114.0344430741"><ele>132.000</ele></trkpt>
      <trkpt lat="22.3967540920" lon="114.0344669439"><ele>133.000</ele></trkpt>
      <trkpt lat="22.3967301816" lon="114.0344787840"><ele>133.000</ele></trkpt>
      <trkpt lat="22.3966858194" lon="114.0344953452"><ele>131.000</ele></trkpt>
      <trkpt lat="22.3966395616" lon="114.0345147625"><ele>132.000</ele></trkpt>
      <trkpt lat="22.3966087130" lon="114.0345285791"><ele>130.000</ele></trkpt>
      <trkpt lat="22.3965628500" lon="114.0345523786"><ele>132.000</ele></trkpt>
      <trkpt lat="22.3965083726" lon="114.0345820185"><ele>130.000</ele></trkpt>
      <trkpt lat="22.3964828778" lon="114.0345944234"><ele>129.000</ele></trkpt>
      <trkpt lat="22.3964489636" lon="114.0346055540"><ele>130.000</ele></trkpt>
      <trkpt lat="22.3964300306" lon="114.0346110242"><ele>130.000</ele></trkpt>
      <trkpt lat="22.3964173210" lon="114.0346160666"><ele>130.000</ele></trkpt>
      <trkpt lat="22.3963828105" lon="114.0346329877"><ele>128.000</ele></trkpt>
      <trkpt lat="22.3963589743" lon="114.0346532444"><ele>128.000</ele></trkpt>
      <trkpt lat="22.3963503075" lon="114.0346858132"><ele>126.000</ele></trkpt>
      <trkpt lat="22.3963481016" lon="114.0347497769"><ele>125.000</ele></trkpt>
      <trkpt lat="22.3963497421" lon="114.0348245239"><ele>124.000</ele></trkpt>
      <trkpt lat="22.3963468497" lon="114.0348790955"><ele>122.000</ele></trkpt>
      <trkpt lat="22.3963444442" lon="114.0349327731"><ele>122.000</ele></trkpt>
      <trkpt lat="22.3963535823" lon="114.0350019392"><ele>120.000</ele></trkpt>
      <trkpt lat="22.3963558518" lon="114.0350319613"><ele>120.000</ele></trkpt>
      <trkpt lat="22.3963570105" lon="114.0350804825"><ele>119.000</ele></trkpt>
      <trkpt lat="22.3963470657" lon="114.0351470091"><ele>116.000</ele></trkpt>
      <trkpt lat="22.3963339773" lon="114.0352102748"><ele>114.000</ele></trkpt>
      <trkpt lat="22.3963297647" lon="114.0352289509"><ele>114.000</ele></trkpt>
      <trkpt lat="22.3963131998" lon="114.0352895000"><ele>116.000</ele></trkpt>
      <trkpt lat="22.3963025366" lon="114.0353214969"><ele>114.000</ele></trkpt>
      <trkpt lat="22.3962882779" lon="114.0353561038"><ele>114.000</ele></trkpt>
      <trkpt lat="22.3962543900" lon="114.0354086635"><ele>112.000</ele></trkpt>
      <trkpt lat="22.3962142957" lon="114.0354697598"><ele>112.000</ele></trkpt>
      <trkpt lat="22.3961971641" lon="114.0355050678"><ele>113.000</ele></trkpt>
      <trkpt lat="22.3961768518" lon="114.0355484268"><ele>113.000</ele></trkpt>
      <trkpt lat="22.3961551340" lon="114.0356007274"><ele>110.000</ele></trkpt>
      <trkpt lat="22.3961440805" lon="114.0356336074"><ele>110.000</ele></trkpt>
      <trkpt lat="22.3961339997" lon="114.0356759188"><ele>110.000</ele></trkpt>
      <trkpt lat="22.3961283805" lon="114.0357230921"><ele>108.000</ele></trkpt>
      <trkpt lat="22.3961277638" lon="114.0357386240"><ele>108.000</ele></trkpt>
      <trkpt lat="22.3961295350" lon="114.0357773818"><ele>108.000</ele></trkpt>
      <trkpt lat="22.3961353844" lon="114.0358078013"><ele>108.000</ele></trkpt>
      <trkpt lat="22.3961490047" lon="114.0358404912"><ele>108.000</ele></trkpt>
      <trkpt lat="22.3961717333" lon="114.0358743324"><ele>106.000</ele></trkpt>
      <trkpt lat="22.3962044602" lon="114.0359131727"><ele>106.000</ele></trkpt>
      <trkpt lat="22.3962438687" lon="114.0359529298"><ele>107.000</ele></trkpt>
      <trkpt lat="22.3962930494" lon="114.0360003761"><ele>107.000</ele></trkpt>
      <trkpt lat="22.3963374658" lon="114.0360459695"><ele>107.000</ele></trkpt>
      <trkpt lat="22.3963545500" lon="114.0360660100"><ele>106.000</ele></trkpt>
      <trkpt lat="22.3963809357" lon="114.0361017355"><ele>106.000</ele></trkpt>
      <trkpt lat="22.3964036872" lon="114.0361402276"><ele>106.000</ele></trkpt>
      <trkpt lat="22.3964138347" lon="114.0361629845"><ele>106.000</ele></trkpt>
      <trkpt lat="22.3964195101" lon="114.0361803979"><ele>106.000</ele></trkpt>
      <trkpt lat="22.3964238433" lon="114.0362129750"><ele>105.000</ele></trkpt>
      <trkpt lat="22.3964199412" lon="114.0362368240"><ele>105.000</ele></trkpt>
      <trkpt lat="22.3964080691" lon="114.0362724763"><ele>104.000</ele></trkpt>
      <trkpt lat="22.3963876519" lon="114.0363169026"><ele>103.000</ele></trkpt>
      <trkpt lat="22.3963630740" lon="114.0363621237"><ele>103.000</ele></trkpt>
      <trkpt lat="22.3963319160" lon="114.0364149989"><ele>102.000</ele></trkpt>
      <trkpt lat="22.3962994446" lon="114.0364716628"><ele>101.000</ele></trkpt>
      <trkpt lat="22.3962688904" lon="114.0365387547"><ele>101.000</ele></trkpt>
      <trkpt lat="22.3962584690" lon="114.0365739015"><ele>100.000</ele></trkpt>
      <trkpt lat="22.3962573070" lon="114.0366096246"><ele>99.000</ele></trkpt>
      <trkpt lat="22.3962657066" lon="114.0366422276"><ele>98.000</ele></trkpt>
      <trkpt lat="22.3962851330" lon="114.0366881648"><ele>98.000</ele></trkpt>
      <trkpt lat="22.3963041019" lon="114.0367354261"><ele>98.000</ele></trkpt>
      <trkpt lat="22.3963130981" lon="114.0367730269"><ele>100.000</ele></trkpt>
      <trkpt lat="22.3963221986" lon="114.0368215713"><ele>98.000</ele></trkpt>
      <trkpt lat="22.3963471165" lon="114.0369489137"><ele>96.000</ele></trkpt>
      <trkpt lat="22.3963683631" lon="114.0370352102"><ele>95.000</ele></trkpt>
      <trkpt lat="22.3963840523" lon="114.0370754740"><ele>93.000</ele></trkpt>
      <trkpt lat="22.3963953023" lon="114.0370930673"><ele>93.000</ele></trkpt>
      <trkpt lat="22.3964232887" lon="114.0371254352"><ele>94.000</ele></trkpt>
      <trkpt lat="22.3964564722" lon="114.0371631052"><ele>96.000</ele></trkpt>
      <trkpt lat="22.3964696920" lon="114.0371851609"><ele>96.000</ele></trkpt>
      <trkpt lat="22.3964714532" lon="114.0372127110"><ele>96.000</ele></trkpt>
      <trkpt lat="22.3964625856" lon="114.0372350044"><ele>97.000</ele></trkpt>
      <trkpt lat="22.3964555696" lon="114.0372463241"><ele>97.000</ele></trkpt>
      <trkpt lat="22.3964404832" lon="114.0372629882"><ele>94.000</ele></trkpt>
      <trkpt lat="22.3964030103" lon="114.0372870658"><ele>95.000</ele></trkpt>
      <trkpt lat="22.3963638882" lon="114.0373140197"><ele>92.000</ele></trkpt>
      <trkpt lat="22.3963484674" lon="114.0373303976"><ele>92.000</ele></trkpt>
      <trkpt lat="22.3963326108" lon="114.0373503070"><ele>92.000</ele></trkpt>
      <trkpt lat="22.3963116675" lon="114.0373819740"><ele>93.000</ele></trkpt>
      <trkpt lat="22.3963094662" lon="114.0374085424"><ele>93.000</ele></trkpt>
      <trkpt lat="22.3963192222" lon="114.0374539756"><ele>94.000</ele></trkpt>
      <trkpt lat="22.3963363257" lon="114.0375186580"><ele>92.000</ele></trkpt>
      <trkpt lat="22.3963593703" lon="114.0375980141"><ele>95.000</ele></trkpt>
      <trkpt lat="22.3963846325" lon="114.0376822538"><ele>93.000</ele></trkpt>
      <trkpt lat="22.3964220556" lon="114.0378322277"><ele>92.000</ele></trkpt>
      <trkpt lat="22.3964321623" lon="114.0379087115"><ele>94.000</ele></trkpt>
      <trkpt lat="22.3964393238" lon="114.0379668964"><ele>94.000</ele></trkpt>
      <trkpt lat="22.3964474373" lon="114.0380117156"><ele>94.000</ele></trkpt>
      <trkpt lat="22.3964534051" lon="114.0380248180"><ele>94.000</ele></trkpt>
      <trkpt lat="22.3964666517" lon="114.0380330274"><ele>94.000</ele></trkpt>
      <trkpt lat="22.3964778418" lon="114.0380481465"><ele>94.000</ele></trkpt>
      <trkpt lat="22.3964864409" lon="114.0380685239"><ele>94.000</ele></trkpt>
      <trkpt lat="22.3965015576" lon="114.0381091176"><ele>94.000</ele></trkpt>
      <trkpt lat="22.3965274803" lon="114.0381731554"><ele>94.000</ele></trkpt>
      <trkpt lat="22.3965684587" lon="114.0382404014"><ele>94.000</ele></trkpt>
      <trkpt lat="22.3965993722" lon="114.0382923417"><ele>96.000</ele></trkpt>
      <trkpt lat="22.3966242356" lon="114.0383447610"><ele>94.000</ele></trkpt>
      <trkpt lat="22.3966433899" lon="114.0383971646"><ele>97.000</ele></trkpt>
      <trkpt lat="22.3966517537" lon="114.0384327861"><ele>97.000</ele></trkpt>
      <trkpt lat="22.3966607332" lon="114.0384745659"><ele>96.000</ele></trkpt>
      <trkpt lat="22.3966756592" lon="114.0385161447"><ele>94.000</ele></trkpt>
      <trkpt lat="22.3966988687" lon="114.0385554875"><ele>94.000</ele></trkpt>
      <trkpt lat="22.3967230423" lon="114.0385944914"><ele>92.000</ele></trkpt>
      <trkpt lat="22.3967375893" lon="114.0386163818"><ele>92.000</ele></trkpt>
      <trkpt lat="22.3967525611" lon="114.0386440413"><ele>92.000</ele></trkpt>
      <trkpt lat="22.3967591125" lon="114.0386702311"><ele>92.000</ele></trkpt>
      <trkpt lat="22.3967606619" lon="114.0387080357"><ele>93.000</ele></trkpt>
      <trkpt lat="22.3967560255" lon="114.0387670744"><ele>93.000</ele></trkpt>
      <trkpt lat="22.3967525250" lon="114.0388037642"><ele>94.000</ele></trkpt>
      <trkpt lat="22.3967529235" lon="114.0388453059"><ele>94.000</ele></trkpt>
      <trkpt lat="22.3967647649" lon="114.0388735337"><ele>96.000</ele></trkpt>
      <trkpt lat="22.3967650992" lon="114.0389076230"><ele>96.000</ele></trkpt>
      <trkpt lat="22.3967635694" lon="114.0390272931"><ele>93.000</ele></trkpt>
      <trkpt lat="22.3967664579" lon="114.0391127051"><ele>96.000</ele></trkpt>
      <trkpt lat="22.3967692207" lon="114.0391852041"><ele>96.000</ele></trkpt>
      <trkpt lat="22.3967744873" lon="114.0392382683"><ele>94.000</ele></trkpt>
      <trkpt lat="22.3967826424" lon="114.0392867003"><ele>94.000</ele></trkpt>
      <trkpt lat="22.3967900519" lon="114.0393238631"><ele>92.000</ele></trkpt>
      <trkpt lat="22.3968067770" lon="114.0393925697"><ele>90.000</ele></trkpt>
      <trkpt lat="22.3968246455" lon="114.0394370406"><ele>91.000</ele></trkpt>
      <trkpt lat="22.3968493140" lon="114.0394752023"><ele>89.000</ele></trkpt>
      <trkpt lat="22.3968746216" lon="114.0395120086"><ele>89.000</ele></trkpt>
      <trkpt lat="22.3968914115" lon="114.0395348622"><ele>89.000</ele></trkpt>
      <trkpt lat="22.3969128808" lon="114.0395596409"><ele>90.000</ele></trkpt>
      <trkpt lat="22.3969304944" lon="114.0395729476"><ele>90.000</ele></trkpt>
      <trkpt lat="22.3969321348" lon="114.0395831293"><ele>90.000</ele></trkpt>
      <trkpt lat="22.3969287968" lon="114.0396092871"><ele>92.000</ele></trkpt>
      <trkpt lat="22.3969313071" lon="114.0396537625"><ele>93.000</ele></trkpt>
      <trkpt lat="22.3969356225" lon="114.0397002997"><ele>94.000</ele></trkpt>
      <trkpt lat="22.3969446564" lon="114.0397831401"><ele>94.000</ele></trkpt>
      <trkpt lat="22.3969544127" lon="114.0398403982"><ele>98.000</ele></trkpt>
      <trkpt lat="22.3969627746" lon="114.0398751983"><ele>98.000</ele></trkpt>
      <trkpt lat="22.3969798468" lon="114.0399148048"><ele>98.000</ele></trkpt>
      <trkpt lat="22.3969891578" lon="114.0399314457"><ele>98.000</ele></trkpt>
      <trkpt lat="22.3970089052" lon="114.0399628678"><ele>100.000</ele></trkpt>
      <trkpt lat="22.3970250291" lon="114.0399766683"><ele>100.000</ele></trkpt>
      <trkpt lat="22.3970417151" lon="114.0399888057"><ele>102.000</ele></trkpt>
      <trkpt lat="22.3970465963" lon="114.0399923533"><ele>102.000</ele></trkpt>
      <trkpt lat="22.3970511882" lon="114.0400050464"><ele>102.000</ele></trkpt>
      <trkpt lat="22.3970489250" lon="114.0400379574"><ele>102.000</ele></trkpt>
      <trkpt lat="22.3970485958" lon="114.0400426803"><ele>102.000</ele></trkpt>
      <trkpt lat="22.3970415015" lon="114.0400748065"><ele>102.000</ele></trkpt>
      <trkpt lat="22.3970209521" lon="114.0401553442"><ele>98.000</ele></trkpt>
      <trkpt lat="22.3970150189" lon="114.0401946246"><ele>98.000</ele></trkpt>
      <trkpt lat="22.3970145114" lon="114.0402150111"><ele>98.000</ele></trkpt>
      <trkpt lat="22.3970306562" lon="114.0402759892"><ele>98.000</ele></trkpt>
      <trkpt lat="22.3970446921" lon="114.0403143363"><ele>101.000</ele></trkpt>
      <trkpt lat="22.3970496226" lon="114.0403547141"><ele>100.000</ele></trkpt>
      <trkpt lat="22.3970543964" lon="114.0404011276"><ele>100.000</ele></trkpt>
      <trkpt lat="22.3970598349" lon="114.0404550542"><ele>100.000</ele></trkpt>
      <trkpt lat="22.3970922245" lon="114.0405256657"><ele>100.000</ele></trkpt>
      <trkpt lat="22.3971070388" lon="114.0405479058"><ele>100.000</ele></trkpt>
      <trkpt lat="22.3971283219" lon="114.0407407792"><ele>98.000</ele></trkpt>
      <trkpt lat="22.3971409633" lon="114.0408553404"><ele>94.000</ele></trkpt>
      <trkpt lat="22.3971639631" lon="114.0410479858"><ele>92.000</ele></trkpt>
      <trkpt lat="22.3971869628" lon="114.0412406312"><ele>90.000</ele></trkpt>
      <trkpt lat="22.3971941521" lon="114.0413008499"><ele>89.000</ele></trkpt>
      <trkpt lat="22.3972124471" lon="114.0414940776"><ele>87.000</ele></trkpt>
      <trkpt lat="22.3972307419" lon="114.0416873053"><ele>87.000</ele></trkpt>
      <trkpt lat="22.3972490365" lon="114.0418805331"><ele>82.000</ele></trkpt>
      <trkpt lat="22.3972580973" lon="114.0419762352"><ele>80.000</ele></trkpt>
      <trkpt lat="22.3972872172" lon="114.0420641773"><ele>79.000</ele></trkpt>
      <trkpt lat="22.3973268913" lon="114.0421492872"><ele>78.000</ele></trkpt>
      <trkpt lat="22.3973718427" lon="114.0422201961"><ele>79.000</ele></trkpt>
      <trkpt lat="22.3973692748" lon="114.0423008503"><ele>79.000</ele></trkpt>
      <trkpt lat="22.3973694363" lon="114.0424950772"><ele>80.000</ele></trkpt>
      <trkpt lat="22.3973694470" lon="114.0425080283"><ele>80.000</ele></trkpt>
      <trkpt lat="22.3973430893" lon="114.0425846820"><ele>80.000</ele></trkpt>
      <trkpt lat="22.3972850838" lon="114.0426783755"><ele>80.000</ele></trkpt>
      <trkpt lat="22.3971535679" lon="114.0428114963"><ele>80.000</ele></trkpt>
      <trkpt lat="22.3971531634" lon="114.0428119057"><ele>80.000</ele></trkpt>
      <trkpt lat="22.3970613719" lon="114.0429791777"><ele>78.000</ele></trkpt>
      <trkpt lat="22.3970503250" lon="114.0429993087"><ele>78.000</ele></trkpt>
      <trkpt lat="22.3970134192" lon="114.0431686445"><ele>79.000</ele></trkpt>
      <trkpt lat="22.3970079988" lon="114.0431922793"><ele>79.000</ele></trkpt>
      <trkpt lat="22.3969879455" lon="114.0433853048"><ele>76.000</ele></trkpt>
      <trkpt lat="22.3969800897" lon="114.0434609203"><ele>76.000</ele></trkpt>
      <trkpt lat="22.3969848164" lon="114.0435552914"><ele>76.000</ele></trkpt>
      <trkpt lat="22.3969857199" lon="114.0435744558"><ele>76.000</ele></trkpt>
      <trkpt lat="22.3969857597" lon="114.0436227007"><ele>76.000</ele></trkpt>
      <trkpt lat="22.3969726010" lon="114.0436737919"><ele>76.000</ele></trkpt>
      <trkpt lat="22.3969383176" lon="114.0437362664"><ele>76.000</ele></trkpt>
      <trkpt lat="22.3968644666" lon="114.0438299732"><ele>76.000</ele></trkpt>
      <trkpt lat="22.3968354895" lon="114.0439265021"><ele>76.000</ele></trkpt>
      <trkpt lat="22.3968274674" lon="114.0441205367"><ele>76.000</ele></trkpt>
      <trkpt lat="22.3968224988" lon="114.0442407144"><ele>77.000</ele></trkpt>
      <trkpt lat="22.3968157284" lon="114.0443539635"><ele>77.000</ele></trkpt>
      <trkpt lat="22.3968036973" lon="114.0443839595"><ele>76.000</ele></trkpt>
      <trkpt lat="22.3967408241" lon="114.0444564693"><ele>76.000</ele></trkpt>
      <trkpt lat="22.3966616844" lon="114.0445502010"><ele>74.000</ele></trkpt>
      <trkpt lat="22.3966380299" lon="114.0446892825"><ele>76.000</ele></trkpt>
      <trkpt lat="22.3966302171" lon="114.0448113299"><ele>74.000</ele></trkpt>
      <trkpt lat="22.3965986329" lon="114.0449419097"><ele>74.000</ele></trkpt>
      <trkpt lat="22.3965327310" lon="114.0450923833"><ele>72.000</ele></trkpt>
      <trkpt lat="22.3964279965" lon="114.0452506175"><ele>70.000</ele></trkpt>
      <trkpt lat="22.3963232618" lon="114.0454088514"><ele>68.000</ele></trkpt>
      <trkpt lat="22.3962568183" lon="114.0455092346"><ele>64.000</ele></trkpt>
      <trkpt lat="22.3962554843" lon="114.0455112588"><ele>64.000</ele></trkpt>
      <trkpt lat="22.3962080453" lon="114.0456191460"><ele>64.000</ele></trkpt>
      <trkpt lat="22.3961923038" lon="114.0457355242"><ele>64.000</ele></trkpt>
      <trkpt lat="22.3962240767" lon="114.0458603571"><ele>64.000</ele></trkpt>
      <trkpt lat="22.3962716950" lon="114.0459624994"><ele>64.000</ele></trkpt>
      <trkpt lat="22.3963351076" lon="114.0460021446"><ele>66.000</ele></trkpt>
      <trkpt lat="22.3964037927" lon="114.0460446692"><ele>66.000</ele></trkpt>
      <trkpt lat="22.3964328759" lon="114.0460787014"><ele>66.000</ele></trkpt>
      <trkpt lat="22.3965068903" lon="114.0461609364"><ele>68.000</ele></trkpt>
      <trkpt lat="22.3965703045" lon="114.0462261312"><ele>68.000</ele></trkpt>
      <trkpt lat="22.3967387323" lon="114.0462962545"><ele>70.000</ele></trkpt>
      <trkpt lat="22.3968423799" lon="114.0463394073"><ele>72.000</ele></trkpt>
      <trkpt lat="22.3970087909" lon="114.0464073604"><ele>74.000</ele></trkpt>
      <trkpt lat="22.3971081287" lon="114.0464775827"><ele>74.000</ele></trkpt>
      <trkpt lat="22.3972635614" lon="114.0465764988"><ele>74.000</ele></trkpt>
      <trkpt lat="22.3972640072" lon="114.0465767825"><ele>74.000</ele></trkpt>
      <trkpt lat="22.3973215478" lon="114.0466498563"><ele>74.000</ele></trkpt>
      <trkpt lat="22.3973585579" lon="114.0467009113"><ele>72.000</ele></trkpt>
      <trkpt lat="22.3974061209" lon="114.0467349258"><ele>73.000</ele></trkpt>
      <trkpt lat="22.3975329093" lon="114.0467802104"><ele>72.000</ele></trkpt>
      <trkpt lat="22.3975751681" lon="114.0468057207"><ele>70.000</ele></trkpt>
      <trkpt lat="22.3975963423" lon="114.0468567789"><ele>72.000</ele></trkpt>
      <trkpt lat="22.3975990162" lon="114.0469050225"><ele>72.000</ele></trkpt>
      <trkpt lat="22.3975647210" lon="114.0469419469"><ele>72.000</ele></trkpt>
      <trkpt lat="22.3975093221" lon="114.0469931073"><ele>72.000</ele></trkpt>
      <trkpt lat="22.3973773389" lon="114.0470641713"><ele>72.000</ele></trkpt>
      <trkpt lat="22.3973377812" lon="114.0471209534"><ele>72.000</ele></trkpt>
      <trkpt lat="22.3973220001" lon="114.0472004399"><ele>72.000</ele></trkpt>
      <trkpt lat="22.3973405497" lon="114.0472883930"><ele>72.000</ele></trkpt>
      <trkpt lat="22.3973881262" lon="114.0473508017"><ele>72.000</ele></trkpt>
      <trkpt lat="22.3975248476" lon="114.0474777128"><ele>73.000</ele></trkpt>
      <trkpt lat="22.3975255568" lon="114.0474783711"><ele>73.000</ele></trkpt>
      <trkpt lat="22.3976710830" lon="114.0475934035"><ele>73.000</ele></trkpt>
      <trkpt lat="22.3976761623" lon="114.0475974185"><ele>74.000</ele></trkpt>
      <trkpt lat="22.3978462945" lon="114.0476626102"><ele>73.000</ele></trkpt>
      <trkpt lat="22.3978809245" lon="114.0476758798"><ele>73.000</ele></trkpt>
      <trkpt lat="22.3980367479" lon="114.0477069522"><ele>73.000</ele></trkpt>
      <trkpt lat="22.3980816506" lon="114.0477210972"><ele>72.000</ele></trkpt>
      <trkpt lat="22.3981318621" lon="114.0477721396"><ele>72.000</ele></trkpt>
      <trkpt lat="22.3982498567" lon="114.0479191874"><ele>70.000</ele></trkpt>
      <trkpt lat="22.3983079854" lon="114.0479916289"><ele>70.000</ele></trkpt>
      <trkpt lat="22.3982685149" lon="114.0480381053"><ele>70.000</ele></trkpt>
      <trkpt lat="22.3981857439" lon="114.0480820024"><ele>66.000</ele></trkpt>
      <trkpt lat="22.3980209364" lon="114.0481614538"><ele>72.000</ele></trkpt>
      <trkpt lat="22.3980080117" lon="114.0481676846"><ele>72.000</ele></trkpt>
      <trkpt lat="22.3979030586" lon="114.0482132761"><ele>72.000</ele></trkpt>
      <trkpt lat="22.3977227625" lon="114.0482018340"><ele>74.000</ele></trkpt>
      <trkpt lat="22.3976715539" lon="114.0481985841"><ele>75.000</ele></trkpt>
      <trkpt lat="22.3974983338" lon="114.0481435946"><ele>74.000</ele></trkpt>
      <trkpt lat="22.3973251138" lon="114.0480886052"><ele>76.000</ele></trkpt>
      <trkpt lat="22.3972282913" lon="114.0480578686"><ele>78.000</ele></trkpt>
      <trkpt lat="22.3970552436" lon="114.0480022553"><ele>80.000</ele></trkpt>
      <trkpt lat="22.3969546714" lon="114.0479699340"><ele>80.000</ele></trkpt>
      <trkpt lat="22.3968451920" lon="114.0479053556"><ele>82.000</ele></trkpt>
      <trkpt lat="22.3967131299" lon="114.0477941741"><ele>82.000</ele></trkpt>
      <trkpt lat="22.3966602563" lon="114.0477792772"><ele>84.000</ele></trkpt>
      <trkpt lat="22.3966101909" lon="114.0477912722"><ele>84.000</ele></trkpt>
      <trkpt lat="22.3965545700" lon="114.0478272097"><ele>84.000</ele></trkpt>
      <trkpt lat="22.3964155282" lon="114.0479050739"><ele>88.000</ele></trkpt>
      <trkpt lat="22.3963292867" lon="114.0479171129"><ele>86.000</ele></trkpt>
      <trkpt lat="22.3962402483" lon="114.0479052355"><ele>86.000</ele></trkpt>
      <trkpt lat="22.3961177458" lon="114.0478006979"><ele>88.000</ele></trkpt>
      <trkpt lat="22.3960592780" lon="114.0477499309"><ele>88.000</ele></trkpt>
      <trkpt lat="22.3959813526" lon="114.0477290721"><ele>90.000</ele></trkpt>
      <trkpt lat="22.3958438484" lon="114.0477240259"><ele>90.000</ele></trkpt>
      <trkpt lat="22.3957322897" lon="114.0477086181"><ele>90.000</ele></trkpt>
      <trkpt lat="22.3956209719" lon="114.0476127963"><ele>92.000</ele></trkpt>
      <trkpt lat="22.3955459592" lon="114.0475584827"><ele>92.000</ele></trkpt>
      <trkpt lat="22.3954578433" lon="114.0475303657"><ele>94.000</ele></trkpt>
      <trkpt lat="22.3953585020" lon="114.0475264342"><ele>94.000</ele></trkpt>
      <trkpt lat="22.3953060069" lon="114.0475083345"><ele>94.000</ele></trkpt>
      <trkpt lat="22.3952478644" lon="114.0474580288"><ele>92.000</ele></trkpt>
      <trkpt lat="22.3952234434" lon="114.0473815067"><ele>94.000</ele></trkpt>
      <trkpt lat="22.3952233531" lon="114.0472687170"><ele>94.000</ele></trkpt>
      <trkpt lat="22.3952164203" lon="114.0470984598"><ele>94.000</ele></trkpt>
      <trkpt lat="22.3951958207" lon="114.0469055032"><ele>93.000</ele></trkpt>
      <trkpt lat="22.3951899724" lon="114.0468507224"><ele>94.000</ele></trkpt>
      <trkpt lat="22.3951692746" lon="114.0467520448"><ele>94.000</ele></trkpt>
      <trkpt lat="22.3951373973" lon="114.0467097831"><ele>94.000</ele></trkpt>
      <trkpt lat="22.3950961516" lon="114.0466977301"><ele>94.000</ele></trkpt>
      <trkpt lat="22.3950343160" lon="114.0467199389"><ele>94.000</ele></trkpt>
      <trkpt lat="22.3949022993" lon="114.0468086374"><ele>94.000</ele></trkpt>
      <trkpt lat="22.3948142441" lon="114.0468449643"><ele>94.000</ele></trkpt>
      <trkpt lat="22.3946961613" lon="114.0468470959"><ele>94.000</ele></trkpt>
      <trkpt lat="22.3946024075" lon="114.0468008472"><ele>94.000</ele></trkpt>
      <trkpt lat="22.3945461482" lon="114.0467545754"><ele>94.000</ele></trkpt>
      <trkpt lat="22.3945010855" lon="114.0466720269"><ele>94.000</ele></trkpt>
      <trkpt lat="22.3944822923" lon="114.0465914758"><ele>92.000</ele></trkpt>
      <trkpt lat="22.3944990642" lon="114.0464731686"><ele>94.000</ele></trkpt>
      <trkpt lat="22.3945408165" lon="114.0462842066"><ele>94.000</ele></trkpt>
      <trkpt lat="22.3945756340" lon="114.0461266292"><ele>94.000</ele></trkpt>
      <trkpt lat="22.3945884331" lon="114.0459328944"><ele>94.000</ele></trkpt>
      <trkpt lat="22.3945978594" lon="114.0457902109"><ele>94.000</ele></trkpt>
      <trkpt lat="22.3945753160" lon="114.0457338481"><ele>94.000</ele></trkpt>
      <trkpt lat="22.3945265539" lon="114.0456935935"><ele>94.000</ele></trkpt>
      <trkpt lat="22.3944353883" lon="114.0456478987"><ele>94.000</ele></trkpt>
      <trkpt lat="22.3943678619" lon="114.0455855106"><ele>94.000</ele></trkpt>
      <trkpt lat="22.3942928108" lon="114.0454848532"><ele>94.000</ele></trkpt>
      <trkpt lat="22.3942552902" lon="114.0454405756"><ele>94.000</ele></trkpt>
      <trkpt lat="22.3942140280" lon="114.0454083831"><ele>94.000</ele></trkpt>
      <trkpt lat="22.3941652914" lon="114.0453983584"><ele>94.000</ele></trkpt>
      <trkpt lat="22.3941015668" lon="114.0453984183"><ele>94.000</ele></trkpt>
      <trkpt lat="22.3940172461" lon="114.0454246933"><ele>94.000</ele></trkpt>
      <trkpt lat="22.3939328966" lon="114.0454167046"><ele>94.000</ele></trkpt>
      <trkpt lat="22.3938597640" lon="114.0453744727"><ele>94.000</ele></trkpt>
      <trkpt lat="22.3937791061" lon="114.0452919682"><ele>94.000</ele></trkpt>
      <trkpt lat="22.3937204951" lon="114.0452304656"><ele>94.000</ele></trkpt>
      <trkpt lat="22.3936548766" lon="114.0451902487"><ele>94.000</ele></trkpt>
      <trkpt lat="22.3935536461" lon="114.0451641483"><ele>94.000</ele></trkpt>
      <trkpt lat="22.3934936408" lon="114.0451360077"><ele>93.000</ele></trkpt>
      <trkpt lat="22.3934373679" lon="114.0450857126"><ele>94.000</ele></trkpt>
      <trkpt lat="22.3933829530" lon="114.0449951265"><ele>96.000</ele></trkpt>
      <trkpt lat="22.3933304157" lon="114.0449367494"><ele>94.000</ele></trkpt>
      <trkpt lat="22.3932854138" lon="114.0449065826"><ele>94.000</ele></trkpt>
      <trkpt lat="22.3932085635" lon="114.0448945532"><ele>94.000</ele></trkpt>
      <trkpt lat="22.3930303981" lon="114.0449263991"><ele>94.000</ele></trkpt>
      <trkpt lat="22.3928909224" lon="114.0449513294"><ele>94.000</ele></trkpt>
      <trkpt lat="22.3928609510" lon="114.0449755207"><ele>94.000</ele></trkpt>
      <trkpt lat="22.3928235000" lon="114.0450279364"><ele>94.000</ele></trkpt>
      <trkpt lat="22.3927729520" lon="114.0450803546"><ele>94.000</ele></trkpt>
      <trkpt lat="22.3927017709" lon="114.0451368253"><ele>94.000</ele></trkpt>
      <trkpt lat="22.3925449077" lon="114.0452330915"><ele>94.000</ele></trkpt>
      <trkpt lat="22.3924161553" lon="114.0453121061"><ele>94.000</ele></trkpt>
      <trkpt lat="22.3922578803" lon="114.0454056618"><ele>94.000</ele></trkpt>
      <trkpt lat="22.3921669989" lon="114.0454593813"><ele>94.000</ele></trkpt>
      <trkpt lat="22.3920085649" lon="114.0455526249"><ele>95.000</ele></trkpt>
      <trkpt lat="22.3920058834" lon="114.0455542031"><ele>95.000</ele></trkpt>
      <trkpt lat="22.3919271817" lon="114.0455764383"><ele>94.000</ele></trkpt>
      <trkpt lat="22.3918784408" lon="114.0455623808"><ele>94.000</ele></trkpt>
      <trkpt lat="22.3918371829" lon="114.0455342228"><ele>95.000</ele></trkpt>
      <trkpt lat="22.3917877586" lon="114.0454536818"><ele>94.000</ele></trkpt>
      <trkpt lat="22.3917445517" lon="114.0453308554"><ele>96.000</ele></trkpt>
      <trkpt lat="22.3917332209" lon="114.0452361851"><ele>96.000</ele></trkpt>
      <trkpt lat="22.3917068416" lon="114.0450649970"><ele>96.000</ele></trkpt>
      <trkpt lat="22.3916767314" lon="114.0449079156"><ele>96.000</ele></trkpt>
      <trkpt lat="22.3916316522" lon="114.0447830685"><ele>96.000</ele></trkpt>
      <trkpt lat="22.3915878642" lon="114.0447210607"><ele>96.000</ele></trkpt>
      <trkpt lat="22.3915397195" lon="114.0446763941"><ele>97.000</ele></trkpt>
      <trkpt lat="22.3914834778" lon="114.0446522845"><ele>98.000</ele></trkpt>
      <trkpt lat="22.3913410105" lon="114.0446242117"><ele>98.000</ele></trkpt>
      <trkpt lat="22.3911753742" lon="114.0445824579"><ele>99.000</ele></trkpt>
      <trkpt lat="22.3910516829" lon="114.0445906330"><ele>99.000</ele></trkpt>
      <trkpt lat="22.3909064099" lon="114.0445991052"><ele>99.000</ele></trkpt>
      <trkpt lat="22.3908511340" lon="114.0445888212"><ele>100.000</ele></trkpt>
      <trkpt lat="22.3907768406" lon="114.0445629323"><ele>100.000</ele></trkpt>
      <trkpt lat="22.3907131061" lon="114.0445509112"><ele>102.000</ele></trkpt>
      <trkpt lat="22.3905688023" lon="114.0445651411"><ele>100.000</ele></trkpt>
      <trkpt lat="22.3904563524" lon="114.0445813627"><ele>100.000</ele></trkpt>
      <trkpt lat="22.3903963791" lon="114.0445814194"><ele>100.000</ele></trkpt>
      <trkpt lat="22.3903026305" lon="114.0445412400"><ele>100.000</ele></trkpt>
      <trkpt lat="22.3901494343" lon="114.0444383728"><ele>100.000</ele></trkpt>
      <trkpt lat="22.3899962380" lon="114.0443355059"><ele>96.000</ele></trkpt>
      <trkpt lat="22.3898550614" lon="114.0442407101"><ele>94.000</ele></trkpt>
      <trkpt lat="22.3898529984" lon="114.0442391515"><ele>94.000</ele></trkpt>
      <trkpt lat="22.3897901944" lon="114.0441856412"><ele>92.000</ele></trkpt>
      <trkpt lat="22.3896753153" lon="114.0440357765"><ele>90.000</ele></trkpt>
      <trkpt lat="22.3895604361" lon="114.0438859120"><ele>90.000</ele></trkpt>
      <trkpt lat="22.3894455567" lon="114.0437360478"><ele>92.000</ele></trkpt>
      <trkpt lat="22.3894168192" lon="114.0436985588"><ele>92.000</ele></trkpt>
      <trkpt lat="22.3893474069" lon="114.0436180495"><ele>94.000</ele></trkpt>
      <trkpt lat="22.3892667497" lon="114.0435496526"><ele>94.000</ele></trkpt>
      <trkpt lat="22.3891525638" lon="114.0433991771"><ele>96.000</ele></trkpt>
      <trkpt lat="22.3890449706" lon="114.0432573900"><ele>100.000</ele></trkpt>
      <trkpt lat="22.3889612108" lon="114.0431763404"><ele>102.000</ele></trkpt>
      <trkpt lat="22.3888649142" lon="114.0430923984"><ele>104.000</ele></trkpt>
      <trkpt lat="22.3887056923" lon="114.0430007216"><ele>108.000</ele></trkpt>
      <trkpt lat="22.3885855138" lon="114.0429315254"><ele>108.000</ele></trkpt>
      <trkpt lat="22.3884823777" lon="114.0428752320"><ele>110.000</ele></trkpt>
      <trkpt lat="22.3884467315" lon="114.0428248985"><ele>110.000</ele></trkpt>
      <trkpt lat="22.3884353992" lon="114.0427302413"><ele>112.000</ele></trkpt>
      <trkpt lat="22.3884390100" lon="114.0425489589"><ele>114.000</ele></trkpt>
      <trkpt lat="22.3884108188" lon="114.0424643880"><ele>116.000</ele></trkpt>
      <trkpt lat="22.3883733016" lon="114.0424241469"><ele>118.000</ele></trkpt>
      <trkpt lat="22.3883208092" lon="114.0424100935"><ele>116.000</ele></trkpt>
      <trkpt lat="22.3881408450" lon="114.0424265015"><ele>118.000</ele></trkpt>
      <trkpt lat="22.3879849343" lon="114.0424407165"><ele>120.000</ele></trkpt>
      <trkpt lat="22.3879324685" lon="114.0424347210"><ele>121.000</ele></trkpt>
      <trkpt lat="22.3878724533" lon="114.0423844229"><ele>122.000</ele></trkpt>
      <trkpt lat="22.3878180538" lon="114.0423260606"><ele>124.000</ele></trkpt>
      <trkpt lat="22.3877561870" lon="114.0423100159"><ele>124.000</ele></trkpt>
      <trkpt lat="22.3876493446" lon="114.0423080959"><ele>126.000</ele></trkpt>
      <trkpt lat="22.3875818594" lon="114.0422860107"><ele>126.000</ele></trkpt>
      <trkpt lat="22.3875263725" lon="114.0422405832"><ele>128.000</ele></trkpt>
      <trkpt lat="22.3874982171" lon="114.0421862199"><ele>130.000</ele></trkpt>
      <trkpt lat="22.3874962807" lon="114.0421197503"><ele>130.000</ele></trkpt>
      <trkpt lat="22.3875205783" lon="114.0420331271"><ele>132.000</ele></trkpt>
      <trkpt lat="22.3875830637" lon="114.0418509073"><ele>134.000</ele></trkpt>
      <trkpt lat="22.3875841483" lon="114.0418477445"><ele>134.000</ele></trkpt>
      <trkpt lat="22.3875840979" lon="114.0417873286"><ele>134.000</ele></trkpt>
      <trkpt lat="22.3875448338" lon="114.0416571134"><ele>136.000</ele></trkpt>
      <trkpt lat="22.3875023763" lon="114.0415883320"><ele>137.000</ele></trkpt>
      <trkpt lat="22.3874608042" lon="114.0415632663"><ele>137.000</ele></trkpt>
      <trkpt lat="22.3874292404" lon="114.0415553107"><ele>137.000</ele></trkpt>
      <trkpt lat="22.3873963078" lon="114.0415421021"><ele>138.000</ele></trkpt>
      <trkpt lat="22.3873753956" lon="114.0415321242"><ele>138.000</ele></trkpt>
      <trkpt lat="22.3873357179" lon="114.0414895658"><ele>138.000</ele></trkpt>
      <trkpt lat="22.3872851712" lon="114.0414158254"><ele>138.000</ele></trkpt>
      <trkpt lat="22.3872306880" lon="114.0412698281"><ele>142.000</ele></trkpt>
      <trkpt lat="22.3871799206" lon="114.0412183914"><ele>144.000</ele></trkpt>
      <trkpt lat="22.3870953323" lon="114.0411639608"><ele>146.000</ele></trkpt>
      <trkpt lat="22.3869284161" lon="114.0410897803"><ele>152.000</ele></trkpt>
      <trkpt lat="22.3867614998" lon="114.0410155999"><ele>154.000</ele></trkpt>
      <trkpt lat="22.3867555251" lon="114.0410129446"><ele>154.000</ele></trkpt>
      <trkpt lat="22.3866371455" lon="114.0409918632"><ele>155.000</ele></trkpt>
      <trkpt lat="22.3865498217" lon="114.0410222383"><ele>156.000</ele></trkpt>
      <trkpt lat="22.3863948962" lon="114.0411071806"><ele>157.000</ele></trkpt>
      <trkpt lat="22.3863357324" lon="114.0411163223"><ele>160.000</ele></trkpt>
      <trkpt lat="22.3862595988" lon="114.0410709768"><ele>159.000</ele></trkpt>
      <trkpt lat="22.3861834599" lon="114.0410074542"><ele>158.000</ele></trkpt>
      <trkpt lat="22.3861699672" lon="114.0409448555"><ele>158.000</ele></trkpt>
      <trkpt lat="22.3862027111" lon="114.0407538624"><ele>160.000</ele></trkpt>
      <trkpt lat="22.3862117334" lon="114.0407012357"><ele>160.000</ele></trkpt>
      <trkpt lat="22.3862259971" lon="114.0405692658"><ele>164.000</ele></trkpt>
      <trkpt lat="22.3862343798" lon="114.0404693154"><ele>164.000</ele></trkpt>
      <trkpt lat="22.3862005172" lon="114.0404178736"><ele>162.000</ele></trkpt>
      <trkpt lat="22.3861497607" lon="114.0403785496"><ele>164.000</ele></trkpt>
      <trkpt lat="22.3859852531" lon="114.0402983890"><ele>165.000</ele></trkpt>
      <trkpt lat="22.3858207455" lon="114.0402182285"><ele>164.000</ele></trkpt>
      <trkpt lat="22.3858086322" lon="114.0402123260"><ele>164.000</ele></trkpt>
      <trkpt lat="22.3857635263" lon="114.0401851184"><ele>162.000</ele></trkpt>
      <trkpt lat="22.3857381317" lon="114.0401457495"><ele>164.000</ele></trkpt>
      <trkpt lat="22.3857248602" lon="114.0400407293"><ele>165.000</ele></trkpt>
      <trkpt lat="22.3857444580" lon="114.0398953501"><ele>168.000</ele></trkpt>
      <trkpt lat="22.3857725858" lon="114.0397035089"><ele>170.000</ele></trkpt>
      <trkpt lat="22.3857808735" lon="114.0396469837"><ele>171.000</ele></trkpt>
      <trkpt lat="22.3857892034" lon="114.0394864641"><ele>172.000</ele></trkpt>
      <trkpt lat="22.3857665373" lon="114.0393562650"><ele>174.000</ele></trkpt>
      <trkpt lat="22.3856949337" lon="114.0391779689"><ele>178.000</ele></trkpt>
      <trkpt lat="22.3856790026" lon="114.0391382999"><ele>178.000</ele></trkpt>
      <trkpt lat="22.3855756821" lon="114.0389790066"><ele>180.000</ele></trkpt>
      <trkpt lat="22.3854984064" lon="114.0388598680"><ele>182.000</ele></trkpt>
      <trkpt lat="22.3854166071" lon="114.0387751467"><ele>184.000</ele></trkpt>
      <trkpt lat="22.3852649706" lon="114.0386696448"><ele>187.000</ele></trkpt>
      <trkpt lat="22.3852258635" lon="114.0386424359"><ele>188.000</ele></trkpt>
      <trkpt lat="22.3850651808" lon="114.0385537577"><ele>188.000</ele></trkpt>
      <trkpt lat="22.3850341414" lon="114.0385366275"><ele>186.000</ele></trkpt>
      <trkpt lat="22.3849608314" lon="114.0384791595"><ele>188.000</ele></trkpt>
      <trkpt lat="22.3849213315" lon="114.0384216484"><ele>189.000</ele></trkpt>
      <trkpt lat="22.3848959033" lon="114.0383550489"><ele>189.000</ele></trkpt>
      <trkpt lat="22.3848366100" lon="114.0382127752"><ele>192.000</ele></trkpt>
      <trkpt lat="22.3847305428" lon="114.0380555841"><ele>194.000</ele></trkpt>
      <trkpt lat="22.3847106234" lon="114.0380260638"><ele>194.000</ele></trkpt>
      <trkpt lat="22.3845978021" lon="114.0379201996"><ele>196.000</ele></trkpt>
      <trkpt lat="22.3844430157" lon="114.0378201270"><ele>198.000</ele></trkpt>
      <trkpt lat="22.3842882292" lon="114.0377200545"><ele>200.000</ele></trkpt>
      <trkpt lat="22.3842002471" lon="114.0376631726"><ele>201.000</ele></trkpt>
      <trkpt lat="22.3840359218" lon="114.0375825821"><ele>202.000</ele></trkpt>
      <trkpt lat="22.3839352426" lon="114.0375332059"><ele>204.000</ele></trkpt>
      <trkpt lat="22.3838704137" lon="114.0375029914"><ele>206.000</ele></trkpt>
      <trkpt lat="22.3838196894" lon="114.0375030419"><ele>208.000</ele></trkpt>
      <trkpt lat="22.3837282166" lon="114.0375363989"><ele>209.000</ele></trkpt>
      <trkpt lat="22.3835761544" lon="114.0376411889"><ele>212.000</ele></trkpt>
      <trkpt lat="22.3835169793" lon="114.0376819679"><ele>214.000</ele></trkpt>
      <trkpt lat="22.3834127784" lon="114.0377547605"><ele>214.000</ele></trkpt>
      <trkpt lat="22.3833339578" lon="114.0378487130"><ele>216.000</ele></trkpt>
      <trkpt lat="22.3832505478" lon="114.0380209694"><ele>216.000</ele></trkpt>
      <trkpt lat="22.3831671376" lon="114.0381932257"><ele>212.000</ele></trkpt>
      <trkpt lat="22.3830837271" lon="114.0383654817"><ele>208.000</ele></trkpt>
      <trkpt lat="22.3830003165" lon="114.0385377375"><ele>208.000</ele></trkpt>
      <trkpt lat="22.3829411458" lon="114.0386599339"><ele>210.000</ele></trkpt>
      <trkpt lat="22.3828876597" lon="114.0388454294"><ele>214.000</ele></trkpt>
      <trkpt lat="22.3828341734" lon="114.0390309249"><ele>214.000</ele></trkpt>
      <trkpt lat="22.3828095424" lon="114.0391163469"><ele>216.000</ele></trkpt>
      <trkpt lat="22.3827195011" lon="114.0392618032"><ele>214.000</ele></trkpt>
      <trkpt lat="22.3826519193" lon="114.0393284931"><ele>214.000</ele></trkpt>
      <trkpt lat="22.3824951657" lon="114.0394249591"><ele>214.000</ele></trkpt>
      <trkpt lat="22.3824941892" lon="114.0394255600"><ele>214.000</ele></trkpt>
      <trkpt lat="22.3823435616" lon="114.0395327181"><ele>214.000</ele></trkpt>
      <trkpt lat="22.3823364809" lon="114.0395377554"><ele>214.000</ele></trkpt>
      <trkpt lat="22.3822520285" lon="114.0396559553"><ele>214.000</ele></trkpt>
      <trkpt lat="22.3821594649" lon="114.0398227168"><ele>216.000</ele></trkpt>
      <trkpt lat="22.3821096766" lon="114.0399124146"><ele>216.000</ele></trkpt>
      <trkpt lat="22.3820336555" lon="114.0400003165"><ele>216.000</ele></trkpt>
      <trkpt lat="22.3819012833" lon="114.0400822182"><ele>216.000</ele></trkpt>
      <trkpt lat="22.3818055711" lon="114.0401146741"><ele>216.000</ele></trkpt>
      <trkpt lat="22.3816684912" lon="114.0401611794"><ele>218.000</ele></trkpt>
      <trkpt lat="22.3815924402" lon="114.0401915322"><ele>221.000</ele></trkpt>
      <trkpt lat="22.3814600935" lon="114.0403037226"><ele>224.000</ele></trkpt>
      <trkpt lat="22.3813209518" lon="114.0404275402"><ele>230.000</ele></trkpt>
      <trkpt lat="22.3812488804" lon="114.0404916741"><ele>232.000</ele></trkpt>
      <trkpt lat="22.3810815514" lon="114.0405647687"><ele>236.000</ele></trkpt>
      <trkpt lat="22.3810404300" lon="114.0405827318"><ele>236.000</ele></trkpt>
      <trkpt lat="22.3809148972" lon="114.0406151754"><ele>236.000</ele></trkpt>
      <trkpt lat="22.3807343048" lon="114.0406124544"><ele>236.000</ele></trkpt>
      <trkpt lat="22.3807260886" lon="114.0406123306"><ele>236.000</ele></trkpt>
      <trkpt lat="22.3806387421" lon="114.0406275655"><ele>234.000</ele></trkpt>
      <trkpt lat="22.3805655333" lon="114.0407003039"><ele>234.000</ele></trkpt>
      <trkpt lat="22.3805008148" lon="114.0408124272"><ele>234.000</ele></trkpt>
      <trkpt lat="22.3804615219" lon="114.0410002097"><ele>236.000</ele></trkpt>
      <trkpt lat="22.3804538318" lon="114.0411942371"><ele>238.000</ele></trkpt>
      <trkpt lat="22.3804532401" lon="114.0412091672"><ele>238.000</ele></trkpt>
      <trkpt lat="22.3804674882" lon="114.0413878352"><ele>242.000</ele></trkpt>
      <trkpt lat="22.3804873635" lon="114.0415725425"><ele>245.000</ele></trkpt>
      <trkpt lat="22.3804637777" lon="114.0417650829"><ele>248.000</ele></trkpt>
      <trkpt lat="22.3804565700" lon="114.0418239222"><ele>250.000</ele></trkpt>
      <trkpt lat="22.3804151085" lon="114.0420129392"><ele>250.000</ele></trkpt>
      <trkpt lat="22.3803837672" lon="114.0421558191"><ele>250.000</ele></trkpt>
      <trkpt lat="22.3803307924" lon="114.0423414809"><ele>248.000</ele></trkpt>
      <trkpt lat="22.3803275851" lon="114.0423527216"><ele>248.000</ele></trkpt>
      <trkpt lat="22.3803389610" lon="114.0424768611"><ele>246.000</ele></trkpt>
      <trkpt lat="22.3803756347" lon="114.0425343538"><ele>244.000</ele></trkpt>
      <trkpt lat="22.3804714938" lon="114.0425857558"><ele>242.000</ele></trkpt>
      <trkpt lat="22.3805441828" lon="114.0426453493"><ele>240.000</ele></trkpt>
      <trkpt lat="22.3806006204" lon="114.0427331113"><ele>240.000</ele></trkpt>
      <trkpt lat="22.3806458111" lon="114.0428511730"><ele>241.000</ele></trkpt>
      <trkpt lat="22.3806797507" lon="114.0430086078"><ele>244.000</ele></trkpt>
      <trkpt lat="22.3806591827" lon="114.0431842713"><ele>249.000</ele></trkpt>
      <trkpt lat="22.3806123599" lon="114.0432963658"><ele>252.000</ele></trkpt>
      <trkpt lat="22.3805475996" lon="114.0433600215"><ele>254.000</ele></trkpt>
      <trkpt lat="22.3804133625" lon="114.0434899480"><ele>254.000</ele></trkpt>
      <trkpt lat="22.3802791254" lon="114.0436198743"><ele>256.000</ele></trkpt>
      <trkpt lat="22.3802103262" lon="114.0436864638"><ele>256.000</ele></trkpt>
      <trkpt lat="22.3801427525" lon="114.0437652610"><ele>256.000</ele></trkpt>
      <trkpt lat="22.3801061848" lon="114.0438349457"><ele>256.000</ele></trkpt>
      <trkpt lat="22.3800864988" lon="114.0438894850"><ele>256.000</ele></trkpt>
      <trkpt lat="22.3800619984" lon="114.0440818928"><ele>256.000</ele></trkpt>
      <trkpt lat="22.3800538069" lon="114.0441462224"><ele>258.000</ele></trkpt>
      <trkpt lat="22.3800426607" lon="114.0443006709"><ele>260.000</ele></trkpt>
      <trkpt lat="22.3800033588" lon="114.0444824064"><ele>264.000</ele></trkpt>
      <trkpt lat="22.3799527582" lon="114.0446459760"><ele>266.000</ele></trkpt>
      <trkpt lat="22.3798617078" lon="114.0448136952"><ele>264.000</ele></trkpt>
      <trkpt lat="22.3798458397" lon="114.0448429248"><ele>264.000</ele></trkpt>
      <trkpt lat="22.3797811745" lon="114.0449420000"><ele>262.000</ele></trkpt>
      <trkpt lat="22.3797079754" lon="114.0450056732"><ele>262.000</ele></trkpt>
      <trkpt lat="22.3795502031" lon="114.0450784991"><ele>257.000</ele></trkpt>
      <trkpt lat="22.3795164225" lon="114.0451148642"><ele>256.000</ele></trkpt>
      <trkpt lat="22.3795051916" lon="114.0451663578"><ele>254.000</ele></trkpt>
      <trkpt lat="22.3794968027" lon="114.0452390430"><ele>254.000</ele></trkpt>
      <trkpt lat="22.3794930956" lon="114.0454332043"><ele>250.000</ele></trkpt>
      <trkpt lat="22.3794893882" lon="114.0456273655"><ele>244.000</ele></trkpt>
      <trkpt lat="22.3794859895" lon="114.0458053518"><ele>240.000</ele></trkpt>
      <trkpt lat="22.3795109298" lon="114.0459976934"><ele>240.000</ele></trkpt>
      <trkpt lat="22.3795115109" lon="114.0460021752"><ele>240.000</ele></trkpt>
      <trkpt lat="22.3795601096" lon="114.0461892148"><ele>240.000</ele></trkpt>
      <trkpt lat="22.3795647678" lon="114.0462071429"><ele>240.000</ele></trkpt>
      <trkpt lat="22.3796294566" lon="114.0463884613"><ele>240.000</ele></trkpt>
      <trkpt lat="22.3796382129" lon="114.0464130047"><ele>240.000</ele></trkpt>
      <trkpt lat="22.3797244967" lon="114.0465836123"><ele>238.000</ele></trkpt>
      <trkpt lat="22.3797285318" lon="114.0465915908"><ele>238.000</ele></trkpt>
      <trkpt lat="22.3797877839" lon="114.0466793521"><ele>240.000</ele></trkpt>
      <trkpt lat="22.3799334502" lon="114.0467941650"><ele>236.000</ele></trkpt>
      <trkpt lat="22.3799637492" lon="114.0468180464"><ele>239.000</ele></trkpt>
      <trkpt lat="22.3800285677" lon="114.0468846085"><ele>235.000</ele></trkpt>
      <trkpt lat="22.3800849726" lon="114.0469693549"><ele>236.000</ele></trkpt>
      <trkpt lat="22.3801301675" lon="114.0471449455"><ele>232.000</ele></trkpt>
      <trkpt lat="22.3801894501" lon="114.0473084232"><ele>228.000</ele></trkpt>
      <trkpt lat="22.3802232826" lon="114.0473598645"><ele>228.000</ele></trkpt>
      <trkpt lat="22.3802909307" lon="114.0474203885"><ele>228.000</ele></trkpt>
      <trkpt lat="22.3803895558" lon="114.0474838912"><ele>226.000</ele></trkpt>
      <trkpt lat="22.3805093293" lon="114.0475529073"><ele>226.000</ele></trkpt>
      <trkpt lat="22.3805362489" lon="114.0475670981"><ele>226.000</ele></trkpt>
      <trkpt lat="22.3805611741" lon="114.0475819472"><ele>226.000</ele></trkpt>
      <trkpt lat="22.3805747992" lon="114.0476112274"><ele>226.000</ele></trkpt>
      <trkpt lat="22.3805748176" lon="114.0476342492"><ele>224.000</ele></trkpt>
      <trkpt lat="22.3805691479" lon="114.0476586406"><ele>224.000</ele></trkpt>
      <trkpt lat="22.3805397933" lon="114.0476903317"><ele>224.000</ele></trkpt>
      <trkpt lat="22.3804729176" lon="114.0476774915"><ele>224.000</ele></trkpt>
      <trkpt lat="22.3804544975" lon="114.0476802390"><ele>224.000</ele></trkpt>
      <trkpt lat="22.3803300108" lon="114.0476969398"><ele>222.000</ele></trkpt>
      <trkpt lat="22.3802239593" lon="114.0476574095"><ele>220.000</ele></trkpt>
      <trkpt lat="22.3801041102" lon="114.0476723719"><ele>220.000</ele></trkpt>
      <trkpt lat="22.3799918697" lon="114.0478245206"><ele>220.000</ele></trkpt>
      <trkpt lat="22.3799797834" lon="114.0478409042"><ele>220.000</ele></trkpt>
      <trkpt lat="22.3798830981" lon="114.0479846646"><ele>218.000</ele></trkpt>
      <trkpt lat="22.3798739362" lon="114.0480589721"><ele>216.000</ele></trkpt>
      <trkpt lat="22.3798786418" lon="114.0481778519"><ele>214.000</ele></trkpt>
      <trkpt lat="22.3799663280" lon="114.0483016242"><ele>210.000</ele></trkpt>
      <trkpt lat="22.3800985063" lon="114.0484339683"><ele>208.000</ele></trkpt>
      <trkpt lat="22.3801047213" lon="114.0484401912"><ele>208.000</ele></trkpt>
      <trkpt lat="22.3801310089" lon="114.0485480692"><ele>208.000</ele></trkpt>
      <trkpt lat="22.3801325277" lon="114.0486333492"><ele>208.000</ele></trkpt>
      <trkpt lat="22.3800865346" lon="114.0487374143"><ele>208.000</ele></trkpt>
      <trkpt lat="22.3799897943" lon="114.0488365784"><ele>210.000</ele></trkpt>
      <trkpt lat="22.3798331443" lon="114.0489308401"><ele>210.000</ele></trkpt>
      <trkpt lat="22.3796598418" lon="114.0489855227"><ele>213.000</ele></trkpt>
      <trkpt lat="22.3796441937" lon="114.0489904601"><ele>214.000</ele></trkpt>
      <trkpt lat="22.3795656377" lon="114.0490538797"><ele>214.000</ele></trkpt>
      <trkpt lat="22.3794559531" lon="114.0492081681"><ele>212.000</ele></trkpt>
      <trkpt lat="22.3794415526" lon="114.0492284245"><ele>212.000</ele></trkpt>
      <trkpt lat="22.3793401992" lon="114.0493127200"><ele>208.000</ele></trkpt>
      <trkpt lat="22.3792065660" lon="114.0493623739"><ele>204.000</ele></trkpt>
      <trkpt lat="22.3791097416" lon="114.0493426536"><ele>202.000</ele></trkpt>
      <trkpt lat="22.3789618649" lon="114.0492311559"><ele>200.000</ele></trkpt>
      <trkpt lat="22.3788538508" lon="114.0491497145"><ele>200.000</ele></trkpt>
      <trkpt lat="22.3786909900" lon="114.0490657596"><ele>198.000</ele></trkpt>
      <trkpt lat="22.3786140410" lon="114.0490260923"><ele>198.000</ele></trkpt>
      <trkpt lat="22.3784956028" lon="114.0488794777"><ele>198.000</ele></trkpt>
      <trkpt lat="22.3784940815" lon="114.0488775945"><ele>198.000</ele></trkpt>
      <trkpt lat="22.3784433357" lon="114.0488379928"><ele>200.000</ele></trkpt>
      <trkpt lat="22.3783695842" lon="114.0488331130"><ele>200.000</ele></trkpt>
      <trkpt lat="22.3782082144" lon="114.0487886761"><ele>200.000</ele></trkpt>
      <trkpt lat="22.3780380608" lon="114.0487235566"><ele>198.000</ele></trkpt>
      <trkpt lat="22.3779499818" lon="114.0486898479"><ele>200.000</ele></trkpt>
      <trkpt lat="22.3777740918" lon="114.0486457399"><ele>200.000</ele></trkpt>
      <trkpt lat="22.3776753364" lon="114.0486209750"><ele>198.000</ele></trkpt>
      <trkpt lat="22.3774954223" lon="114.0486039418"><ele>198.000</ele></trkpt>
      <trkpt lat="22.3774678909" lon="114.0486013353"><ele>198.000</ele></trkpt>
      <trkpt lat="22.3773940545" lon="114.0485122441"><ele>198.000</ele></trkpt>
      <trkpt lat="22.3773571509" lon="114.0484627357"><ele>198.000</ele></trkpt>
      <trkpt lat="22.3772972135" lon="114.0484479393"><ele>198.000</ele></trkpt>
      <trkpt lat="22.3771543554" lon="114.0485174208"><ele>198.000</ele></trkpt>
      <trkpt lat="22.3769888601" lon="114.0485951908"><ele>199.000</ele></trkpt>
      <trkpt lat="22.3769221274" lon="114.0486265500"><ele>198.000</ele></trkpt>
      <trkpt lat="22.3767430951" lon="114.0486521648"><ele>197.000</ele></trkpt>
      <trkpt lat="22.3765640629" lon="114.0486777794"><ele>196.000</ele></trkpt>
      <trkpt lat="22.3763850306" lon="114.0487033941"><ele>196.000</ele></trkpt>
      <trkpt lat="22.3762059984" lon="114.0487290086"><ele>194.000</ele></trkpt>
      <trkpt lat="22.3760509846" lon="114.0487511867"><ele>194.000</ele></trkpt>
      <trkpt lat="22.3760002910" lon="114.0487660941"><ele>194.000</ele></trkpt>
      <trkpt lat="22.3759910883" lon="114.0488007832"><ele>194.000</ele></trkpt>
      <trkpt lat="22.3760049782" lon="114.0488750773"><ele>194.000</ele></trkpt>
      <trkpt lat="22.3760896648" lon="114.0490466033"><ele>195.000</ele></trkpt>
      <trkpt lat="22.3761296489" lon="114.0491275882"><ele>194.000</ele></trkpt>
      <trkpt lat="22.3761389304" lon="114.0492167378"><ele>194.000</ele></trkpt>
      <trkpt lat="22.3760836939" lon="114.0493158609"><ele>194.000</ele></trkpt>
      <trkpt lat="22.3759790998" lon="114.0493938255"><ele>194.000</ele></trkpt>
      <trkpt lat="22.3759505213" lon="114.0494058597"><ele>194.000</ele></trkpt>
      <trkpt lat="22.3759227404" lon="114.0494133567"><ele>194.000</ele></trkpt>
      <trkpt lat="22.3757604921" lon="114.0494986701"><ele>196.000</ele></trkpt>
      <trkpt lat="22.3757480568" lon="114.0495052088"><ele>196.000</ele></trkpt>
      <trkpt lat="22.3757347374" lon="114.0495128674"><ele>196.000</ele></trkpt>
      <trkpt lat="22.3755787985" lon="114.0496108436"><ele>198.000</ele></trkpt>
      <trkpt lat="22.3754266510" lon="114.0497064374"><ele>198.000</ele></trkpt>
      <trkpt lat="22.3752614755" lon="114.0497849884"><ele>199.000</ele></trkpt>
      <trkpt lat="22.3750962999" lon="114.0498635393"><ele>200.000</ele></trkpt>
      <trkpt lat="22.3750718400" lon="114.0498751714"><ele>200.000</ele></trkpt>
      <trkpt lat="22.3749170228" lon="114.0499751827"><ele>202.000</ele></trkpt>
      <trkpt lat="22.3747723347" lon="114.0500686503"><ele>204.000</ele></trkpt>
      <trkpt lat="22.3746144131" lon="114.0501628828"><ele>204.000</ele></trkpt>
      <trkpt lat="22.3744564913" lon="114.0502571151"><ele>206.000</ele></trkpt>
      <trkpt lat="22.3743899643" lon="114.0502968118"><ele>206.000</ele></trkpt>
      <trkpt lat="22.3742191283" lon="114.0503598303"><ele>206.000</ele></trkpt>
      <trkpt lat="22.3741764298" lon="114.0503755810"><ele>208.000</ele></trkpt>
      <trkpt lat="22.3740428600" lon="114.0503856056"><ele>208.000</ele></trkpt>
      <trkpt lat="22.3739231538" lon="114.0503758195"><ele>208.000</ele></trkpt>
      <trkpt lat="22.3738080189" lon="114.0503165709"><ele>208.000</ele></trkpt>
      <trkpt lat="22.3736695031" lon="114.0501919510"><ele>210.000</ele></trkpt>
      <trkpt lat="22.3736649959" lon="114.0501878960"><ele>210.000</ele></trkpt>
      <trkpt lat="22.3735910783" lon="114.0501532225"><ele>210.000</ele></trkpt>
      <trkpt lat="22.3734113955" lon="114.0501335682"><ele>209.000</ele></trkpt>
      <trkpt lat="22.3734112852" lon="114.0501335561"><ele>209.000</ele></trkpt>
      <trkpt lat="22.3732491076" lon="114.0500480889"><ele>208.000</ele></trkpt>
      <trkpt lat="22.3731677020" lon="114.0500051884"><ele>208.000</ele></trkpt>
      <trkpt lat="22.3730284934" lon="114.0498814647"><ele>206.000</ele></trkpt>
      <trkpt lat="22.3730062448" lon="114.0498616909"><ele>206.000</ele></trkpt>
      <trkpt lat="22.3728586135" lon="114.0497726378"><ele>206.000</ele></trkpt>
      <trkpt lat="22.3726947938" lon="114.0496908716"><ele>204.000</ele></trkpt>
      <trkpt lat="22.3725911719" lon="114.0496391516"><ele>204.000</ele></trkpt>
      <trkpt lat="22.3724944435" lon="114.0495600798"><ele>200.000</ele></trkpt>
      <trkpt lat="22.3723961375" lon="114.0493971734"><ele>198.000</ele></trkpt>
      <trkpt lat="22.3723928730" lon="114.0493917636"><ele>198.000</ele></trkpt>
      <trkpt lat="22.3723097108" lon="114.0493273248"><ele>196.000</ele></trkpt>
      <trkpt lat="22.3722219709" lon="114.0492926841"><ele>196.000</ele></trkpt>
      <trkpt lat="22.3720697231" lon="114.0492680381"><ele>194.000</ele></trkpt>
      <trkpt lat="22.3719680877" lon="114.0492730874"><ele>194.000</ele></trkpt>
      <trkpt lat="22.3718256235" lon="114.0493924490"><ele>191.000</ele></trkpt>
      <trkpt lat="22.3716831591" lon="114.0495118102"><ele>190.000</ele></trkpt>
      <trkpt lat="22.3716010342" lon="114.0495806170"><ele>188.000</ele></trkpt>
      <trkpt lat="22.3715549181" lon="114.0496749359"><ele>184.000</ele></trkpt>
      <trkpt lat="22.3715364798" lon="114.0497395183"><ele>184.000</ele></trkpt>
      <trkpt lat="22.3715504216" lon="114.0498437174"><ele>181.000</ele></trkpt>
      <trkpt lat="22.3716062454" lon="114.0500284000"><ele>179.000</ele></trkpt>
      <trkpt lat="22.3716620690" lon="114.0502130827"><ele>178.000</ele></trkpt>
      <trkpt lat="22.3717178924" lon="114.0503977656"><ele>176.000</ele></trkpt>
      <trkpt lat="22.3717625911" lon="114.0505456449"><ele>174.000</ele></trkpt>
      <trkpt lat="22.3718478499" lon="114.0507168377"><ele>170.000</ele></trkpt>
      <trkpt lat="22.3719331085" lon="114.0508880308"><ele>168.000</ele></trkpt>
      <trkpt lat="22.3719795817" lon="114.0509813458"><ele>168.000</ele></trkpt>
      <trkpt lat="22.3720368713" lon="114.0511655093"><ele>166.000</ele></trkpt>
      <trkpt lat="22.3720904698" lon="114.0513378079"><ele>164.000</ele></trkpt>
      <trkpt lat="22.3721239198" lon="114.0515286403"><ele>162.000</ele></trkpt>
      <trkpt lat="22.3721459918" lon="114.0516545612"><ele>160.000</ele></trkpt>
      <trkpt lat="22.3721047108" lon="114.0517682004"><ele>156.000</ele></trkpt>
      <trkpt lat="22.3720266372" lon="114.0518275201"><ele>154.000</ele></trkpt>
      <trkpt lat="22.3718563140" lon="114.0518573631"><ele>154.000</ele></trkpt>
      <trkpt lat="22.3716767440" lon="114.0518365501"><ele>150.000</ele></trkpt>
      <trkpt lat="22.3716443694" lon="114.0518327977"><ele>149.000</ele></trkpt>
      <trkpt lat="22.3714729277" lon="114.0517717115"><ele>146.000</ele></trkpt>
      <trkpt lat="22.3713014860" lon="114.0517106255"><ele>145.000</ele></trkpt>
      <trkpt lat="22.3711300443" lon="114.0516495396"><ele>142.000</ele></trkpt>
      <trkpt lat="22.3709586025" lon="114.0515884539"><ele>139.000</ele></trkpt>
      <trkpt lat="22.3708812184" lon="114.0515608815"><ele>138.000</ele></trkpt>
      <trkpt lat="22.3707522177" lon="114.0515065625"><ele>133.000</ele></trkpt>
      <trkpt lat="22.3706923799" lon="114.0514473260"><ele>132.000</ele></trkpt>
      <trkpt lat="22.3706185179" lon="114.0512987941"><ele>128.000</ele></trkpt>
      <trkpt lat="22.3704855671" lon="114.0511673564"><ele>126.000</ele></trkpt>
      <trkpt lat="22.3703831201" lon="114.0510660756"><ele>124.000</ele></trkpt>
      <trkpt lat="22.3703091472" lon="114.0510214562"><ele>122.000</ele></trkpt>
      <trkpt lat="22.3702213398" lon="114.0510215351"><ele>120.000</ele></trkpt>
      <trkpt lat="22.3701376085" lon="114.0510466015"><ele>120.000</ele></trkpt>
      <trkpt lat="22.3701060473" lon="114.0510530439"><ele>120.000</ele></trkpt>
      <trkpt lat="22.3700730678" lon="114.0510530735"><ele>120.000</ele></trkpt>
      <trkpt lat="22.3700458255" lon="114.0510530980"><ele>120.000</ele></trkpt>
    </trkseg>
  </trk>
</gpx>
