<?xml version="1.0" encoding="UTF-8"?>
<gpx xmlns:xsi="http://www.w3.org/2001/XMLSchema-instance"
     xsi:schemaLocation="http://www.topografix.com/GPX/1/1 http://www.topografix.com/GPX/1/1/gpx.xsd"
     version="1.1" creator="json3d_batch_to_gpx"
     xmlns="http://www.topografix.com/GPX/1/1">
  <metadata>
    <name>MaShiChauNatureTrail</name>
  </metadata>
  <trk>
    <name>MaShiChauNatureTrail</name>
    <type>hike</type>
    <trkseg>
      <trkpt lat="22.4502482625" lon="114.2232368995"><ele>8.000</ele></trkpt>
      <trkpt lat="22.4502546393" lon="114.2234310793"><ele>12.000</ele></trkpt>
      <trkpt lat="22.4502610159" lon="114.2236252591"><ele>16.000</ele></trkpt>
      <trkpt lat="22.4502640264" lon="114.2237169350"><ele>17.000</ele></trkpt>
      <trkpt lat="22.4502543013" lon="114.2237766987"><ele>18.000</ele></trkpt>
      <trkpt lat="22.4502082044" lon="114.2239645645"><ele>20.000</ele></trkpt>
      <trkpt lat="22.4501722433" lon="114.2241111212"><ele>17.000</ele></trkpt>
      <trkpt lat="22.4501080723" lon="114.2242927440"><ele>10.000</ele></trkpt>
      <trkpt lat="22.4501027053" lon="114.2243079340"><ele>10.000</ele></trkpt>
      <trkpt lat="22.4500804957" lon="114.2243821105"><ele>8.000</ele></trkpt>
      <trkpt lat="22.4500839417" lon="114.2244249841"><ele>9.000</ele></trkpt>
      <trkpt lat="22.4500976569" lon="114.2244929940"><ele>12.000</ele></trkpt>
      <trkpt lat="22.4501162294" lon="114.2245649014"><ele>12.000</ele></trkpt>
      <trkpt lat="22.4501205308" lon="114.2246161983"><ele>12.000</ele></trkpt>
      <trkpt lat="22.4501085410" lon="114.2246682279"><ele>10.000</ele></trkpt>
      <trkpt lat="22.4500861299" lon="114.2247208952"><ele>7.000</ele></trkpt>
      <trkpt lat="22.4500455596" lon="114.2247697090"><ele>6.000</ele></trkpt>
      <trkpt lat="22.4500001615" lon="114.2248071060"><ele>6.000</ele></trkpt>
      <trkpt lat="22.4498326710" lon="114.2248798049"><ele>6.000</ele></trkpt>
      <trkpt lat="22.4496651805" lon="114.2249525036"><ele>6.000</ele></trkpt>
      <trkpt lat="22.4494976900" lon="114.2250252021"><ele>11.000</ele></trkpt>
      <trkpt lat="22.4494386298" lon="114.2250508368"><ele>13.000</ele></trkpt>
      <trkpt lat="22.4493240570" lon="114.2250323193"><ele>16.000</ele></trkpt>
      <trkpt lat="22.4491434492" lon="114.2250316439"><ele>16.000</ele></trkpt>
      <trkpt lat="22.4489863187" lon="114.2250310563"><ele>16.000</ele></trkpt>
      <trkpt lat="22.4490058961" lon="114.2252139763"><ele>17.000</ele></trkpt>
      <trkpt lat="22.4490774808" lon="114.2253923623"><ele>17.000</ele></trkpt>
      <trkpt lat="22.4490783564" lon="114.2253945444"><ele>17.000</ele></trkpt>
      <trkpt lat="22.4491702747" lon="114.2255617982"><ele>17.000</ele></trkpt>
      <trkpt lat="22.4492621929" lon="114.2257290523"><ele>20.000</ele></trkpt>
      <trkpt lat="22.4493377308" lon="114.2258665012"><ele>18.000</ele></trkpt>
      <trkpt lat="22.4494254680" lon="114.2259937305"><ele>14.000</ele></trkpt>
      <trkpt lat="22.4495782475" lon="114.2260973546"><ele>14.000</ele></trkpt>
      <trkpt lat="22.4496009927" lon="114.2261127817"><ele>14.000</ele></trkpt>
      <trkpt lat="22.4497383631" lon="114.2261743845"><ele>16.000</ele></trkpt>
      <trkpt lat="22.4498490113" lon="114.2262687954"><ele>18.000</ele></trkpt>
      <trkpt lat="22.4499443905" lon="114.2263878286"><ele>15.000</ele></trkpt>
      <trkpt lat="22.4500653920" lon="114.2265320761"><ele>16.000</ele></trkpt>
      <trkpt lat="22.4500855479" lon="114.2265561043"><ele>16.000</ele></trkpt>
      <trkpt lat="22.4502149463" lon="114.2266916548"><ele>15.000</ele></trkpt>
      <trkpt lat="22.4503443446" lon="114.2268272055"><ele>13.000</ele></trkpt>
      <trkpt lat="22.4504737428" lon="114.2269627564"><ele>13.000</ele></trkpt>
      <trkpt lat="22.4505204848" lon="114.2270117211"><ele>14.000</ele></trkpt>
      <trkpt lat="22.4505759206" lon="114.2271966435"><ele>16.000</ele></trkpt>
      <trkpt lat="22.4506313562" lon="114.2273815659"><ele>15.000</ele></trkpt>
      <trkpt lat="22.4506430358" lon="114.2274205270"><ele>16.000</ele></trkpt>
      <trkpt lat="22.4506777534" lon="114.2274637426"><ele>14.000</ele></trkpt>
      <trkpt lat="22.4507002727" lon="114.2275009109"><ele>14.000</ele></trkpt>
      <trkpt lat="22.4507115247" lon="114.2275294093"><ele>14.000</ele></trkpt>
      <trkpt lat="22.4507773009" lon="114.2277065295"><ele>14.000</ele></trkpt>
      <trkpt lat="22.4507885678" lon="114.2277448597"><ele>14.000</ele></trkpt>
      <trkpt lat="22.4508059121" lon="114.2278123761"><ele>14.000</ele></trkpt>
      <trkpt lat="22.4508299263" lon="114.2278624856"><ele>16.000</ele></trkpt>
      <trkpt lat="22.4508394141" lon="114.2279011454"><ele>14.000</ele></trkpt>
      <trkpt lat="22.4508435362" lon="114.2279163899"><ele>14.000</ele></trkpt>
      <trkpt lat="22.4508524781" lon="114.2279390876"><ele>12.000</ele></trkpt>
      <trkpt lat="22.4508790841" lon="114.2280173525"><ele>12.000</ele></trkpt>
      <trkpt lat="22.4508893155" lon="114.2280462003"><ele>12.000</ele></trkpt>
      <trkpt lat="22.4508973912" lon="114.2280667799"><ele>12.000</ele></trkpt>
      <trkpt lat="22.4509257348" lon="114.2281332221"><ele>12.000</ele></trkpt>
      <trkpt lat="22.4509317920" lon="114.2281967708"><ele>12.000</ele></trkpt>
      <trkpt lat="22.4509208901" lon="114.2282604783"><ele>12.000</ele></trkpt>
      <trkpt lat="22.4508995447" lon="114.2283090168"><ele>11.000</ele></trkpt>
      <trkpt lat="22.4508937086" lon="114.2283730857"><ele>12.000</ele></trkpt>
      <trkpt lat="22.4509054483" lon="114.2284292918"><ele>14.000</ele></trkpt>
      <trkpt lat="22.4509093270" lon="114.2284712528"><ele>16.000</ele></trkpt>
      <trkpt lat="22.4509084652" lon="114.2285117935"><ele>16.000</ele></trkpt>
      <trkpt lat="22.4509096392" lon="114.2285397248"><ele>16.000</ele></trkpt>
      <trkpt lat="22.4509129048" lon="114.2285787613"><ele>16.000</ele></trkpt>
      <trkpt lat="22.4509058815" lon="114.2287729162"><ele>15.000</ele></trkpt>
      <trkpt lat="22.4509038116" lon="114.2288301360"><ele>18.000</ele></trkpt>
      <trkpt lat="22.4508783908" lon="114.2288864060"><ele>19.000</ele></trkpt>
      <trkpt lat="22.4508523469" lon="114.2289427827"><ele>14.000</ele></trkpt>
      <trkpt lat="22.4508497792" lon="114.2289523122"><ele>14.000</ele></trkpt>
      <trkpt lat="22.4508475141" lon="114.2290034419"><ele>12.000</ele></trkpt>
      <trkpt lat="22.4508488440" lon="114.2290237664"><ele>12.000</ele></trkpt>
      <trkpt lat="22.4508518257" lon="114.2290466951"><ele>12.000</ele></trkpt>
      <trkpt lat="22.4508578958" lon="114.2290693433"><ele>12.000</ele></trkpt>
      <trkpt lat="22.4508897157" lon="114.2291634361"><ele>15.000</ele></trkpt>
      <trkpt lat="22.4509619809" lon="114.2293415066"><ele>17.000</ele></trkpt>
      <trkpt lat="22.4510342459" lon="114.2295195773"><ele>14.000</ele></trkpt>
      <trkpt lat="22.4510537848" lon="114.2295677237"><ele>14.000</ele></trkpt>
      <trkpt lat="22.4511388655" lon="114.2296354994"><ele>13.000</ele></trkpt>
      <trkpt lat="22.4512918505" lon="114.2297387732"><ele>14.000</ele></trkpt>
      <trkpt lat="22.4513104512" lon="114.2297513297"><ele>14.000</ele></trkpt>
      <trkpt lat="22.4513970798" lon="114.2299177633"><ele>10.000</ele></trkpt>
      <trkpt lat="22.4514099579" lon="114.2299429595"><ele>14.000</ele></trkpt>
      <trkpt lat="22.4514543669" lon="114.2300336478"><ele>12.000</ele></trkpt>
      <trkpt lat="22.4514716606" lon="114.2300597298"><ele>12.000</ele></trkpt>
      <trkpt lat="22.4516273544" lon="114.2301582072"><ele>9.000</ele></trkpt>
      <trkpt lat="22.4517830480" lon="114.2302566849"><ele>12.000</ele></trkpt>
      <trkpt lat="22.4519387416" lon="114.2303551628"><ele>11.000</ele></trkpt>
      <trkpt lat="22.4520747861" lon="114.2304412126"><ele>15.000</ele></trkpt>
      <trkpt lat="22.4521313127" lon="114.2304805419"><ele>16.000</ele></trkpt>
      <trkpt lat="22.4521899073" lon="114.2305194738"><ele>14.000</ele></trkpt>
      <trkpt lat="22.4522515901" lon="114.2305593104"><ele>12.000</ele></trkpt>
      <trkpt lat="22.4523436894" lon="114.2306200367"><ele>12.000</ele></trkpt>
      <trkpt lat="22.4523792709" lon="114.2306425508"><ele>14.000</ele></trkpt>
      <trkpt lat="22.4524161258" lon="114.2306645894"><ele>12.000</ele></trkpt>
      <trkpt lat="22.4524901819" lon="114.2306993012"><ele>12.000</ele></trkpt>
      <trkpt lat="22.4525403724" lon="114.2307285051"><ele>12.000</ele></trkpt>
      <trkpt lat="22.4526108817" lon="114.2307837925"><ele>14.000</ele></trkpt>
      <trkpt lat="22.4526431012" lon="114.2308142038"><ele>16.000</ele></trkpt>
      <trkpt lat="22.4526994465" lon="114.2308552142"><ele>18.000</ele></trkpt>
      <trkpt lat="22.4527448433" lon="114.2308798307"><ele>20.000</ele></trkpt>
      <trkpt lat="22.4527685721" lon="114.2308894774"><ele>18.000</ele></trkpt>
      <trkpt lat="22.4528083744" lon="114.2309010345"><ele>16.000</ele></trkpt>
      <trkpt lat="22.4529193197" lon="114.2309362467"><ele>12.000</ele></trkpt>
      <trkpt lat="22.4529712658" lon="114.2309541817"><ele>13.000</ele></trkpt>
      <trkpt lat="22.4529947688" lon="114.2309638186"><ele>13.000</ele></trkpt>
      <trkpt lat="22.4530193107" lon="114.2309723679"><ele>13.000</ele></trkpt>
      <trkpt lat="22.4530519513" lon="114.2309856321"><ele>12.000</ele></trkpt>
      <trkpt lat="22.4531059905" lon="114.2310093389"><ele>14.000</ele></trkpt>
      <trkpt lat="22.4531502814" lon="114.2310465461"><ele>14.000</ele></trkpt>
      <trkpt lat="22.4531794974" lon="114.2310927340"><ele>12.000</ele></trkpt>
      <trkpt lat="22.4531920455" lon="114.2311321731"><ele>12.000</ele></trkpt>
      <trkpt lat="22.4531967842" lon="114.2311657314"><ele>12.000</ele></trkpt>
      <trkpt lat="22.4531984742" lon="114.2312154159"><ele>12.000</ele></trkpt>
      <trkpt lat="22.4532002272" lon="114.2312390441"><ele>12.000</ele></trkpt>
      <trkpt lat="22.4532031634" lon="114.2312619052"><ele>12.000</ele></trkpt>
      <trkpt lat="22.4532061474" lon="114.2312770816"><ele>12.000</ele></trkpt>
      <trkpt lat="22.4532115329" lon="114.2312937648"><ele>12.000</ele></trkpt>
      <trkpt lat="22.4532170547" lon="114.2313081650"><ele>12.000</ele></trkpt>
      <trkpt lat="22.4532255640" lon="114.2313270353"><ele>12.000</ele></trkpt>
      <trkpt lat="22.4532343447" lon="114.2313445942"><ele>12.000</ele></trkpt>
      <trkpt lat="22.4532426206" lon="114.2313595201"><ele>12.000</ele></trkpt>
      <trkpt lat="22.4532507524" lon="114.2313732315"><ele>14.000</ele></trkpt>
      <trkpt lat="22.4532581628" lon="114.2313837074"><ele>16.000</ele></trkpt>
      <trkpt lat="22.4532758731" lon="114.2314059137"><ele>16.000</ele></trkpt>
      <trkpt lat="22.4532966787" lon="114.2314340475"><ele>20.000</ele></trkpt>
      <trkpt lat="22.4533198296" lon="114.2314701488"><ele>20.000</ele></trkpt>
      <trkpt lat="22.4533409919" lon="114.2315117287"><ele>20.000</ele></trkpt>
      <trkpt lat="22.4533527660" lon="114.2315429776"><ele>18.000</ele></trkpt>
      <trkpt lat="22.4533617691" lon="114.2315703976"><ele>16.000</ele></trkpt>
      <trkpt lat="22.4533717439" lon="114.2316085145"><ele>16.000</ele></trkpt>
      <trkpt lat="22.4533767953" lon="114.2316516717"><ele>16.000</ele></trkpt>
      <trkpt lat="22.4533788151" lon="114.2316871429"><ele>14.000</ele></trkpt>
      <trkpt lat="22.4533813861" lon="114.2317216817"><ele>14.000</ele></trkpt>
      <trkpt lat="22.4533840842" lon="114.2317539278"><ele>14.000</ele></trkpt>
      <trkpt lat="22.4533872446" lon="114.2317813941"><ele>14.000</ele></trkpt>
      <trkpt lat="22.4533911994" lon="114.2318092979"><ele>16.000</ele></trkpt>
      <trkpt lat="22.4534035064" lon="114.2318665839"><ele>17.000</ele></trkpt>
      <trkpt lat="22.4534102435" lon="114.2318921475"><ele>17.000</ele></trkpt>
      <trkpt lat="22.4534168110" lon="114.2319117166"><ele>17.000</ele></trkpt>
      <trkpt lat="22.4534335934" lon="114.2319532269"><ele>17.000</ele></trkpt>
      <trkpt lat="22.4534574522" lon="114.2320049507"><ele>13.000</ele></trkpt>
      <trkpt lat="22.4534814030" lon="114.2320517101"><ele>18.000</ele></trkpt>
      <trkpt lat="22.4535104724" lon="114.2321033000"><ele>15.000</ele></trkpt>
      <trkpt lat="22.4535237128" lon="114.2321244554"><ele>15.000</ele></trkpt>
      <trkpt lat="22.4535346433" lon="114.2321402859"><ele>20.000</ele></trkpt>
      <trkpt lat="22.4535474696" lon="114.2321576813"><ele>18.000</ele></trkpt>
      <trkpt lat="22.4535594299" lon="114.2321724144"><ele>18.000</ele></trkpt>
      <trkpt lat="22.4535797947" lon="114.2321952340"><ele>20.000</ele></trkpt>
      <trkpt lat="22.4535862495" lon="114.2322011434"><ele>16.000</ele></trkpt>
      <trkpt lat="22.4536003690" lon="114.2322129628"><ele>16.000</ele></trkpt>
      <trkpt lat="22.4536206641" lon="114.2322286416"><ele>19.000</ele></trkpt>
      <trkpt lat="22.4536409133" lon="114.2322461858"><ele>19.000</ele></trkpt>
      <trkpt lat="22.4536807163" lon="114.2322818955"><ele>17.000</ele></trkpt>
      <trkpt lat="22.4537358477" lon="114.2323329325"><ele>17.000</ele></trkpt>
      <trkpt lat="22.4537982544" lon="114.2323929687"><ele>19.000</ele></trkpt>
      <trkpt lat="22.4538390841" lon="114.2324365386"><ele>19.000</ele></trkpt>
      <trkpt lat="22.4538578693" lon="114.2324574146"><ele>19.000</ele></trkpt>
      <trkpt lat="22.4538871272" lon="114.2324856492"><ele>24.000</ele></trkpt>
      <trkpt lat="22.4539460692" lon="114.2325371638"><ele>24.000</ele></trkpt>
      <trkpt lat="22.4539717793" lon="114.2325620161"><ele>19.000</ele></trkpt>
      <trkpt lat="22.4539938043" lon="114.2325890529"><ele>18.000</ele></trkpt>
      <trkpt lat="22.4540113244" lon="114.2326119686"><ele>18.000</ele></trkpt>
      <trkpt lat="22.4540247661" lon="114.2326253423"><ele>20.000</ele></trkpt>
      <trkpt lat="22.4540444280" lon="114.2326440910"><ele>15.000</ele></trkpt>
      <trkpt lat="22.4541280128" lon="114.2327250628"><ele>15.000</ele></trkpt>
      <trkpt lat="22.4542786114" lon="114.2328323215"><ele>14.000</ele></trkpt>
      <trkpt lat="22.4543249903" lon="114.2328653534"><ele>16.000</ele></trkpt>
      <trkpt lat="22.4543616763" lon="114.2329048512"><ele>13.000</ele></trkpt>
      <trkpt lat="22.4545125541" lon="114.2330116551"><ele>16.000</ele></trkpt>
      <trkpt lat="22.4546634318" lon="114.2331184592"><ele>20.000</ele></trkpt>
      <trkpt lat="22.4547310477" lon="114.2331663235"><ele>18.000</ele></trkpt>
      <trkpt lat="22.4548871968" lon="114.2332639652"><ele>16.000</ele></trkpt>
      <trkpt lat="22.4550433457" lon="114.2333616071"><ele>16.000</ele></trkpt>
      <trkpt lat="22.4550733440" lon="114.2333803654"><ele>17.000</ele></trkpt>
      <trkpt lat="22.4552438027" lon="114.2334445870"><ele>20.000</ele></trkpt>
      <trkpt lat="22.4553509030" lon="114.2334849380"><ele>15.000</ele></trkpt>
      <trkpt lat="22.4554570952" lon="114.2335013905"><ele>21.000</ele></trkpt>
      <trkpt lat="22.4556192373" lon="114.2334999699"><ele>19.000</ele></trkpt>
      <trkpt lat="22.4557988042" lon="114.2334791291"><ele>11.000</ele></trkpt>
      <trkpt lat="22.4559783711" lon="114.2334582883"><ele>14.000</ele></trkpt>
      <trkpt lat="22.4560740288" lon="114.2334471861"><ele>14.000</ele></trkpt>
      <trkpt lat="22.4561883276" lon="114.2334454837"><ele>14.000</ele></trkpt>
    </trkseg>
  </trk>
</gpx>
