<?xml version="1.0" encoding="UTF-8"?>
<gpx xmlns:xsi="http://www.w3.org/2001/XMLSchema-instance"
     xsi:schemaLocation="http://www.topografix.com/GPX/1/1 http://www.topografix.com/GPX/1/1/gpx.xsd"
     version="1.1" creator="json3d_batch_to_gpx"
     xmlns="http://www.topografix.com/GPX/1/1">
  <metadata>
    <name>EaglesNestNatureTrail</name>
  </metadata>
  <trk>
    <name>EaglesNestNatureTrail</name>
    <type>hike</type>
    <trkseg>
      <trkpt lat="22.3478227062" lon="114.1540187039"><ele>181.000</ele></trkpt>
      <trkpt lat="22.3478399062" lon="114.1540635839"><ele>181.000</ele></trkpt>
      <trkpt lat="22.3478455267" lon="114.1540782494"><ele>181.000</ele></trkpt>
      <trkpt lat="22.3478862695" lon="114.1540991720"><ele>182.000</ele></trkpt>
      <trkpt lat="22.3478984044" lon="114.1541054036"><ele>182.000</ele></trkpt>
      <trkpt lat="22.3479412408" lon="114.1540900561"><ele>184.000</ele></trkpt>
      <trkpt lat="22.3479673674" lon="114.1540806954"><ele>185.000</ele></trkpt>
      <trkpt lat="22.3480018855" lon="114.1540494040"><ele>186.000</ele></trkpt>
      <trkpt lat="22.3480364036" lon="114.1540181126"><ele>187.000</ele></trkpt>
      <trkpt lat="22.3480409300" lon="114.1540140093"><ele>187.000</ele></trkpt>
      <trkpt lat="22.3480854956" lon="114.1540062068"><ele>189.000</ele></trkpt>
      <trkpt lat="22.3481300613" lon="114.1539984042"><ele>190.000</ele></trkpt>
      <trkpt lat="22.3481397761" lon="114.1539967033"><ele>190.000</ele></trkpt>
      <trkpt lat="22.3481846868" lon="114.1540017232"><ele>190.000</ele></trkpt>
      <trkpt lat="22.3482295975" lon="114.1540067431"><ele>190.000</ele></trkpt>
      <trkpt lat="22.3482495714" lon="114.1540089757"><ele>191.000</ele></trkpt>
      <trkpt lat="22.3482935721" lon="114.1540198705"><ele>191.000</ele></trkpt>
      <trkpt lat="22.3483375729" lon="114.1540307653"><ele>191.000</ele></trkpt>
      <trkpt lat="22.3483815737" lon="114.1540416601"><ele>191.000</ele></trkpt>
      <trkpt lat="22.3484190719" lon="114.1540509448"><ele>188.000</ele></trkpt>
      <trkpt lat="22.3484608375" lon="114.1540693903"><ele>188.000</ele></trkpt>
      <trkpt lat="22.3485026032" lon="114.1540878357"><ele>189.000</ele></trkpt>
      <trkpt lat="22.3485443688" lon="114.1541062812"><ele>191.000</ele></trkpt>
      <trkpt lat="22.3485637234" lon="114.1541148290"><ele>191.000</ele></trkpt>
      <trkpt lat="22.3485983504" lon="114.1541459812"><ele>191.000</ele></trkpt>
      <trkpt lat="22.3486329774" lon="114.1541771334"><ele>190.000</ele></trkpt>
      <trkpt lat="22.3486676044" lon="114.1542082855"><ele>191.000</ele></trkpt>
      <trkpt lat="22.3487022314" lon="114.1542394378"><ele>191.000</ele></trkpt>
      <trkpt lat="22.3487176596" lon="114.1542533178"><ele>192.000</ele></trkpt>
      <trkpt lat="22.3487438822" lon="114.1542928332"><ele>192.000</ele></trkpt>
      <trkpt lat="22.3487701048" lon="114.1543323487"><ele>191.000</ele></trkpt>
      <trkpt lat="22.3487963274" lon="114.1543718641"><ele>189.000</ele></trkpt>
      <trkpt lat="22.3488058706" lon="114.1543862449"><ele>188.000</ele></trkpt>
      <trkpt lat="22.3488133599" lon="114.1544341126"><ele>188.000</ele></trkpt>
      <trkpt lat="22.3488208493" lon="114.1544819802"><ele>188.000</ele></trkpt>
      <trkpt lat="22.3488275540" lon="114.1545248329"><ele>189.000</ele></trkpt>
      <trkpt lat="22.3488595899" lon="114.1545590394"><ele>188.000</ele></trkpt>
      <trkpt lat="22.3488916259" lon="114.1545932458"><ele>189.000</ele></trkpt>
      <trkpt lat="22.3489016065" lon="114.1546039026"><ele>189.000</ele></trkpt>
      <trkpt lat="22.3489440078" lon="114.1546205880"><ele>190.000</ele></trkpt>
      <trkpt lat="22.3489864091" lon="114.1546372734"><ele>190.000</ele></trkpt>
      <trkpt lat="22.3490269303" lon="114.1546532189"><ele>191.000</ele></trkpt>
      <trkpt lat="22.3490717736" lon="114.1546475455"><ele>191.000</ele></trkpt>
      <trkpt lat="22.3491166170" lon="114.1546418721"><ele>192.000</ele></trkpt>
      <trkpt lat="22.3491441721" lon="114.1546383859"><ele>193.000</ele></trkpt>
      <trkpt lat="22.3491797708" lon="114.1546085262"><ele>194.000</ele></trkpt>
      <trkpt lat="22.3492153696" lon="114.1545786665"><ele>195.000</ele></trkpt>
      <trkpt lat="22.3492384132" lon="114.1545593379"><ele>195.000</ele></trkpt>
      <trkpt lat="22.3492817863" lon="114.1545458445"><ele>195.000</ele></trkpt>
      <trkpt lat="22.3493251595" lon="114.1545323512"><ele>194.000</ele></trkpt>
      <trkpt lat="22.3493257711" lon="114.1545321609"><ele>194.000</ele></trkpt>
      <trkpt lat="22.3493702727" lon="114.1545239471"><ele>194.000</ele></trkpt>
      <trkpt lat="22.3494147744" lon="114.1545157333"><ele>193.000</ele></trkpt>
      <trkpt lat="22.3494592760" lon="114.1545075195"><ele>193.000</ele></trkpt>
      <trkpt lat="22.3495037777" lon="114.1544993057"><ele>194.000</ele></trkpt>
      <trkpt lat="22.3495482793" lon="114.1544910919"><ele>194.000</ele></trkpt>
      <trkpt lat="22.3495851944" lon="114.1544842783"><ele>194.000</ele></trkpt>
      <trkpt lat="22.3496299779" lon="114.1544904741"><ele>195.000</ele></trkpt>
      <trkpt lat="22.3496506582" lon="114.1544933352"><ele>195.000</ele></trkpt>
      <trkpt lat="22.3496946312" lon="114.1545043586"><ele>196.000</ele></trkpt>
      <trkpt lat="22.3497386043" lon="114.1545153821"><ele>196.000</ele></trkpt>
      <trkpt lat="22.3497825773" lon="114.1545264055"><ele>196.000</ele></trkpt>
      <trkpt lat="22.3498265504" lon="114.1545374289"><ele>196.000</ele></trkpt>
      <trkpt lat="22.3498705234" lon="114.1545484524"><ele>195.000</ele></trkpt>
      <trkpt lat="22.3498834470" lon="114.1545516922"><ele>195.000</ele></trkpt>
      <trkpt lat="22.3499253093" lon="114.1545698828"><ele>195.000</ele></trkpt>
      <trkpt lat="22.3499671716" lon="114.1545880734"><ele>196.000</ele></trkpt>
      <trkpt lat="22.3500090339" lon="114.1546062641"><ele>197.000</ele></trkpt>
      <trkpt lat="22.3500508961" lon="114.1546244547"><ele>197.000</ele></trkpt>
      <trkpt lat="22.3500685665" lon="114.1546321331"><ele>197.000</ele></trkpt>
      <trkpt lat="22.3501063824" lon="114.1546586566"><ele>198.000</ele></trkpt>
      <trkpt lat="22.3501288874" lon="114.1546744411"><ele>197.000</ele></trkpt>
      <trkpt lat="22.3501521357" lon="114.1547160530"><ele>197.000</ele></trkpt>
      <trkpt lat="22.3501658314" lon="114.1547405669"><ele>197.000</ele></trkpt>
      <trkpt lat="22.3501776868" lon="114.1547874043"><ele>197.000</ele></trkpt>
      <trkpt lat="22.3501895422" lon="114.1548342418"><ele>197.000</ele></trkpt>
      <trkpt lat="22.3502013976" lon="114.1548810792"><ele>196.000</ele></trkpt>
      <trkpt lat="22.3502132530" lon="114.1549279167"><ele>195.000</ele></trkpt>
      <trkpt lat="22.3502220226" lon="114.1549625629"><ele>195.000</ele></trkpt>
      <trkpt lat="22.3502454799" lon="114.1550040390"><ele>193.000</ele></trkpt>
      <trkpt lat="22.3502689372" lon="114.1550455151"><ele>194.000</ele></trkpt>
      <trkpt lat="22.3502822978" lon="114.1550691388"><ele>195.000</ele></trkpt>
      <trkpt lat="22.3503181710" lon="114.1550986167"><ele>195.000</ele></trkpt>
      <trkpt lat="22.3503540441" lon="114.1551280947"><ele>195.000</ele></trkpt>
      <trkpt lat="22.3503899173" lon="114.1551575727"><ele>195.000</ele></trkpt>
      <trkpt lat="22.3504257904" lon="114.1551870507"><ele>195.000</ele></trkpt>
      <trkpt lat="22.3504483159" lon="114.1552055606"><ele>194.000</ele></trkpt>
      <trkpt lat="22.3504752593" lon="114.1552445121"><ele>195.000</ele></trkpt>
      <trkpt lat="22.3505022027" lon="114.1552834636"><ele>195.000</ele></trkpt>
      <trkpt lat="22.3505123458" lon="114.1552981273"><ele>195.000</ele></trkpt>
      <trkpt lat="22.3505323652" lon="114.1553416362"><ele>195.000</ele></trkpt>
      <trkpt lat="22.3505523846" lon="114.1553851450"><ele>197.000</ele></trkpt>
      <trkpt lat="22.3505724039" lon="114.1554286539"><ele>197.000</ele></trkpt>
      <trkpt lat="22.3505724886" lon="114.1554288380"><ele>197.000</ele></trkpt>
      <trkpt lat="22.3506055698" lon="114.1554618751"><ele>197.000</ele></trkpt>
      <trkpt lat="22.3506380862" lon="114.1554943482"><ele>197.000</ele></trkpt>
      <trkpt lat="22.3506832380" lon="114.1554946786"><ele>197.000</ele></trkpt>
      <trkpt lat="22.3506965591" lon="114.1554947761"><ele>197.000</ele></trkpt>
      <trkpt lat="22.3507375805" lon="114.1554744917"><ele>197.000</ele></trkpt>
      <trkpt lat="22.3507581074" lon="114.1554643414"><ele>198.000</ele></trkpt>
      <trkpt lat="22.3507998887" lon="114.1554459367"><ele>198.000</ele></trkpt>
      <trkpt lat="22.3508416700" lon="114.1554275320"><ele>197.000</ele></trkpt>
      <trkpt lat="22.3508834512" lon="114.1554091273"><ele>196.000</ele></trkpt>
      <trkpt lat="22.3509252325" lon="114.1553907225"><ele>196.000</ele></trkpt>
      <trkpt lat="22.3509386900" lon="114.1553847944"><ele>195.000</ele></trkpt>
      <trkpt lat="22.3509836972" lon="114.1553808996"><ele>196.000</ele></trkpt>
      <trkpt lat="22.3510287044" lon="114.1553770048"><ele>197.000</ele></trkpt>
      <trkpt lat="22.3510457912" lon="114.1553755262"><ele>197.000</ele></trkpt>
      <trkpt lat="22.3510863032" lon="114.1553969610"><ele>198.000</ele></trkpt>
      <trkpt lat="22.3511268152" lon="114.1554183958"><ele>197.000</ele></trkpt>
      <trkpt lat="22.3511307386" lon="114.1554204717"><ele>197.000</ele></trkpt>
      <trkpt lat="22.3511623052" lon="114.1554551793"><ele>197.000</ele></trkpt>
      <trkpt lat="22.3511824551" lon="114.1554773342"><ele>197.000</ele></trkpt>
      <trkpt lat="22.3511944950" lon="114.1555241176"><ele>197.000</ele></trkpt>
      <trkpt lat="22.3512065348" lon="114.1555709010"><ele>197.000</ele></trkpt>
      <trkpt lat="22.3512083228" lon="114.1555778487"><ele>197.000</ele></trkpt>
      <trkpt lat="22.3511964391" lon="114.1556246782"><ele>197.000</ele></trkpt>
      <trkpt lat="22.3511898648" lon="114.1556505851"><ele>197.000</ele></trkpt>
      <trkpt lat="22.3511657007" lon="114.1556915898"><ele>197.000</ele></trkpt>
      <trkpt lat="22.3511430969" lon="114.1557299467"><ele>197.000</ele></trkpt>
      <trkpt lat="22.3511141257" lon="114.1557671784"><ele>196.000</ele></trkpt>
      <trkpt lat="22.3510851545" lon="114.1558044100"><ele>195.000</ele></trkpt>
      <trkpt lat="22.3510561832" lon="114.1558416416"><ele>194.000</ele></trkpt>
      <trkpt lat="22.3510401657" lon="114.1558622261"><ele>193.000</ele></trkpt>
      <trkpt lat="22.3509956744" lon="114.1558705044"><ele>195.000</ele></trkpt>
      <trkpt lat="22.3509904537" lon="114.1558714757"><ele>194.000</ele></trkpt>
      <trkpt lat="22.3509596810" lon="114.1558979351"><ele>195.000</ele></trkpt>
      <trkpt lat="22.3509528910" lon="114.1559459238"><ele>198.000</ele></trkpt>
      <trkpt lat="22.3509510737" lon="114.1559587676"><ele>200.000</ele></trkpt>
      <trkpt lat="22.3509591012" lon="114.1560065351"><ele>203.000</ele></trkpt>
      <trkpt lat="22.3509671287" lon="114.1560543026"><ele>207.000</ele></trkpt>
      <trkpt lat="22.3509751562" lon="114.1561020700"><ele>210.000</ele></trkpt>
      <trkpt lat="22.3509831837" lon="114.1561498375"><ele>213.000</ele></trkpt>
      <trkpt lat="22.3509912112" lon="114.1561976050"><ele>217.000</ele></trkpt>
      <trkpt lat="22.3509941913" lon="114.1562153380"><ele>217.000</ele></trkpt>
      <trkpt lat="22.3509747746" lon="114.1562591615"><ele>220.000</ele></trkpt>
      <trkpt lat="22.3509735263" lon="114.1562619790"><ele>220.000</ele></trkpt>
      <trkpt lat="22.3509343186" lon="114.1562855659"><ele>222.000</ele></trkpt>
      <trkpt lat="22.3508893193" lon="114.1562895647"><ele>223.000</ele></trkpt>
      <trkpt lat="22.3508443200" lon="114.1562935636"><ele>223.000</ele></trkpt>
      <trkpt lat="22.3507993207" lon="114.1562975624"><ele>224.000</ele></trkpt>
      <trkpt lat="22.3507543214" lon="114.1563015613"><ele>223.000</ele></trkpt>
      <trkpt lat="22.3507093220" lon="114.1563055601"><ele>222.000</ele></trkpt>
      <trkpt lat="22.3506643227" lon="114.1563095590"><ele>222.000</ele></trkpt>
      <trkpt lat="22.3506503559" lon="114.1563108001"><ele>222.000</ele></trkpt>
      <trkpt lat="22.3506058157" lon="114.1563028316"><ele>221.000</ele></trkpt>
      <trkpt lat="22.3505656654" lon="114.1562956484"><ele>221.000</ele></trkpt>
      <trkpt lat="22.3505249243" lon="114.1562747214"><ele>221.000</ele></trkpt>
      <trkpt lat="22.3504841833" lon="114.1562537944"><ele>220.000</ele></trkpt>
      <trkpt lat="22.3504770879" lon="114.1562501498"><ele>220.000</ele></trkpt>
      <trkpt lat="22.3504319950" lon="114.1562476491"><ele>221.000</ele></trkpt>
      <trkpt lat="22.3503869022" lon="114.1562451484"><ele>221.000</ele></trkpt>
      <trkpt lat="22.3503861224" lon="114.1562451052"><ele>221.000</ele></trkpt>
      <trkpt lat="22.3503439597" lon="114.1562624755"><ele>221.000</ele></trkpt>
      <trkpt lat="22.3503017970" lon="114.1562798458"><ele>221.000</ele></trkpt>
      <trkpt lat="22.3502920199" lon="114.1562838738"><ele>221.000</ele></trkpt>
      <trkpt lat="22.3502530130" lon="114.1563083230"><ele>221.000</ele></trkpt>
      <trkpt lat="22.3502140062" lon="114.1563327723"><ele>221.000</ele></trkpt>
      <trkpt lat="22.3501952561" lon="114.1563445247"><ele>221.000</ele></trkpt>
      <trkpt lat="22.3501518931" lon="114.1563580559"><ele>221.000</ele></trkpt>
      <trkpt lat="22.3501466375" lon="114.1563596959"><ele>221.000</ele></trkpt>
      <trkpt lat="22.3501018821" lon="114.1563532696"><ele>221.000</ele></trkpt>
      <trkpt lat="22.3500881455" lon="114.1563512972"><ele>221.000</ele></trkpt>
      <trkpt lat="22.3500469939" lon="114.1563313201"><ele>221.000</ele></trkpt>
      <trkpt lat="22.3500058424" lon="114.1563113429"><ele>221.000</ele></trkpt>
      <trkpt lat="22.3499925240" lon="114.1563048774"><ele>221.000</ele></trkpt>
      <trkpt lat="22.3499476283" lon="114.1563100500"><ele>220.000</ele></trkpt>
      <trkpt lat="22.3499415653" lon="114.1563107486"><ele>220.000</ele></trkpt>
      <trkpt lat="22.3499104608" lon="114.1563459346"><ele>221.000</ele></trkpt>
      <trkpt lat="22.3499070013" lon="114.1563498481"><ele>221.000</ele></trkpt>
      <trkpt lat="22.3498918106" lon="114.1563955590"><ele>221.000</ele></trkpt>
      <trkpt lat="22.3498766199" lon="114.1564412699"><ele>221.000</ele></trkpt>
      <trkpt lat="22.3498615226" lon="114.1564866998"><ele>221.000</ele></trkpt>
      <trkpt lat="22.3498308741" lon="114.1565223454"><ele>221.000</ele></trkpt>
      <trkpt lat="22.3498002257" lon="114.1565579909"><ele>222.000</ele></trkpt>
      <trkpt lat="22.3497695772" lon="114.1565936365"><ele>221.000</ele></trkpt>
      <trkpt lat="22.3497389287" lon="114.1566292821"><ele>221.000</ele></trkpt>
      <trkpt lat="22.3497206144" lon="114.1566505824"><ele>221.000</ele></trkpt>
      <trkpt lat="22.3496951932" lon="114.1566906988"><ele>221.000</ele></trkpt>
      <trkpt lat="22.3496697720" lon="114.1567308152"><ele>221.000</ele></trkpt>
      <trkpt lat="22.3496549187" lon="114.1567542548"><ele>221.000</ele></trkpt>
      <trkpt lat="22.3496298678" lon="114.1567946395"><ele>220.000</ele></trkpt>
      <trkpt lat="22.3496241385" lon="114.1568038757"><ele>221.000</ele></trkpt>
      <trkpt lat="22.3496448218" lon="114.1568470239"><ele>221.000</ele></trkpt>
      <trkpt lat="22.3496486285" lon="114.1568549652"><ele>221.000</ele></trkpt>
      <trkpt lat="22.3496644763" lon="114.1568983146"><ele>221.000</ele></trkpt>
      <trkpt lat="22.3496758835" lon="114.1569452803"><ele>222.000</ele></trkpt>
      <trkpt lat="22.3496872051" lon="114.1569918939"><ele>223.000</ele></trkpt>
      <trkpt lat="22.3497180692" lon="114.1570273238"><ele>225.000</ele></trkpt>
      <trkpt lat="22.3497399871" lon="114.1570524842"><ele>226.000</ele></trkpt>
      <trkpt lat="22.3497726619" lon="114.1570859852"><ele>228.000</ele></trkpt>
      <trkpt lat="22.3497800246" lon="114.1570935340"><ele>227.000</ele></trkpt>
      <trkpt lat="22.3497954700" lon="114.1571391461"><ele>228.000</ele></trkpt>
      <trkpt lat="22.3498018683" lon="114.1571580411"><ele>228.000</ele></trkpt>
      <trkpt lat="22.3497945761" lon="114.1572059442"><ele>228.000</ele></trkpt>
      <trkpt lat="22.3497883782" lon="114.1572466592"><ele>228.000</ele></trkpt>
      <trkpt lat="22.3497941018" lon="114.1572948080"><ele>228.000</ele></trkpt>
      <trkpt lat="22.3497970283" lon="114.1573194270"><ele>228.000</ele></trkpt>
      <trkpt lat="22.3497858192" lon="114.1573664479"><ele>228.000</ele></trkpt>
      <trkpt lat="22.3497826334" lon="114.1573798118"><ele>228.000</ele></trkpt>
      <trkpt lat="22.3498074409" lon="114.1574203698"><ele>228.000</ele></trkpt>
      <trkpt lat="22.3498322483" lon="114.1574609278"><ele>228.000</ele></trkpt>
      <trkpt lat="22.3498382992" lon="114.1574708204"><ele>228.000</ele></trkpt>
      <trkpt lat="22.3498139073" lon="114.1575116686"><ele>228.000</ele></trkpt>
      <trkpt lat="22.3498058679" lon="114.1575251319"><ele>228.000</ele></trkpt>
      <trkpt lat="22.3497644262" lon="114.1575444033"><ele>228.000</ele></trkpt>
      <trkpt lat="22.3497418628" lon="114.1575548959"><ele>228.000</ele></trkpt>
      <trkpt lat="22.3497000045" lon="114.1575366948"><ele>228.000</ele></trkpt>
      <trkpt lat="22.3496581461" lon="114.1575184937"><ele>228.000</ele></trkpt>
      <trkpt lat="22.3496162878" lon="114.1575002927"><ele>229.000</ele></trkpt>
      <trkpt lat="22.3495994435" lon="114.1574929684"><ele>229.000</ele></trkpt>
      <trkpt lat="22.3495543185" lon="114.1574912669"><ele>228.000</ele></trkpt>
      <trkpt lat="22.3495522406" lon="114.1574911886"><ele>228.000</ele></trkpt>
      <trkpt lat="22.3495156325" lon="114.1575196030"><ele>229.000</ele></trkpt>
      <trkpt lat="22.3495114714" lon="114.1575228328"><ele>229.000</ele></trkpt>
      <trkpt lat="22.3495002385" lon="114.1575698470"><ele>229.000</ele></trkpt>
      <trkpt lat="22.3494890056" lon="114.1576168612"><ele>229.000</ele></trkpt>
      <trkpt lat="22.3494777726" lon="114.1576638754"><ele>230.000</ele></trkpt>
      <trkpt lat="22.3494686426" lon="114.1577020881"><ele>229.000</ele></trkpt>
      <trkpt lat="22.3494362041" lon="114.1577358533"><ele>230.000</ele></trkpt>
      <trkpt lat="22.3494113417" lon="114.1577617324"><ele>230.000</ele></trkpt>
      <trkpt lat="22.3493663158" lon="114.1577653695"><ele>231.000</ele></trkpt>
      <trkpt lat="22.3493397120" lon="114.1577675185"><ele>230.000</ele></trkpt>
      <trkpt lat="22.3492945675" lon="114.1577665883"><ele>230.000</ele></trkpt>
      <trkpt lat="22.3492494230" lon="114.1577656582"><ele>230.000</ele></trkpt>
      <trkpt lat="22.3492042784" lon="114.1577647280"><ele>230.000</ele></trkpt>
      <trkpt lat="22.3491908609" lon="114.1577644516"><ele>230.000</ele></trkpt>
      <trkpt lat="22.3491465654" lon="114.1577738655"><ele>230.000</ele></trkpt>
      <trkpt lat="22.3491022699" lon="114.1577832794"><ele>230.000</ele></trkpt>
      <trkpt lat="22.3490579744" lon="114.1577926933"><ele>231.000</ele></trkpt>
      <trkpt lat="22.3490136789" lon="114.1578021072"><ele>231.000</ele></trkpt>
      <trkpt lat="22.3489693834" lon="114.1578115211"><ele>231.000</ele></trkpt>
      <trkpt lat="22.3489411089" lon="114.1578175301"><ele>232.000</ele></trkpt>
      <trkpt lat="22.3488968330" lon="114.1578270501"><ele>231.000</ele></trkpt>
      <trkpt lat="22.3488963365" lon="114.1578271568"><ele>231.000</ele></trkpt>
      <trkpt lat="22.3488551474" lon="114.1578213862"><ele>231.000</ele></trkpt>
      <trkpt lat="22.3488109197" lon="114.1578116111"><ele>231.000</ele></trkpt>
      <trkpt lat="22.3487942618" lon="114.1578079294"><ele>231.000</ele></trkpt>
      <trkpt lat="22.3487530721" lon="114.1577963922"><ele>231.000</ele></trkpt>
      <trkpt lat="22.3487172492" lon="114.1578079399"><ele>231.000</ele></trkpt>
      <trkpt lat="22.3487011423" lon="114.1578387261"><ele>231.000</ele></trkpt>
      <trkpt lat="22.3486966513" lon="114.1578870254"><ele>231.000</ele></trkpt>
      <trkpt lat="22.3486957759" lon="114.1578964409"><ele>231.000</ele></trkpt>
      <trkpt lat="22.3486883540" lon="114.1579443206"><ele>231.000</ele></trkpt>
      <trkpt lat="22.3486832509" lon="114.1579772422"><ele>231.000</ele></trkpt>
      <trkpt lat="22.3486547187" lon="114.1580148630"><ele>232.000</ele></trkpt>
      <trkpt lat="22.3486438566" lon="114.1580291853"><ele>231.000</ele></trkpt>
      <trkpt lat="22.3486121034" lon="114.1580636950"><ele>231.000</ele></trkpt>
      <trkpt lat="22.3485803503" lon="114.1580982047"><ele>231.000</ele></trkpt>
      <trkpt lat="22.3485485972" lon="114.1581327145"><ele>232.000</ele></trkpt>
      <trkpt lat="22.3485268171" lon="114.1581563853"><ele>232.000</ele></trkpt>
      <trkpt lat="22.3485039533" lon="114.1581982422"><ele>231.000</ele></trkpt>
      <trkpt lat="22.3484881564" lon="114.1582271616"><ele>231.000</ele></trkpt>
      <trkpt lat="22.3484852500" lon="114.1582756008"><ele>230.000</ele></trkpt>
      <trkpt lat="22.3484845781" lon="114.1582867982"><ele>230.000</ele></trkpt>
      <trkpt lat="22.3485089581" lon="114.1583276543"><ele>230.000</ele></trkpt>
      <trkpt lat="22.3485153478" lon="114.1583383622"><ele>230.000</ele></trkpt>
      <trkpt lat="22.3485502577" lon="114.1583691473"><ele>230.000</ele></trkpt>
      <trkpt lat="22.3485715221" lon="114.1583878993"><ele>230.000</ele></trkpt>
      <trkpt lat="22.3485806758" lon="114.1584354313"><ele>230.000</ele></trkpt>
      <trkpt lat="22.3485888150" lon="114.1584776961"><ele>230.000</ele></trkpt>
      <trkpt lat="22.3486118963" lon="114.1585194149"><ele>230.000</ele></trkpt>
      <trkpt lat="22.3486205066" lon="114.1585349779"><ele>230.000</ele></trkpt>
      <trkpt lat="22.3486521927" lon="114.1585458115"><ele>230.000</ele></trkpt>
      <trkpt lat="22.3486970005" lon="114.1585398231"><ele>231.000</ele></trkpt>
      <trkpt lat="22.3487335338" lon="114.1585349405"><ele>231.000</ele></trkpt>
      <trkpt lat="22.3487757281" lon="114.1585176595"><ele>232.000</ele></trkpt>
      <trkpt lat="22.3488179225" lon="114.1585003784"><ele>232.000</ele></trkpt>
      <trkpt lat="22.3488328834" lon="114.1584942510"><ele>232.000</ele></trkpt>
      <trkpt lat="22.3488707267" lon="114.1584677728"><ele>232.000</ele></trkpt>
      <trkpt lat="22.3489085699" lon="114.1584412945"><ele>231.000</ele></trkpt>
      <trkpt lat="22.3489464131" lon="114.1584148162"><ele>231.000</ele></trkpt>
      <trkpt lat="22.3489767649" lon="114.1583935795"><ele>231.000</ele></trkpt>
      <trkpt lat="22.3490082743" lon="114.1583588124"><ele>231.000</ele></trkpt>
      <trkpt lat="22.3490196005" lon="114.1583463152"><ele>232.000</ele></trkpt>
      <trkpt lat="22.3490425023" lon="114.1583044821"><ele>232.000</ele></trkpt>
      <trkpt lat="22.3490554083" lon="114.1582809076"><ele>232.000</ele></trkpt>
      <trkpt lat="22.3490906932" lon="114.1582506204"><ele>232.000</ele></trkpt>
      <trkpt lat="22.3490958702" lon="114.1582461766"><ele>231.000</ele></trkpt>
      <trkpt lat="22.3491410230" lon="114.1582461706"><ele>231.000</ele></trkpt>
      <trkpt lat="22.3491594454" lon="114.1582461682"><ele>231.000</ele></trkpt>
      <trkpt lat="22.3492037014" lon="114.1582557943"><ele>231.000</ele></trkpt>
      <trkpt lat="22.3492176587" lon="114.1582588302"><ele>230.000</ele></trkpt>
      <trkpt lat="22.3492517626" lon="114.1582906424"><ele>230.000</ele></trkpt>
      <trkpt lat="22.3492858665" lon="114.1583224547"><ele>231.000</ele></trkpt>
      <trkpt lat="22.3493075075" lon="114.1583426416"><ele>231.000</ele></trkpt>
      <trkpt lat="22.3493463549" lon="114.1583673824"><ele>231.000</ele></trkpt>
      <trkpt lat="22.3493532779" lon="114.1583717915"><ele>231.000</ele></trkpt>
      <trkpt lat="22.3493920078" lon="114.1583967443"><ele>231.000</ele></trkpt>
      <trkpt lat="22.3494037491" lon="114.1584043090"><ele>231.000</ele></trkpt>
      <trkpt lat="22.3494406492" lon="114.1584322836"><ele>231.000</ele></trkpt>
      <trkpt lat="22.3494606466" lon="114.1584474441"><ele>231.000</ele></trkpt>
      <trkpt lat="22.3494959573" lon="114.1584776964"><ele>231.000</ele></trkpt>
      <trkpt lat="22.3495312681" lon="114.1585079489"><ele>231.000</ele></trkpt>
      <trkpt lat="22.3495665788" lon="114.1585382013"><ele>231.000</ele></trkpt>
      <trkpt lat="22.3496018895" lon="114.1585684537"><ele>231.000</ele></trkpt>
      <trkpt lat="22.3496126484" lon="114.1585776713"><ele>231.000</ele></trkpt>
      <trkpt lat="22.3496521981" lon="114.1586010908"><ele>231.000</ele></trkpt>
      <trkpt lat="22.3496917479" lon="114.1586245102"><ele>231.000</ele></trkpt>
      <trkpt lat="22.3497173800" lon="114.1586396883"><ele>231.000</ele></trkpt>
      <trkpt lat="22.3497523386" lon="114.1586704099"><ele>231.000</ele></trkpt>
      <trkpt lat="22.3497638920" lon="114.1586805630"><ele>231.000</ele></trkpt>
      <trkpt lat="22.3497858383" lon="114.1587229841"><ele>232.000</ele></trkpt>
      <trkpt lat="22.3497991369" lon="114.1587486897"><ele>232.000</ele></trkpt>
      <trkpt lat="22.3497941707" lon="114.1587969355"><ele>232.000</ele></trkpt>
      <trkpt lat="22.3497940467" lon="114.1587981403"><ele>231.000</ele></trkpt>
      <trkpt lat="22.3497730217" lon="114.1588410973"><ele>232.000</ele></trkpt>
      <trkpt lat="22.3497601527" lon="114.1588673902"><ele>232.000</ele></trkpt>
      <trkpt lat="22.3497533750" lon="114.1588910802"><ele>232.000</ele></trkpt>
      <trkpt lat="22.3497618532" lon="114.1589165907"><ele>232.000</ele></trkpt>
      <trkpt lat="22.3497855874" lon="114.1589439215"><ele>232.000</ele></trkpt>
      <trkpt lat="22.3498205372" lon="114.1589746546"><ele>232.000</ele></trkpt>
      <trkpt lat="22.3498415304" lon="114.1589931151"><ele>232.000</ele></trkpt>
      <trkpt lat="22.3498700563" lon="114.1590307417"><ele>232.000</ele></trkpt>
      <trkpt lat="22.3498788275" lon="114.1590423111"><ele>232.000</ele></trkpt>
      <trkpt lat="22.3498907854" lon="114.1590891184"><ele>232.000</ele></trkpt>
      <trkpt lat="22.3499025689" lon="114.1591352431"><ele>232.000</ele></trkpt>
      <trkpt lat="22.3499261686" lon="114.1591766257"><ele>232.000</ele></trkpt>
      <trkpt lat="22.3499347816" lon="114.1591917289"><ele>232.000</ele></trkpt>
      <trkpt lat="22.3499484023" lon="114.1592380081"><ele>232.000</ele></trkpt>
      <trkpt lat="22.3499597673" lon="114.1592766237"><ele>232.000</ele></trkpt>
      <trkpt lat="22.3499434618" lon="114.1593218886"><ele>233.000</ele></trkpt>
      <trkpt lat="22.3499428582" lon="114.1593235643"><ele>233.000</ele></trkpt>
      <trkpt lat="22.3499043465" lon="114.1593489045"><ele>233.000</ele></trkpt>
      <trkpt lat="22.3498923448" lon="114.1593568014"><ele>233.000</ele></trkpt>
      <trkpt lat="22.3498487334" lon="114.1593693761"><ele>233.000</ele></trkpt>
      <trkpt lat="22.3498051221" lon="114.1593819508"><ele>233.000</ele></trkpt>
      <trkpt lat="22.3497767753" lon="114.1593901242"><ele>233.000</ele></trkpt>
      <trkpt lat="22.3497316276" lon="114.1593893948"><ele>233.000</ele></trkpt>
      <trkpt lat="22.3496864799" lon="114.1593886654"><ele>232.000</ele></trkpt>
      <trkpt lat="22.3496837513" lon="114.1593886213"><ele>232.000</ele></trkpt>
      <trkpt lat="22.3496432844" lon="114.1593670886"><ele>232.000</ele></trkpt>
      <trkpt lat="22.3496028175" lon="114.1593455558"><ele>232.000</ele></trkpt>
      <trkpt lat="22.3495727774" lon="114.1593295713"><ele>232.000</ele></trkpt>
      <trkpt lat="22.3495338523" lon="114.1593049722"><ele>232.000</ele></trkpt>
      <trkpt lat="22.3495248580" lon="114.1592992882"><ele>233.000</ele></trkpt>
      <trkpt lat="22.3494800721" lon="114.1593054634"><ele>232.000</ele></trkpt>
      <trkpt lat="22.3494698898" lon="114.1593068673"><ele>232.000</ele></trkpt>
      <trkpt lat="22.3494402990" lon="114.1593280734"><ele>232.000</ele></trkpt>
      <trkpt lat="22.3494224329" lon="114.1593726522"><ele>232.000</ele></trkpt>
      <trkpt lat="22.3494169883" lon="114.1593862372"><ele>232.000</ele></trkpt>
      <trkpt lat="22.3494112614" lon="114.1594343854"><ele>232.000</ele></trkpt>
      <trkpt lat="22.3494072171" lon="114.1594683879"><ele>232.000</ele></trkpt>
      <trkpt lat="22.3494250032" lon="114.1595130036"><ele>232.000</ele></trkpt>
      <trkpt lat="22.3494373059" lon="114.1595438643"><ele>232.000</ele></trkpt>
      <trkpt lat="22.3494638851" lon="114.1595831036"><ele>232.000</ele></trkpt>
      <trkpt lat="22.3494703729" lon="114.1595926817"><ele>232.000</ele></trkpt>
      <trkpt lat="22.3494854008" lon="114.1596384547"><ele>232.000</ele></trkpt>
      <trkpt lat="22.3495004287" lon="114.1596842276"><ele>232.000</ele></trkpt>
      <trkpt lat="22.3495105981" lon="114.1597152024"><ele>232.000</ele></trkpt>
      <trkpt lat="22.3495385370" lon="114.1597533345"><ele>232.000</ele></trkpt>
      <trkpt lat="22.3495664759" lon="114.1597914666"><ele>232.000</ele></trkpt>
      <trkpt lat="22.3495782648" lon="114.1598075565"><ele>232.000</ele></trkpt>
      <trkpt lat="22.3495857838" lon="114.1598554191"><ele>232.000</ele></trkpt>
      <trkpt lat="22.3495933028" lon="114.1599032816"><ele>233.000</ele></trkpt>
      <trkpt lat="22.3495950999" lon="114.1599147218"><ele>233.000</ele></trkpt>
      <trkpt lat="22.3495934126" lon="114.1599632281"><ele>234.000</ele></trkpt>
      <trkpt lat="22.3495917252" lon="114.1600117345"><ele>234.000</ele></trkpt>
      <trkpt lat="22.3495908863" lon="114.1600358497"><ele>233.000</ele></trkpt>
      <trkpt lat="22.3496042656" lon="114.1600822101"><ele>233.000</ele></trkpt>
      <trkpt lat="22.3496176450" lon="114.1601285705"><ele>233.000</ele></trkpt>
      <trkpt lat="22.3496219083" lon="114.1601433433"><ele>234.000</ele></trkpt>
      <trkpt lat="22.3496578938" lon="114.1601726625"><ele>235.000</ele></trkpt>
      <trkpt lat="22.3496627841" lon="114.1601766468"><ele>235.000</ele></trkpt>
      <trkpt lat="22.3497066921" lon="114.1601879655"><ele>234.000</ele></trkpt>
      <trkpt lat="22.3497332514" lon="114.1601948120"><ele>234.000</ele></trkpt>
      <trkpt lat="22.3497769806" lon="114.1602069046"><ele>234.000</ele></trkpt>
      <trkpt lat="22.3498207098" lon="114.1602189973"><ele>234.000</ele></trkpt>
      <trkpt lat="22.3498262778" lon="114.1602205370"><ele>234.000</ele></trkpt>
      <trkpt lat="22.3498682038" lon="114.1602385572"><ele>234.000</ele></trkpt>
      <trkpt lat="22.3499101299" lon="114.1602565774"><ele>234.000</ele></trkpt>
      <trkpt lat="22.3499520559" lon="114.1602745977"><ele>234.000</ele></trkpt>
      <trkpt lat="22.3499807072" lon="114.1602869123"><ele>234.000</ele></trkpt>
      <trkpt lat="22.3500194802" lon="114.1603117877"><ele>234.000</ele></trkpt>
      <trkpt lat="22.3500582532" lon="114.1603366631"><ele>234.000</ele></trkpt>
      <trkpt lat="22.3500892436" lon="114.1603565454"><ele>234.000</ele></trkpt>
      <trkpt lat="22.3501121235" lon="114.1603983925"><ele>234.000</ele></trkpt>
      <trkpt lat="22.3501350035" lon="114.1604402397"><ele>235.000</ele></trkpt>
      <trkpt lat="22.3501413957" lon="114.1604519310"><ele>235.000</ele></trkpt>
      <trkpt lat="22.3501466214" lon="114.1605001453"><ele>235.000</ele></trkpt>
      <trkpt lat="22.3501518471" lon="114.1605483596"><ele>235.000</ele></trkpt>
      <trkpt lat="22.3501570728" lon="114.1605965739"><ele>235.000</ele></trkpt>
      <trkpt lat="22.3501622985" lon="114.1606447882"><ele>235.000</ele></trkpt>
      <trkpt lat="22.3501641558" lon="114.1606619242"><ele>235.000</ele></trkpt>
      <trkpt lat="22.3501572869" lon="114.1607098997"><ele>235.000</ele></trkpt>
      <trkpt lat="22.3501528844" lon="114.1607406484"><ele>235.000</ele></trkpt>
      <trkpt lat="22.3501280644" lon="114.1607811976"><ele>235.000</ele></trkpt>
      <trkpt lat="22.3501176619" lon="114.1607981924"><ele>235.000</ele></trkpt>
      <trkpt lat="22.3500919717" lon="114.1608381103"><ele>235.000</ele></trkpt>
      <trkpt lat="22.3500662814" lon="114.1608780282"><ele>236.000</ele></trkpt>
      <trkpt lat="22.3500405912" lon="114.1609179461"><ele>236.000</ele></trkpt>
      <trkpt lat="22.3500260609" lon="114.1609405234"><ele>236.000</ele></trkpt>
      <trkpt lat="22.3500134812" lon="114.1609871420"><ele>236.000</ele></trkpt>
      <trkpt lat="22.3500009015" lon="114.1610337605"><ele>236.000</ele></trkpt>
      <trkpt lat="22.3499883218" lon="114.1610803790"><ele>236.000</ele></trkpt>
      <trkpt lat="22.3499852034" lon="114.1610919353"><ele>236.000</ele></trkpt>
      <trkpt lat="22.3499694130" lon="114.1611374108"><ele>237.000</ele></trkpt>
      <trkpt lat="22.3499536227" lon="114.1611828863"><ele>237.000</ele></trkpt>
      <trkpt lat="22.3499499760" lon="114.1611933888"><ele>237.000</ele></trkpt>
      <trkpt lat="22.3499150946" lon="114.1612242116"><ele>237.000</ele></trkpt>
      <trkpt lat="22.3499037615" lon="114.1612342261"><ele>237.000</ele></trkpt>
      <trkpt lat="22.3498626546" lon="114.1612543092"><ele>237.000</ele></trkpt>
      <trkpt lat="22.3498487860" lon="114.1612610848"><ele>237.000</ele></trkpt>
      <trkpt lat="22.3498247171" lon="114.1613021538"><ele>237.000</ele></trkpt>
      <trkpt lat="22.3498204618" lon="114.1613094147"><ele>236.000</ele></trkpt>
      <trkpt lat="22.3498171336" lon="114.1613523733"><ele>237.000</ele></trkpt>
      <trkpt lat="22.3498397126" lon="114.1613944089"><ele>236.000</ele></trkpt>
      <trkpt lat="22.3498421256" lon="114.1613989013"><ele>236.000</ele></trkpt>
      <trkpt lat="22.3498827626" lon="114.1614200607"><ele>237.000</ele></trkpt>
      <trkpt lat="22.3498971154" lon="114.1614275341"><ele>237.000</ele></trkpt>
      <trkpt lat="22.3499411939" lon="114.1614170084"><ele>237.000</ele></trkpt>
      <trkpt lat="22.3499852723" lon="114.1614064828"><ele>237.000</ele></trkpt>
      <trkpt lat="22.3499870849" lon="114.1614060499"><ele>237.000</ele></trkpt>
      <trkpt lat="22.3500282325" lon="114.1613860635"><ele>237.000</ele></trkpt>
      <trkpt lat="22.3500693801" lon="114.1613660770"><ele>237.000</ele></trkpt>
      <trkpt lat="22.3501087118" lon="114.1613469725"><ele>237.000</ele></trkpt>
      <trkpt lat="22.3501433038" lon="114.1613157750"><ele>237.000</ele></trkpt>
      <trkpt lat="22.3501778958" lon="114.1612845775"><ele>237.000</ele></trkpt>
      <trkpt lat="22.3502020075" lon="114.1612628318"><ele>237.000</ele></trkpt>
      <trkpt lat="22.3502374716" lon="114.1612327872"><ele>238.000</ele></trkpt>
      <trkpt lat="22.3502729356" lon="114.1612027426"><ele>237.000</ele></trkpt>
      <trkpt lat="22.3503083997" lon="114.1611726980"><ele>237.000</ele></trkpt>
      <trkpt lat="22.3503178872" lon="114.1611646602"><ele>237.000</ele></trkpt>
      <trkpt lat="22.3503567847" lon="114.1611400104"><ele>237.000</ele></trkpt>
      <trkpt lat="22.3503748395" lon="114.1611285688"><ele>237.000</ele></trkpt>
      <trkpt lat="22.3504199808" lon="114.1611296637"><ele>237.000</ele></trkpt>
      <trkpt lat="22.3504481497" lon="114.1611303469"><ele>237.000</ele></trkpt>
      <trkpt lat="22.3504877970" lon="114.1611535752"><ele>237.000</ele></trkpt>
      <trkpt lat="22.3505274443" lon="114.1611768035"><ele>238.000</ele></trkpt>
      <trkpt lat="22.3505670916" lon="114.1612000318"><ele>237.000</ele></trkpt>
      <trkpt lat="22.3505897660" lon="114.1612133161"><ele>237.000</ele></trkpt>
      <trkpt lat="22.3506190098" lon="114.1612503005"><ele>237.000</ele></trkpt>
      <trkpt lat="22.3506482537" lon="114.1612872848"><ele>237.000</ele></trkpt>
      <trkpt lat="22.3506774975" lon="114.1613242692"><ele>238.000</ele></trkpt>
      <trkpt lat="22.3506924198" lon="114.1613431413"><ele>238.000</ele></trkpt>
      <trkpt lat="22.3507143999" lon="114.1613855424"><ele>238.000</ele></trkpt>
      <trkpt lat="22.3507363800" lon="114.1614279435"><ele>238.000</ele></trkpt>
      <trkpt lat="22.3507583601" lon="114.1614703446"><ele>239.000</ele></trkpt>
      <trkpt lat="22.3507803401" lon="114.1615127457"><ele>239.000</ele></trkpt>
      <trkpt lat="22.3507824168" lon="114.1615167517"><ele>239.000</ele></trkpt>
      <trkpt lat="22.3507859543" lon="114.1615651432"><ele>239.000</ele></trkpt>
      <trkpt lat="22.3507890899" lon="114.1616080366"><ele>239.000</ele></trkpt>
      <trkpt lat="22.3507727522" lon="114.1616532884"><ele>239.000</ele></trkpt>
      <trkpt lat="22.3507564145" lon="114.1616985401"><ele>239.000</ele></trkpt>
      <trkpt lat="22.3507542591" lon="114.1617045102"><ele>239.000</ele></trkpt>
      <trkpt lat="22.3507458086" lon="114.1617521932"><ele>239.000</ele></trkpt>
      <trkpt lat="22.3507409370" lon="114.1617796817"><ele>239.000</ele></trkpt>
      <trkpt lat="22.3507403157" lon="114.1618282178"><ele>239.000</ele></trkpt>
      <trkpt lat="22.3507396944" lon="114.1618767539"><ele>240.000</ele></trkpt>
      <trkpt lat="22.3507392873" lon="114.1619085574"><ele>240.000</ele></trkpt>
      <trkpt lat="22.3507253814" lon="114.1619547388"><ele>240.000</ele></trkpt>
      <trkpt lat="22.3507209608" lon="114.1619694197"><ele>240.000</ele></trkpt>
      <trkpt lat="22.3506826465" lon="114.1619944804"><ele>240.000</ele></trkpt>
      <trkpt lat="22.3506392721" lon="114.1619877379"><ele>240.000</ele></trkpt>
      <trkpt lat="22.3506022694" lon="114.1619599202"><ele>240.000</ele></trkpt>
      <trkpt lat="22.3505652667" lon="114.1619321025"><ele>240.000</ele></trkpt>
      <trkpt lat="22.3505282640" lon="114.1619042849"><ele>239.000</ele></trkpt>
      <trkpt lat="22.3505156803" lon="114.1618948248"><ele>239.000</ele></trkpt>
      <trkpt lat="22.3504831528" lon="114.1618611584"><ele>239.000</ele></trkpt>
      <trkpt lat="22.3504581231" lon="114.1618352522"><ele>240.000</ele></trkpt>
      <trkpt lat="22.3504167880" lon="114.1618157178"><ele>240.000</ele></trkpt>
      <trkpt lat="22.3504164723" lon="114.1618155686"><ele>240.000</ele></trkpt>
      <trkpt lat="22.3503716112" lon="114.1618210773"><ele>240.000</ele></trkpt>
      <trkpt lat="22.3503581536" lon="114.1618227298"><ele>240.000</ele></trkpt>
      <trkpt lat="22.3503155929" lon="114.1618389396"><ele>240.000</ele></trkpt>
      <trkpt lat="22.3502735041" lon="114.1618549697"><ele>240.000</ele></trkpt>
      <trkpt lat="22.3502454878" lon="114.1618930364"><ele>240.000</ele></trkpt>
      <trkpt lat="22.3502174716" lon="114.1619311031"><ele>240.000</ele></trkpt>
      <trkpt lat="22.3501894553" lon="114.1619691697"><ele>240.000</ele></trkpt>
      <trkpt lat="22.3501826818" lon="114.1619783730"><ele>240.000</ele></trkpt>
      <trkpt lat="22.3501576392" lon="114.1620187638"><ele>240.000</ele></trkpt>
      <trkpt lat="22.3501474870" lon="114.1620351381"><ele>240.000</ele></trkpt>
      <trkpt lat="22.3501325979" lon="114.1620809636"><ele>240.000</ele></trkpt>
      <trkpt lat="22.3501219743" lon="114.1621136606"><ele>240.000</ele></trkpt>
      <trkpt lat="22.3501078984" lon="114.1621590712"><ele>240.000</ele></trkpt>
      <trkpt lat="22.3500990996" lon="114.1621732624"><ele>240.000</ele></trkpt>
      <trkpt lat="22.3500628194" lon="114.1622021588"><ele>240.000</ele></trkpt>
      <trkpt lat="22.3500515831" lon="114.1622111083"><ele>240.000</ele></trkpt>
      <trkpt lat="22.3500261183" lon="114.1622214765"><ele>240.000</ele></trkpt>
      <trkpt lat="22.3499836636" lon="114.1622380045"><ele>240.000</ele></trkpt>
      <trkpt lat="22.3499412089" lon="114.1622545325"><ele>240.000</ele></trkpt>
      <trkpt lat="22.3499111543" lon="114.1622662330"><ele>240.000</ele></trkpt>
      <trkpt lat="22.3498703701" lon="114.1622870626"><ele>240.000</ele></trkpt>
      <trkpt lat="22.3498597509" lon="114.1622924861"><ele>241.000</ele></trkpt>
      <trkpt lat="22.3498518331" lon="114.1623180294"><ele>241.000</ele></trkpt>
      <trkpt lat="22.3498527149" lon="114.1623378956"><ele>241.000</ele></trkpt>
      <trkpt lat="22.3498645119" lon="114.1623718423"><ele>241.000</ele></trkpt>
      <trkpt lat="22.3498800017" lon="114.1624145206"><ele>241.000</ele></trkpt>
      <trkpt lat="22.3498993029" lon="114.1624584027"><ele>241.000</ele></trkpt>
      <trkpt lat="22.3499028862" lon="114.1624665494"><ele>241.000</ele></trkpt>
      <trkpt lat="22.3498967298" lon="114.1625072289"><ele>241.000</ele></trkpt>
      <trkpt lat="22.3498808913" lon="114.1625223668"><ele>241.000</ele></trkpt>
      <trkpt lat="22.3498428631" lon="114.1625472598"><ele>241.000</ele></trkpt>
      <trkpt lat="22.3498007536" lon="114.1625647785"><ele>241.000</ele></trkpt>
      <trkpt lat="22.3497589994" lon="114.1625821494"><ele>241.000</ele></trkpt>
      <trkpt lat="22.3497140416" lon="114.1625866555"><ele>241.000</ele></trkpt>
      <trkpt lat="22.3497040173" lon="114.1625876602"><ele>241.000</ele></trkpt>
      <trkpt lat="22.3496828991" lon="114.1626084748"><ele>241.000</ele></trkpt>
      <trkpt lat="22.3496556199" lon="114.1626169918"><ele>241.000</ele></trkpt>
      <trkpt lat="22.3496105328" lon="114.1626143742"><ele>241.000</ele></trkpt>
      <trkpt lat="22.3496047270" lon="114.1626140372"><ele>241.000</ele></trkpt>
      <trkpt lat="22.3495852192" lon="114.1626065926"><ele>241.000</ele></trkpt>
      <trkpt lat="22.3495473780" lon="114.1625933522"><ele>241.000</ele></trkpt>
      <trkpt lat="22.3495112967" lon="114.1625763275"><ele>241.000</ele></trkpt>
      <trkpt lat="22.3494840153" lon="114.1625602481"><ele>241.000</ele></trkpt>
      <trkpt lat="22.3494628955" lon="114.1625621421"><ele>241.000</ele></trkpt>
      <trkpt lat="22.3494452970" lon="114.1625810644"><ele>241.000</ele></trkpt>
      <trkpt lat="22.3494338598" lon="114.1626113382"><ele>241.000</ele></trkpt>
      <trkpt lat="22.3494382628" lon="114.1626472864"><ele>241.000</ele></trkpt>
      <trkpt lat="22.3494287471" lon="114.1626947365"><ele>241.000</ele></trkpt>
      <trkpt lat="22.3494192313" lon="114.1627421865"><ele>241.000</ele></trkpt>
      <trkpt lat="22.3494189113" lon="114.1627437820"><ele>241.000</ele></trkpt>
      <trkpt lat="22.3493997682" lon="114.1627877439"><ele>242.000</ele></trkpt>
      <trkpt lat="22.3493806251" lon="114.1628317057"><ele>242.000</ele></trkpt>
      <trkpt lat="22.3493627095" lon="114.1628728485"><ele>242.000</ele></trkpt>
      <trkpt lat="22.3493280143" lon="114.1629039130"><ele>242.000</ele></trkpt>
      <trkpt lat="22.3492945882" lon="114.1629338412"><ele>242.000</ele></trkpt>
      <trkpt lat="22.3492542786" lon="114.1629557122"><ele>242.000</ele></trkpt>
      <trkpt lat="22.3492455703" lon="114.1629604371"><ele>242.000</ele></trkpt>
      <trkpt lat="22.3492012689" lon="114.1629698186"><ele>242.000</ele></trkpt>
      <trkpt lat="22.3491838859" lon="114.1629734998"><ele>242.000</ele></trkpt>
      <trkpt lat="22.3491392356" lon="114.1629662789"><ele>242.000</ele></trkpt>
      <trkpt lat="22.3490945852" lon="114.1629590580"><ele>242.000</ele></trkpt>
      <trkpt lat="22.3490739701" lon="114.1629557241"><ele>242.000</ele></trkpt>
      <trkpt lat="22.3490289403" lon="114.1629521429"><ele>242.000</ele></trkpt>
      <trkpt lat="22.3490264498" lon="114.1629519448"><ele>242.000</ele></trkpt>
      <trkpt lat="22.3489894904" lon="114.1629566785"><ele>242.000</ele></trkpt>
      <trkpt lat="22.3489674917" lon="114.1629727630"><ele>242.000</ele></trkpt>
      <trkpt lat="22.3489481343" lon="114.1630020913"><ele>242.000</ele></trkpt>
      <trkpt lat="22.3489507766" lon="114.1630276333"><ele>242.000</ele></trkpt>
      <trkpt lat="22.3489694646" lon="114.1630718208"><ele>242.000</ele></trkpt>
      <trkpt lat="22.3489727808" lon="114.1630796620"><ele>242.000</ele></trkpt>
      <trkpt lat="22.3489886233" lon="114.1631080409"><ele>242.000</ele></trkpt>
      <trkpt lat="22.3489983057" lon="114.1631354743"><ele>242.000</ele></trkpt>
      <trkpt lat="22.3490032055" lon="114.1631837277"><ele>242.000</ele></trkpt>
      <trkpt lat="22.3490050822" lon="114.1632022092"><ele>242.000</ele></trkpt>
      <trkpt lat="22.3490048719" lon="114.1632507488"><ele>242.000</ele></trkpt>
      <trkpt lat="22.3490046616" lon="114.1632992883"><ele>242.000</ele></trkpt>
      <trkpt lat="22.3490045683" lon="114.1633208121"><ele>242.000</ele></trkpt>
      <trkpt lat="22.3489763239" lon="114.1633530598"><ele>243.000</ele></trkpt>
      <trkpt lat="22.3489552052" lon="114.1633691441"><ele>244.000</ele></trkpt>
      <trkpt lat="22.3489376051" lon="114.1633663076"><ele>244.000</ele></trkpt>
      <trkpt lat="22.3489173640" lon="114.1633521194"><ele>246.000</ele></trkpt>
      <trkpt lat="22.3488856842" lon="114.1633568527"><ele>247.000</ele></trkpt>
      <trkpt lat="22.3488680852" lon="114.1633672604"><ele>248.000</ele></trkpt>
      <trkpt lat="22.3488416881" lon="114.1634013196"><ele>250.000</ele></trkpt>
      <trkpt lat="22.3488249709" lon="114.1634363236"><ele>251.000</ele></trkpt>
      <trkpt lat="22.3487985742" lon="114.1634751125"><ele>252.000</ele></trkpt>
      <trkpt lat="22.3487730547" lon="114.1634807912"><ele>253.000</ele></trkpt>
      <trkpt lat="22.3487308627" lon="114.1634635036"><ele>254.000</ele></trkpt>
      <trkpt lat="22.3486957428" lon="114.1634491136"><ele>254.000</ele></trkpt>
      <trkpt lat="22.3486604151" lon="114.1634188843"><ele>254.000</ele></trkpt>
      <trkpt lat="22.3486250875" lon="114.1633886549"><ele>253.000</ele></trkpt>
      <trkpt lat="22.3486023256" lon="114.1633691780"><ele>253.000</ele></trkpt>
      <trkpt lat="22.3485634290" lon="114.1633445268"><ele>252.000</ele></trkpt>
      <trkpt lat="22.3485479843" lon="114.1633347385"><ele>251.000</ele></trkpt>
      <trkpt lat="22.3485309141" lon="114.1632898011"><ele>251.000</ele></trkpt>
      <trkpt lat="22.3485138439" lon="114.1632448636"><ele>251.000</ele></trkpt>
      <trkpt lat="22.3485061817" lon="114.1632246929"><ele>251.000</ele></trkpt>
      <trkpt lat="22.3485022561" lon="114.1631763368"><ele>251.000</ele></trkpt>
      <trkpt lat="22.3485015351" lon="114.1631674551"><ele>251.000</ele></trkpt>
      <trkpt lat="22.3485200627" lon="114.1631301261"><ele>252.000</ele></trkpt>
      <trkpt lat="22.3485270124" lon="114.1630853424"><ele>252.000</ele></trkpt>
      <trkpt lat="22.3485143780" lon="114.1630387415"><ele>252.000</ele></trkpt>
      <trkpt lat="22.3485017436" lon="114.1629921406"><ele>252.000</ele></trkpt>
      <trkpt lat="22.3484891091" lon="114.1629455396"><ele>252.000</ele></trkpt>
      <trkpt lat="22.3484764747" lon="114.1628989387"><ele>252.000</ele></trkpt>
      <trkpt lat="22.3484737153" lon="114.1628887611"><ele>252.000</ele></trkpt>
      <trkpt lat="22.3484478097" lon="114.1628490048"><ele>252.000</ele></trkpt>
      <trkpt lat="22.3484412913" lon="114.1628390012"><ele>252.000</ele></trkpt>
      <trkpt lat="22.3484005113" lon="114.1628181623"><ele>252.000</ele></trkpt>
      <trkpt lat="22.3483597313" lon="114.1627973234"><ele>252.000</ele></trkpt>
      <trkpt lat="22.3483352859" lon="114.1627848316"><ele>252.000</ele></trkpt>
      <trkpt lat="22.3483026467" lon="114.1627512909"><ele>253.000</ele></trkpt>
      <trkpt lat="22.3482820098" lon="114.1627300840"><ele>252.000</ele></trkpt>
      <trkpt lat="22.3482564453" lon="114.1626900734"><ele>252.000</ele></trkpt>
      <trkpt lat="22.3482308808" lon="114.1626500629"><ele>252.000</ele></trkpt>
      <trkpt lat="22.3482053163" lon="114.1626100523"><ele>252.000</ele></trkpt>
      <trkpt lat="22.3482009314" lon="114.1626031897"><ele>252.000</ele></trkpt>
      <trkpt lat="22.3481813774" lon="114.1625594377"><ele>252.000</ele></trkpt>
      <trkpt lat="22.3481618233" lon="114.1625156857"><ele>252.000</ele></trkpt>
      <trkpt lat="22.3481453283" lon="114.1624787781"><ele>252.000</ele></trkpt>
      <trkpt lat="22.3481371601" lon="114.1624310392"><ele>253.000</ele></trkpt>
      <trkpt lat="22.3481289918" lon="114.1623833003"><ele>253.000</ele></trkpt>
      <trkpt lat="22.3481244658" lon="114.1623568483"><ele>253.000</ele></trkpt>
      <trkpt lat="22.3481101754" lon="114.1623108037"><ele>253.000</ele></trkpt>
      <trkpt lat="22.3480958848" lon="114.1622647591"><ele>254.000</ele></trkpt>
      <trkpt lat="22.3480897152" lon="114.1622448804"><ele>254.000</ele></trkpt>
      <trkpt lat="22.3480661415" lon="114.1622034812"><ele>254.000</ele></trkpt>
      <trkpt lat="22.3480425677" lon="114.1621620821"><ele>255.000</ele></trkpt>
      <trkpt lat="22.3480248926" lon="114.1621310420"><ele>254.000</ele></trkpt>
      <trkpt lat="22.3480043690" lon="114.1620878063"><ele>254.000</ele></trkpt>
      <trkpt lat="22.3479838454" lon="114.1620445706"><ele>254.000</ele></trkpt>
      <trkpt lat="22.3479646562" lon="114.1620041461"><ele>254.000</ele></trkpt>
      <trkpt lat="22.3479392524" lon="114.1619640174"><ele>254.000</ele></trkpt>
      <trkpt lat="22.3479252772" lon="114.1619419417"><ele>254.000</ele></trkpt>
      <trkpt lat="22.3478956564" lon="114.1619053064"><ele>255.000</ele></trkpt>
      <trkpt lat="22.3478660355" lon="114.1618686711"><ele>255.000</ele></trkpt>
      <trkpt lat="22.3478488248" lon="114.1618473848"><ele>255.000</ele></trkpt>
      <trkpt lat="22.3478210030" lon="114.1618091543"><ele>256.000</ele></trkpt>
      <trkpt lat="22.3478164281" lon="114.1618028677"><ele>256.000</ele></trkpt>
      <trkpt lat="22.3477909104" lon="114.1617628227"><ele>256.000</ele></trkpt>
      <trkpt lat="22.3477653927" lon="114.1617227777"><ele>256.000</ele></trkpt>
      <trkpt lat="22.3477547132" lon="114.1617060183"><ele>256.000</ele></trkpt>
      <trkpt lat="22.3477451175" lon="114.1616585874"><ele>256.000</ele></trkpt>
      <trkpt lat="22.3477355217" lon="114.1616111565"><ele>257.000</ele></trkpt>
      <trkpt lat="22.3477329033" lon="114.1615982141"><ele>257.000</ele></trkpt>
      <trkpt lat="22.3477528769" lon="114.1615546818"><ele>258.000</ele></trkpt>
      <trkpt lat="22.3477728504" lon="114.1615111494"><ele>258.000</ele></trkpt>
      <trkpt lat="22.3477869221" lon="114.1614804801"><ele>258.000</ele></trkpt>
      <trkpt lat="22.3477845825" lon="114.1614320057"><ele>259.000</ele></trkpt>
      <trkpt lat="22.3477822802" lon="114.1613843041"><ele>261.000</ele></trkpt>
      <trkpt lat="22.3477732197" lon="114.1613367518"><ele>259.000</ele></trkpt>
      <trkpt lat="22.3477641591" lon="114.1612891994"><ele>260.000</ele></trkpt>
      <trkpt lat="22.3477550985" lon="114.1612416471"><ele>260.000</ele></trkpt>
      <trkpt lat="22.3477544792" lon="114.1612383970"><ele>260.000</ele></trkpt>
      <trkpt lat="22.3477294148" lon="114.1611980226"><ele>260.000</ele></trkpt>
      <trkpt lat="22.3477043504" lon="114.1611576482"><ele>260.000</ele></trkpt>
      <trkpt lat="22.3476958076" lon="114.1611438871"><ele>260.000</ele></trkpt>
      <trkpt lat="22.3476685699" lon="114.1611051737"><ele>261.000</ele></trkpt>
      <trkpt lat="22.3476433147" lon="114.1610692779"><ele>261.000</ele></trkpt>
      <trkpt lat="22.3476238862" lon="114.1610254615"><ele>262.000</ele></trkpt>
      <trkpt lat="22.3476044578" lon="114.1609816451"><ele>262.000</ele></trkpt>
      <trkpt lat="22.3475969958" lon="114.1609648162"><ele>262.000</ele></trkpt>
      <trkpt lat="22.3475723378" lon="114.1609241536"><ele>262.000</ele></trkpt>
      <trkpt lat="22.3475646611" lon="114.1609114943"><ele>262.000</ele></trkpt>
      <trkpt lat="22.3475468564" lon="114.1608668877"><ele>263.000</ele></trkpt>
      <trkpt lat="22.3475392157" lon="114.1608477453"><ele>263.000</ele></trkpt>
      <trkpt lat="22.3475385884" lon="114.1608053412"><ele>263.000</ele></trkpt>
      <trkpt lat="22.3475445105" lon="114.1607848665"><ele>264.000</ele></trkpt>
      <trkpt lat="22.3475675902" lon="114.1607606426"><ele>264.000</ele></trkpt>
      <trkpt lat="22.3475972818" lon="114.1607522419"><ele>264.000</ele></trkpt>
      <trkpt lat="22.3476423578" lon="114.1607494114"><ele>263.000</ele></trkpt>
      <trkpt lat="22.3476772018" lon="114.1607472234"><ele>263.000</ele></trkpt>
      <trkpt lat="22.3477216075" lon="114.1607384297"><ele>263.000</ele></trkpt>
      <trkpt lat="22.3477217397" lon="114.1607384035"><ele>263.000</ele></trkpt>
      <trkpt lat="22.3477533802" lon="114.1607128000"><ele>263.000</ele></trkpt>
      <trkpt lat="22.3477639253" lon="114.1606863641"><ele>263.000</ele></trkpt>
      <trkpt lat="22.3477607966" lon="114.1606448145"><ele>262.000</ele></trkpt>
      <trkpt lat="22.3477472539" lon="114.1605985096"><ele>261.000</ele></trkpt>
      <trkpt lat="22.3477370471" lon="114.1605636105"><ele>262.000</ele></trkpt>
      <trkpt lat="22.3477221395" lon="114.1605177927"><ele>261.000</ele></trkpt>
      <trkpt lat="22.3477072318" lon="114.1604719749"><ele>261.000</ele></trkpt>
      <trkpt lat="22.3477030455" lon="114.1604591086"><ele>260.000</ele></trkpt>
      <trkpt lat="22.3476890247" lon="114.1604129684"><ele>260.000</ele></trkpt>
      <trkpt lat="22.3476800099" lon="114.1603833021"><ele>260.000</ele></trkpt>
      <trkpt lat="22.3476675075" lon="114.1603425982"><ele>260.000</ele></trkpt>
      <trkpt lat="22.3476616425" lon="114.1603023110"><ele>259.000</ele></trkpt>
      <trkpt lat="22.3476678880" lon="114.1602666336"><ele>259.000</ele></trkpt>
      <trkpt lat="22.3476753088" lon="114.1602435473"><ele>259.000</ele></trkpt>
      <trkpt lat="22.3476827293" lon="114.1602183738"><ele>260.000</ele></trkpt>
      <trkpt lat="22.3476862405" lon="114.1602011612"><ele>260.000</ele></trkpt>
      <trkpt lat="22.3476788155" lon="114.1601835325"><ele>259.000</ele></trkpt>
      <trkpt lat="22.3476479464" lon="114.1601573442"><ele>258.000</ele></trkpt>
      <trkpt lat="22.3476123950" lon="114.1601274197"><ele>258.000</ele></trkpt>
      <trkpt lat="22.3475768436" lon="114.1600974952"><ele>257.000</ele></trkpt>
      <trkpt lat="22.3475412922" lon="114.1600675706"><ele>257.000</ele></trkpt>
      <trkpt lat="22.3475057408" lon="114.1600376462"><ele>256.000</ele></trkpt>
      <trkpt lat="22.3474701894" lon="114.1600077217"><ele>256.000</ele></trkpt>
      <trkpt lat="22.3474346380" lon="114.1599777972"><ele>255.000</ele></trkpt>
      <trkpt lat="22.3474216478" lon="114.1599668631"><ele>255.000</ele></trkpt>
      <trkpt lat="22.3473849788" lon="114.1599385401"><ele>254.000</ele></trkpt>
      <trkpt lat="22.3473484221" lon="114.1599103040"><ele>253.000</ele></trkpt>
      <trkpt lat="22.3473069355" lon="114.1598911449"><ele>251.000</ele></trkpt>
      <trkpt lat="22.3472654489" lon="114.1598719858"><ele>252.000</ele></trkpt>
      <trkpt lat="22.3472589791" lon="114.1598689980"><ele>252.000</ele></trkpt>
      <trkpt lat="22.3472165399" lon="114.1598524245"><ele>251.000</ele></trkpt>
      <trkpt lat="22.3471741007" lon="114.1598358510"><ele>251.000</ele></trkpt>
      <trkpt lat="22.3471600723" lon="114.1598303726"><ele>250.000</ele></trkpt>
      <trkpt lat="22.3471154067" lon="114.1598232616"><ele>250.000</ele></trkpt>
      <trkpt lat="22.3470716616" lon="114.1598162971"><ele>249.000</ele></trkpt>
      <trkpt lat="22.3470329009" lon="114.1598014100"><ele>249.000</ele></trkpt>
      <trkpt lat="22.3470010786" lon="114.1597669743"><ele>248.000</ele></trkpt>
      <trkpt lat="22.3469999536" lon="114.1597657569"><ele>248.000</ele></trkpt>
      <trkpt lat="22.3469676110" lon="114.1597318862"><ele>248.000</ele></trkpt>
      <trkpt lat="22.3469352684" lon="114.1596980154"><ele>247.000</ele></trkpt>
      <trkpt lat="22.3469265632" lon="114.1596888989"><ele>247.000</ele></trkpt>
      <trkpt lat="22.3468899813" lon="114.1596604460"><ele>246.000</ele></trkpt>
      <trkpt lat="22.3468615829" lon="114.1596383580"><ele>245.000</ele></trkpt>
      <trkpt lat="22.3468173032" lon="114.1596288588"><ele>244.000</ele></trkpt>
      <trkpt lat="22.3468167632" lon="114.1596287430"><ele>244.000</ele></trkpt>
      <trkpt lat="22.3467764348" lon="114.1596479986"><ele>245.000</ele></trkpt>
      <trkpt lat="22.3467513824" lon="114.1596883814"><ele>244.000</ele></trkpt>
      <trkpt lat="22.3467361111" lon="114.1597129977"><ele>244.000</ele></trkpt>
      <trkpt lat="22.3466946244" lon="114.1597321564"><ele>244.000</ele></trkpt>
      <trkpt lat="22.3466531376" lon="114.1597513151"><ele>243.000</ele></trkpt>
      <trkpt lat="22.3466116508" lon="114.1597704737"><ele>242.000</ele></trkpt>
      <trkpt lat="22.3466111252" lon="114.1597707164"><ele>242.000</ele></trkpt>
      <trkpt lat="22.3465659795" lon="114.1597698557"><ele>242.000</ele></trkpt>
      <trkpt lat="22.3465208338" lon="114.1597689950"><ele>241.000</ele></trkpt>
      <trkpt lat="22.3464756880" lon="114.1597681342"><ele>241.000</ele></trkpt>
      <trkpt lat="22.3464305423" lon="114.1597672735"><ele>240.000</ele></trkpt>
      <trkpt lat="22.3463853966" lon="114.1597664128"><ele>239.000</ele></trkpt>
      <trkpt lat="22.3463601743" lon="114.1597659319"><ele>239.000</ele></trkpt>
      <trkpt lat="22.3463161053" lon="114.1597553611"><ele>238.000</ele></trkpt>
      <trkpt lat="22.3462720362" lon="114.1597447904"><ele>238.000</ele></trkpt>
      <trkpt lat="22.3462279671" lon="114.1597342196"><ele>237.000</ele></trkpt>
      <trkpt lat="22.3461838980" lon="114.1597236489"><ele>236.000</ele></trkpt>
      <trkpt lat="22.3461809763" lon="114.1597229481"><ele>236.000</ele></trkpt>
      <trkpt lat="22.3461358767" lon="114.1597253042"><ele>235.000</ele></trkpt>
      <trkpt lat="22.3460907771" lon="114.1597276603"><ele>232.000</ele></trkpt>
      <trkpt lat="22.3460456775" lon="114.1597300164"><ele>232.000</ele></trkpt>
      <trkpt lat="22.3460005779" lon="114.1597323725"><ele>232.000</ele></trkpt>
      <trkpt lat="22.3459554783" lon="114.1597347287"><ele>233.000</ele></trkpt>
      <trkpt lat="22.3459349309" lon="114.1597358021"><ele>232.000</ele></trkpt>
      <trkpt lat="22.3458934571" lon="114.1597166110"><ele>232.000</ele></trkpt>
      <trkpt lat="22.3458720300" lon="114.1597066961"><ele>232.000</ele></trkpt>
      <trkpt lat="22.3458490395" lon="114.1596649202"><ele>231.000</ele></trkpt>
      <trkpt lat="22.3458300568" lon="114.1596304270"><ele>230.000</ele></trkpt>
      <trkpt lat="22.3458326199" lon="114.1595819663"><ele>230.000</ele></trkpt>
      <trkpt lat="22.3458351829" lon="114.1595335056"><ele>230.000</ele></trkpt>
      <trkpt lat="22.3458377459" lon="114.1594850449"><ele>230.000</ele></trkpt>
      <trkpt lat="22.3458387087" lon="114.1594668399"><ele>229.000</ele></trkpt>
      <trkpt lat="22.3458256277" lon="114.1594203824"><ele>229.000</ele></trkpt>
      <trkpt lat="22.3458167109" lon="114.1593887143"><ele>228.000</ele></trkpt>
      <trkpt lat="22.3457805754" lon="114.1593596099"><ele>225.000</ele></trkpt>
      <trkpt lat="22.3457625770" lon="114.1593451136"><ele>226.000</ele></trkpt>
      <trkpt lat="22.3457203224" lon="114.1593280038"><ele>226.000</ele></trkpt>
      <trkpt lat="22.3456780678" lon="114.1593108941"><ele>226.000</ele></trkpt>
      <trkpt lat="22.3456593983" lon="114.1593033344"><ele>225.000</ele></trkpt>
      <trkpt lat="22.3456167032" lon="114.1592875388"><ele>226.000</ele></trkpt>
      <trkpt lat="22.3455740081" lon="114.1592717432"><ele>226.000</ele></trkpt>
      <trkpt lat="22.3455313130" lon="114.1592559475"><ele>225.000</ele></trkpt>
      <trkpt lat="22.3454886179" lon="114.1592401519"><ele>223.000</ele></trkpt>
      <trkpt lat="22.3454459228" lon="114.1592243563"><ele>221.000</ele></trkpt>
      <trkpt lat="22.3454032277" lon="114.1592085607"><ele>220.000</ele></trkpt>
      <trkpt lat="22.3453605325" lon="114.1591927651"><ele>219.000</ele></trkpt>
      <trkpt lat="22.3453178374" lon="114.1591769696"><ele>219.000</ele></trkpt>
      <trkpt lat="22.3452751423" lon="114.1591611740"><ele>219.000</ele></trkpt>
      <trkpt lat="22.3452324472" lon="114.1591453784"><ele>218.000</ele></trkpt>
      <trkpt lat="22.3451897521" lon="114.1591295829"><ele>218.000</ele></trkpt>
      <trkpt lat="22.3451610626" lon="114.1591189689"><ele>217.000</ele></trkpt>
      <trkpt lat="22.3451167849" lon="114.1591094592"><ele>217.000</ele></trkpt>
      <trkpt lat="22.3450761823" lon="114.1591007388"><ele>216.000</ele></trkpt>
      <trkpt lat="22.3450312404" lon="114.1591054240"><ele>216.000</ele></trkpt>
      <trkpt lat="22.3449862984" lon="114.1591101093"><ele>215.000</ele></trkpt>
      <trkpt lat="22.3449539550" lon="114.1591134811"><ele>215.000</ele></trkpt>
      <trkpt lat="22.3449088187" lon="114.1591121673"><ele>215.000</ele></trkpt>
      <trkpt lat="22.3449058039" lon="114.1591120795"><ele>215.000</ele></trkpt>
      <trkpt lat="22.3448817067" lon="114.1590710311"><ele>214.000</ele></trkpt>
      <trkpt lat="22.3448771807" lon="114.1590633212"><ele>214.000</ele></trkpt>
      <trkpt lat="22.3448836932" lon="114.1590152901"><ele>214.000</ele></trkpt>
      <trkpt lat="22.3448902057" lon="114.1589672590"><ele>214.000</ele></trkpt>
      <trkpt lat="22.3448938647" lon="114.1589402736"><ele>213.000</ele></trkpt>
      <trkpt lat="22.3449101419" lon="114.1588949986"><ele>213.000</ele></trkpt>
      <trkpt lat="22.3449228619" lon="114.1588596180"><ele>209.000</ele></trkpt>
      <trkpt lat="22.3449498681" lon="114.1588207183"><ele>212.000</ele></trkpt>
      <trkpt lat="22.3449768743" lon="114.1587818186"><ele>212.000</ele></trkpt>
      <trkpt lat="22.3449863818" lon="114.1587681242"><ele>211.000</ele></trkpt>
      <trkpt lat="22.3450075730" lon="114.1587252632"><ele>212.000</ele></trkpt>
      <trkpt lat="22.3450093594" lon="114.1587216502"><ele>212.000</ele></trkpt>
      <trkpt lat="22.3450164550" lon="114.1586737146"><ele>214.000</ele></trkpt>
      <trkpt lat="22.3450188162" lon="114.1586577624"><ele>214.000</ele></trkpt>
      <trkpt lat="22.3450175708" lon="114.1586092421"><ele>214.000</ele></trkpt>
      <trkpt lat="22.3450163253" lon="114.1585607219"><ele>214.000</ele></trkpt>
      <trkpt lat="22.3450160951" lon="114.1585517542"><ele>213.000</ele></trkpt>
      <trkpt lat="22.3450122739" lon="114.1585033896"><ele>213.000</ele></trkpt>
      <trkpt lat="22.3450084527" lon="114.1584550251"><ele>213.000</ele></trkpt>
      <trkpt lat="22.3450046314" lon="114.1584066605"><ele>213.000</ele></trkpt>
      <trkpt lat="22.3450025570" lon="114.1583804046"><ele>213.000</ele></trkpt>
      <trkpt lat="22.3450075457" lon="114.1583321631"><ele>212.000</ele></trkpt>
      <trkpt lat="22.3450106665" lon="114.1583019844"><ele>212.000</ele></trkpt>
      <trkpt lat="22.3450306430" lon="114.1582584546"><ele>211.000</ele></trkpt>
      <trkpt lat="22.3450362979" lon="114.1582461324"><ele>211.000</ele></trkpt>
      <trkpt lat="22.3450606647" lon="114.1582052683"><ele>211.000</ele></trkpt>
      <trkpt lat="22.3450850316" lon="114.1581644041"><ele>212.000</ele></trkpt>
      <trkpt lat="22.3450917168" lon="114.1581531928"><ele>211.000</ele></trkpt>
      <trkpt lat="22.3451070386" lon="114.1581075341"><ele>211.000</ele></trkpt>
      <trkpt lat="22.3451214442" lon="114.1580646056"><ele>211.000</ele></trkpt>
      <trkpt lat="22.3451258073" lon="114.1580162940"><ele>211.000</ele></trkpt>
      <trkpt lat="22.3451301704" lon="114.1579679824"><ele>211.000</ele></trkpt>
      <trkpt lat="22.3451344856" lon="114.1579202011"><ele>211.000</ele></trkpt>
      <trkpt lat="22.3451293361" lon="114.1578719791"><ele>211.000</ele></trkpt>
      <trkpt lat="22.3451241865" lon="114.1578237570"><ele>212.000</ele></trkpt>
      <trkpt lat="22.3451190369" lon="114.1577755350"><ele>211.000</ele></trkpt>
      <trkpt lat="22.3451167753" lon="114.1577543564"><ele>211.000</ele></trkpt>
      <trkpt lat="22.3451420180" lon="114.1577141113"><ele>211.000</ele></trkpt>
      <trkpt lat="22.3451666237" lon="114.1576748819"><ele>210.000</ele></trkpt>
      <trkpt lat="22.3452094611" lon="114.1576595381"><ele>208.000</ele></trkpt>
      <trkpt lat="22.3452438137" lon="114.1576472334"><ele>206.000</ele></trkpt>
      <trkpt lat="22.3452889452" lon="114.1576457414"><ele>204.000</ele></trkpt>
      <trkpt lat="22.3453340766" lon="114.1576442495"><ele>204.000</ele></trkpt>
      <trkpt lat="22.3453561625" lon="114.1576435193"><ele>205.000</ele></trkpt>
      <trkpt lat="22.3454010208" lon="114.1576490538"><ele>206.000</ele></trkpt>
      <trkpt lat="22.3454458792" lon="114.1576545882"><ele>207.000</ele></trkpt>
      <trkpt lat="22.3454717012" lon="114.1576577740"><ele>207.000</ele></trkpt>
      <trkpt lat="22.3455166420" lon="114.1576624725"><ele>208.000</ele></trkpt>
      <trkpt lat="22.3455376342" lon="114.1576646672"><ele>209.000</ele></trkpt>
      <trkpt lat="22.3455790051" lon="114.1576452214"><ele>209.000</ele></trkpt>
      <trkpt lat="22.3455890965" lon="114.1576404781"><ele>209.000</ele></trkpt>
      <trkpt lat="22.3456239133" lon="114.1576095719"><ele>209.000</ele></trkpt>
      <trkpt lat="22.3456587301" lon="114.1575786658"><ele>209.000</ele></trkpt>
      <trkpt lat="22.3456630581" lon="114.1575748239"><ele>210.000</ele></trkpt>
      <trkpt lat="22.3456899911" lon="114.1575358654"><ele>208.000</ele></trkpt>
      <trkpt lat="22.3457169241" lon="114.1574969069"><ele>208.000</ele></trkpt>
      <trkpt lat="22.3457189747" lon="114.1574939406"><ele>208.000</ele></trkpt>
      <trkpt lat="22.3457297740" lon="114.1574468104"><ele>208.000</ele></trkpt>
      <trkpt lat="22.3457405732" lon="114.1573996801"><ele>208.000</ele></trkpt>
      <trkpt lat="22.3457513725" lon="114.1573525499"><ele>208.000</ele></trkpt>
      <trkpt lat="22.3457621717" lon="114.1573054197"><ele>207.000</ele></trkpt>
      <trkpt lat="22.3457720196" lon="114.1572624412"><ele>207.000</ele></trkpt>
      <trkpt lat="22.3457702892" lon="114.1572139379"><ele>206.000</ele></trkpt>
      <trkpt lat="22.3457685588" lon="114.1571654346"><ele>206.000</ele></trkpt>
      <trkpt lat="22.3457668284" lon="114.1571169313"><ele>205.000</ele></trkpt>
      <trkpt lat="22.3457650980" lon="114.1570684280"><ele>205.000</ele></trkpt>
      <trkpt lat="22.3457639458" lon="114.1570361343"><ele>205.000</ele></trkpt>
      <trkpt lat="22.3457475446" lon="114.1569909108"><ele>204.000</ele></trkpt>
      <trkpt lat="22.3457311433" lon="114.1569456872"><ele>205.000</ele></trkpt>
      <trkpt lat="22.3457254626" lon="114.1569300239"><ele>205.000</ele></trkpt>
      <trkpt lat="22.3456982014" lon="114.1568913301"><ele>205.000</ele></trkpt>
      <trkpt lat="22.3456709402" lon="114.1568526362"><ele>204.000</ele></trkpt>
      <trkpt lat="22.3456436790" lon="114.1568139424"><ele>204.000</ele></trkpt>
      <trkpt lat="22.3456164178" lon="114.1567752487"><ele>205.000</ele></trkpt>
      <trkpt lat="22.3455891566" lon="114.1567365549"><ele>205.000</ele></trkpt>
      <trkpt lat="22.3455889327" lon="114.1567362371"><ele>205.000</ele></trkpt>
      <trkpt lat="22.3455760146" lon="114.1566897271"><ele>205.000</ele></trkpt>
      <trkpt lat="22.3455630965" lon="114.1566432171"><ele>204.000</ele></trkpt>
      <trkpt lat="22.3455615849" lon="114.1566377751"><ele>204.000</ele></trkpt>
      <trkpt lat="22.3455726726" lon="114.1565907223"><ele>203.000</ele></trkpt>
      <trkpt lat="22.3455837603" lon="114.1565436696"><ele>203.000</ele></trkpt>
      <trkpt lat="22.3455948479" lon="114.1564966169"><ele>203.000</ele></trkpt>
      <trkpt lat="22.3455992946" lon="114.1564777466"><ele>203.000</ele></trkpt>
      <trkpt lat="22.3455957310" lon="114.1564293591"><ele>204.000</ele></trkpt>
      <trkpt lat="22.3455931976" lon="114.1563949595"><ele>206.000</ele></trkpt>
      <trkpt lat="22.3455776668" lon="114.1563493822"><ele>206.000</ele></trkpt>
      <trkpt lat="22.3455627623" lon="114.1563056426"><ele>206.000</ele></trkpt>
      <trkpt lat="22.3455419132" lon="114.1562625880"><ele>204.000</ele></trkpt>
      <trkpt lat="22.3455210641" lon="114.1562195335"><ele>202.000</ele></trkpt>
      <trkpt lat="22.3455120424" lon="114.1562009032"><ele>202.000</ele></trkpt>
      <trkpt lat="22.3454943664" lon="114.1561562381"><ele>203.000</ele></trkpt>
      <trkpt lat="22.3454846980" lon="114.1561318073"><ele>203.000</ele></trkpt>
      <trkpt lat="22.3454903943" lon="114.1560836562"><ele>202.000</ele></trkpt>
      <trkpt lat="22.3454959380" lon="114.1560367956"><ele>202.000</ele></trkpt>
      <trkpt lat="22.3455150650" lon="114.1559928269"><ele>201.000</ele></trkpt>
      <trkpt lat="22.3455341920" lon="114.1559488581"><ele>201.000</ele></trkpt>
      <trkpt lat="22.3455533190" lon="114.1559048893"><ele>203.000</ele></trkpt>
      <trkpt lat="22.3455647395" lon="114.1558786360"><ele>202.000</ele></trkpt>
      <trkpt lat="22.3455978064" lon="114.1558455836"><ele>202.000</ele></trkpt>
      <trkpt lat="22.3456278189" lon="114.1558155842"><ele>200.000</ele></trkpt>
      <trkpt lat="22.3456646046" lon="114.1557874370"><ele>199.000</ele></trkpt>
      <trkpt lat="22.3456759380" lon="114.1557787651"><ele>199.000</ele></trkpt>
      <trkpt lat="22.3457200476" lon="114.1557683917"><ele>199.000</ele></trkpt>
      <trkpt lat="22.3457408296" lon="114.1557635044"><ele>200.000</ele></trkpt>
      <trkpt lat="22.3457856742" lon="114.1557691668"><ele>201.000</ele></trkpt>
      <trkpt lat="22.3458305187" lon="114.1557748292"><ele>202.000</ele></trkpt>
      <trkpt lat="22.3458442674" lon="114.1557765653"><ele>202.000</ele></trkpt>
      <trkpt lat="22.3458892973" lon="114.1557801441"><ele>202.000</ele></trkpt>
      <trkpt lat="22.3459343272" lon="114.1557837230"><ele>202.000</ele></trkpt>
      <trkpt lat="22.3459793572" lon="114.1557873019"><ele>201.000</ele></trkpt>
      <trkpt lat="22.3460076320" lon="114.1557895492"><ele>201.000</ele></trkpt>
      <trkpt lat="22.3460472023" lon="114.1557661703"><ele>199.000</ele></trkpt>
      <trkpt lat="22.3460481942" lon="114.1557655842"><ele>200.000</ele></trkpt>
      <trkpt lat="22.3460704951" lon="114.1557307201"><ele>197.000</ele></trkpt>
      <trkpt lat="22.3460743490" lon="114.1556823582"><ele>197.000</ele></trkpt>
      <trkpt lat="22.3460765718" lon="114.1556544643"><ele>197.000</ele></trkpt>
      <trkpt lat="22.3460670797" lon="114.1556070099"><ele>197.000</ele></trkpt>
      <trkpt lat="22.3460575876" lon="114.1555595555"><ele>196.000</ele></trkpt>
      <trkpt lat="22.3460482785" lon="114.1555130160"><ele>196.000</ele></trkpt>
      <trkpt lat="22.3460283850" lon="114.1554694419"><ele>195.000</ele></trkpt>
      <trkpt lat="22.3460084915" lon="114.1554258678"><ele>195.000</ele></trkpt>
      <trkpt lat="22.3459975573" lon="114.1554019179"><ele>194.000</ele></trkpt>
      <trkpt lat="22.3459936907" lon="114.1553535571"><ele>195.000</ele></trkpt>
      <trkpt lat="22.3459914606" lon="114.1553256640"><ele>194.000</ele></trkpt>
      <trkpt lat="22.3460028650" lon="114.1552786987"><ele>194.000</ele></trkpt>
      <trkpt lat="22.3460036271" lon="114.1552755601"><ele>194.000</ele></trkpt>
      <trkpt lat="22.3460290676" lon="114.1552354589"><ele>194.000</ele></trkpt>
      <trkpt lat="22.3460340357" lon="114.1552276280"><ele>194.000</ele></trkpt>
      <trkpt lat="22.3460588707" lon="114.1551870906"><ele>194.000</ele></trkpt>
      <trkpt lat="22.3460751067" lon="114.1551605892"><ele>194.000</ele></trkpt>
      <trkpt lat="22.3460751002" lon="114.1551120501"><ele>194.000</ele></trkpt>
      <trkpt lat="22.3460750937" lon="114.1550635110"><ele>194.000</ele></trkpt>
      <trkpt lat="22.3460750922" lon="114.1550520170"><ele>194.000</ele></trkpt>
      <trkpt lat="22.3460508305" lon="114.1550110803"><ele>193.000</ele></trkpt>
      <trkpt lat="22.3460413915" lon="114.1549951539"><ele>192.000</ele></trkpt>
      <trkpt lat="22.3460193532" lon="114.1549527891"><ele>192.000</ele></trkpt>
      <trkpt lat="22.3459973150" lon="114.1549104243"><ele>192.000</ele></trkpt>
      <trkpt lat="22.3459768423" lon="114.1548710690"><ele>192.000</ele></trkpt>
      <trkpt lat="22.3459765751" lon="114.1548225308"><ele>193.000</ele></trkpt>
      <trkpt lat="22.3459763079" lon="114.1547739926"><ele>192.000</ele></trkpt>
      <trkpt lat="22.3459761664" lon="114.1547482945"><ele>192.000</ele></trkpt>
      <trkpt lat="22.3459879160" lon="114.1547014276"><ele>192.000</ele></trkpt>
      <trkpt lat="22.3459996657" lon="114.1546545608"><ele>192.000</ele></trkpt>
      <trkpt lat="22.3460076388" lon="114.1546227578"><ele>192.000</ele></trkpt>
      <trkpt lat="22.3460302131" lon="114.1545807205"><ele>193.000</ele></trkpt>
      <trkpt lat="22.3460380550" lon="114.1545661176"><ele>193.000</ele></trkpt>
      <trkpt lat="22.3460660855" lon="114.1545280642"><ele>192.000</ele></trkpt>
      <trkpt lat="22.3460765812" lon="114.1545138155"><ele>192.000</ele></trkpt>
      <trkpt lat="22.3460959158" lon="114.1544699516"><ele>191.000</ele></trkpt>
      <trkpt lat="22.3461130713" lon="114.1544310312"><ele>191.000</ele></trkpt>
      <trkpt lat="22.3461218446" lon="114.1543834171"><ele>192.000</ele></trkpt>
      <trkpt lat="22.3461270311" lon="114.1543552691"><ele>192.000</ele></trkpt>
      <trkpt lat="22.3461352098" lon="114.1543075329"><ele>192.000</ele></trkpt>
      <trkpt lat="22.3461433884" lon="114.1542597967"><ele>192.000</ele></trkpt>
      <trkpt lat="22.3461515671" lon="114.1542120605"><ele>191.000</ele></trkpt>
      <trkpt lat="22.3461554001" lon="114.1541896880"><ele>191.000</ele></trkpt>
      <trkpt lat="22.3461829370" lon="114.1541512203"><ele>191.000</ele></trkpt>
      <trkpt lat="22.3462104738" lon="114.1541127525"><ele>191.000</ele></trkpt>
      <trkpt lat="22.3462162272" lon="114.1541047153"><ele>191.000</ele></trkpt>
      <trkpt lat="22.3462510620" lon="114.1540738325"><ele>191.000</ele></trkpt>
      <trkpt lat="22.3462858968" lon="114.1540429497"><ele>190.000</ele></trkpt>
      <trkpt lat="22.3462973386" lon="114.1540328060"><ele>190.000</ele></trkpt>
      <trkpt lat="22.3463206845" lon="114.1539912584"><ele>190.000</ele></trkpt>
      <trkpt lat="22.3463440303" lon="114.1539497107"><ele>190.000</ele></trkpt>
      <trkpt lat="22.3463622250" lon="114.1539173304"><ele>190.000</ele></trkpt>
      <trkpt lat="22.3463728264" lon="114.1538701481"><ele>189.000</ele></trkpt>
      <trkpt lat="22.3463834278" lon="114.1538229658"><ele>189.000</ele></trkpt>
      <trkpt lat="22.3463940292" lon="114.1537757835"><ele>189.000</ele></trkpt>
      <trkpt lat="22.3463998857" lon="114.1537497185"><ele>189.000</ele></trkpt>
      <trkpt lat="22.3464405969" lon="114.1537287250"><ele>191.000</ele></trkpt>
      <trkpt lat="22.3464813081" lon="114.1537077315"><ele>192.000</ele></trkpt>
      <trkpt lat="22.3465220193" lon="114.1536867380"><ele>192.000</ele></trkpt>
      <trkpt lat="22.3465571685" lon="114.1536686126"><ele>193.000</ele></trkpt>
      <trkpt lat="22.3466015967" lon="114.1536599517"><ele>194.000</ele></trkpt>
      <trkpt lat="22.3466460249" lon="114.1536512908"><ele>194.000</ele></trkpt>
      <trkpt lat="22.3466631302" lon="114.1536479562"><ele>194.000</ele></trkpt>
      <trkpt lat="22.3467069379" lon="114.1536597156"><ele>194.000</ele></trkpt>
      <trkpt lat="22.3467483188" lon="114.1536708236"><ele>193.000</ele></trkpt>
      <trkpt lat="22.3467928995" lon="114.1536785255"><ele>193.000</ele></trkpt>
      <trkpt lat="22.3468374803" lon="114.1536862274"><ele>192.000</ele></trkpt>
      <trkpt lat="22.3468820611" lon="114.1536939293"><ele>192.000</ele></trkpt>
      <trkpt lat="22.3468970287" lon="114.1536965151"><ele>191.000</ele></trkpt>
      <trkpt lat="22.3469416993" lon="114.1537035901"><ele>191.000</ele></trkpt>
      <trkpt lat="22.3469863699" lon="114.1537106652"><ele>190.000</ele></trkpt>
      <trkpt lat="22.3470310405" lon="114.1537177402"><ele>188.000</ele></trkpt>
      <trkpt lat="22.3470757111" lon="114.1537248152"><ele>187.000</ele></trkpt>
      <trkpt lat="22.3471203817" lon="114.1537318902"><ele>186.000</ele></trkpt>
      <trkpt lat="22.3471650523" lon="114.1537389652"><ele>185.000</ele></trkpt>
      <trkpt lat="22.3472097229" lon="114.1537460403"><ele>184.000</ele></trkpt>
      <trkpt lat="22.3472543935" lon="114.1537531153"><ele>184.000</ele></trkpt>
      <trkpt lat="22.3472990641" lon="114.1537601903"><ele>184.000</ele></trkpt>
      <trkpt lat="22.3473437347" lon="114.1537672654"><ele>183.000</ele></trkpt>
      <trkpt lat="22.3473884052" lon="114.1537743404"><ele>182.000</ele></trkpt>
      <trkpt lat="22.3473953826" lon="114.1537754455"><ele>182.000</ele></trkpt>
      <trkpt lat="22.3474355927" lon="114.1537975269"><ele>182.000</ele></trkpt>
      <trkpt lat="22.3474498501" lon="114.1538053563"><ele>182.000</ele></trkpt>
      <trkpt lat="22.3474949130" lon="114.1538084184"><ele>183.000</ele></trkpt>
      <trkpt lat="22.3474950305" lon="114.1538084263"><ele>183.000</ele></trkpt>
      <trkpt lat="22.3475392421" lon="114.1537985671"><ele>183.000</ele></trkpt>
      <trkpt lat="22.3475834537" lon="114.1537887079"><ele>184.000</ele></trkpt>
      <trkpt lat="22.3476066447" lon="114.1537835363"><ele>184.000</ele></trkpt>
      <trkpt lat="22.3476505619" lon="114.1537948138"><ele>185.000</ele></trkpt>
      <trkpt lat="22.3476904424" lon="114.1538050547"><ele>185.000</ele></trkpt>
      <trkpt lat="22.3477213046" lon="114.1538404859"><ele>185.000</ele></trkpt>
      <trkpt lat="22.3477521669" lon="114.1538759172"><ele>185.000</ele></trkpt>
      <trkpt lat="22.3477804104" lon="114.1539083420"><ele>184.000</ele></trkpt>
      <trkpt lat="22.3477968564" lon="114.1539535475"><ele>183.000</ele></trkpt>
      <trkpt lat="22.3478133023" lon="114.1539987529"><ele>181.000</ele></trkpt>
      <trkpt lat="22.3478194735" lon="114.1540157158"><ele>181.000</ele></trkpt>
    </trkseg>
  </trk>
</gpx>
