<?xml version="1.0" encoding="UTF-8"?>
<gpx xmlns:xsi="http://www.w3.org/2001/XMLSchema-instance"
     xsi:schemaLocation="http://www.topografix.com/GPX/1/1 http://www.topografix.com/GPX/1/1/gpx.xsd"
     version="1.1" creator="json3d_batch_to_gpx"
     xmlns="http://www.topografix.com/GPX/1/1">
  <metadata>
    <name>TaiTongNatureTrail</name>
  </metadata>
  <trk>
    <name>TaiTongNatureTrail</name>
    <type>hike</type>
    <trkseg>
      <trkpt lat="22.4096047255" lon="114.0327801348"><ele>114.000</ele></trkpt>
      <trkpt lat="22.4095962608" lon="114.0328029546"><ele>114.000</ele></trkpt>
      <trkpt lat="22.4095772170" lon="114.0328451562"><ele>114.000</ele></trkpt>
      <trkpt lat="22.4095576434" lon="114.0328816612"><ele>114.000</ele></trkpt>
      <trkpt lat="22.4095317024" lon="114.0329170336"><ele>114.000</ele></trkpt>
      <trkpt lat="22.4095073366" lon="114.0329427134"><ele>112.000</ele></trkpt>
      <trkpt lat="22.4095067367" lon="114.0329444282"><ele>112.000</ele></trkpt>
      <trkpt lat="22.4094919950" lon="114.0329723766"><ele>114.000</ele></trkpt>
      <trkpt lat="22.4094702960" lon="114.0330123025"><ele>114.000</ele></trkpt>
      <trkpt lat="22.4094538907" lon="114.0330482399"><ele>114.000</ele></trkpt>
      <trkpt lat="22.4094454324" lon="114.0330681955"><ele>116.000</ele></trkpt>
      <trkpt lat="22.4094311344" lon="114.0330904463"><ele>115.000</ele></trkpt>
      <trkpt lat="22.4094152698" lon="114.0331332195"><ele>114.000</ele></trkpt>
      <trkpt lat="22.4094036885" lon="114.0332158928"><ele>113.000</ele></trkpt>
      <trkpt lat="22.4093989721" lon="114.0332791764"><ele>113.000</ele></trkpt>
      <trkpt lat="22.4093991466" lon="114.0332925519"><ele>113.000</ele></trkpt>
      <trkpt lat="22.4093955243" lon="114.0333086526"><ele>113.000</ele></trkpt>
      <trkpt lat="22.4093921372" lon="114.0333424622"><ele>109.000</ele></trkpt>
      <trkpt lat="22.4093873875" lon="114.0333692611"><ele>109.000</ele></trkpt>
      <trkpt lat="22.4093754438" lon="114.0333977708"><ele>107.000</ele></trkpt>
      <trkpt lat="22.4093725764" lon="114.0334046218"><ele>107.000</ele></trkpt>
      <trkpt lat="22.4093148547" lon="114.0334679598"><ele>106.000</ele></trkpt>
      <trkpt lat="22.4093005579" lon="114.0334805187"><ele>109.000</ele></trkpt>
      <trkpt lat="22.4092613657" lon="114.0335141903"><ele>116.000</ele></trkpt>
      <trkpt lat="22.4092280014" lon="114.0335535637"><ele>110.000</ele></trkpt>
      <trkpt lat="22.4091681324" lon="114.0335844117"><ele>111.000</ele></trkpt>
      <trkpt lat="22.4090918088" lon="114.0335958852"><ele>113.000</ele></trkpt>
      <trkpt lat="22.4090653203" lon="114.0336067433"><ele>115.000</ele></trkpt>
      <trkpt lat="22.4090398816" lon="114.0336170352"><ele>112.000</ele></trkpt>
      <trkpt lat="22.4089418208" lon="114.0336142813"><ele>117.000</ele></trkpt>
      <trkpt lat="22.4089020849" lon="114.0336376972"><ele>116.000</ele></trkpt>
      <trkpt lat="22.4088724046" lon="114.0336440007"><ele>116.000</ele></trkpt>
      <trkpt lat="22.4088173218" lon="114.0336902326"><ele>115.000</ele></trkpt>
      <trkpt lat="22.4088210664" lon="114.0337255741"><ele>114.000</ele></trkpt>
      <trkpt lat="22.4089308296" lon="114.0337710729"><ele>110.000</ele></trkpt>
      <trkpt lat="22.4090465401" lon="114.0338816711"><ele>104.000</ele></trkpt>
      <trkpt lat="22.4091077316" lon="114.0339103837"><ele>103.000</ele></trkpt>
      <trkpt lat="22.4091746366" lon="114.0339123685"><ele>102.000</ele></trkpt>
      <trkpt lat="22.4093026875" lon="114.0338916856"><ele>101.000</ele></trkpt>
      <trkpt lat="22.4094071749" lon="114.0338644457"><ele>100.000</ele></trkpt>
      <trkpt lat="22.4094257869" lon="114.0338625484"><ele>100.000</ele></trkpt>
      <trkpt lat="22.4094596548" lon="114.0338646076"><ele>100.000</ele></trkpt>
      <trkpt lat="22.4094809568" lon="114.0338718438"><ele>100.000</ele></trkpt>
      <trkpt lat="22.4095315824" lon="114.0339329361"><ele>100.000</ele></trkpt>
      <trkpt lat="22.4095695879" lon="114.0340257623"><ele>100.000</ele></trkpt>
      <trkpt lat="22.4095971108" lon="114.0341706781"><ele>100.000</ele></trkpt>
      <trkpt lat="22.4095929556" lon="114.0342318362"><ele>100.000</ele></trkpt>
      <trkpt lat="22.4095803515" lon="114.0342816697"><ele>100.000</ele></trkpt>
      <trkpt lat="22.4095465480" lon="114.0343751957"><ele>98.000</ele></trkpt>
      <trkpt lat="22.4095341074" lon="114.0344035729"><ele>98.000</ele></trkpt>
      <trkpt lat="22.4094793726" lon="114.0344557181"><ele>96.000</ele></trkpt>
      <trkpt lat="22.4094646549" lon="114.0344897131"><ele>98.000</ele></trkpt>
      <trkpt lat="22.4094646968" lon="114.0345372746"><ele>98.000</ele></trkpt>
      <trkpt lat="22.4094752633" lon="114.0345802986"><ele>98.000</ele></trkpt>
      <trkpt lat="22.4095012671" lon="114.0346044992"><ele>98.000</ele></trkpt>
      <trkpt lat="22.4096230986" lon="114.0347077732"><ele>96.000</ele></trkpt>
      <trkpt lat="22.4097387842" lon="114.0347362978"><ele>95.000</ele></trkpt>
      <trkpt lat="22.4098505076" lon="114.0347642302"><ele>94.000</ele></trkpt>
      <trkpt lat="22.4098947528" lon="114.0347995620"><ele>92.000</ele></trkpt>
      <trkpt lat="22.4099264124" lon="114.0348516087"><ele>92.000</ele></trkpt>
      <trkpt lat="22.4099538479" lon="114.0349082079"><ele>92.000</ele></trkpt>
      <trkpt lat="22.4100066115" lon="114.0350146013"><ele>90.000</ele></trkpt>
      <trkpt lat="22.4100382859" lon="114.0350825091"><ele>88.000</ele></trkpt>
      <trkpt lat="22.4100467446" lon="114.0351173947"><ele>88.000</ele></trkpt>
      <trkpt lat="22.4100341521" lon="114.0351694864"><ele>88.000</ele></trkpt>
      <trkpt lat="22.4100173327" lon="114.0352125383"><ele>88.000</ele></trkpt>
      <trkpt lat="22.4099984057" lon="114.0352465377"><ele>88.000</ele></trkpt>
      <trkpt lat="22.4099689529" lon="114.0353054527"><ele>88.000</ele></trkpt>
      <trkpt lat="22.4099626779" lon="114.0353552799"><ele>88.000</ele></trkpt>
      <trkpt lat="22.4099690362" lon="114.0354005664"><ele>88.000</ele></trkpt>
      <trkpt lat="22.4100028111" lon="114.0354594175"><ele>88.000</ele></trkpt>
      <trkpt lat="22.4100196841" lon="114.0354888537"><ele>88.000</ele></trkpt>
      <trkpt lat="22.4100470817" lon="114.0355024076"><ele>86.000</ele></trkpt>
      <trkpt lat="22.4100892480" lon="114.0355182260"><ele>86.000</ele></trkpt>
      <trkpt lat="22.4102009238" lon="114.0355249087"><ele>83.000</ele></trkpt>
      <trkpt lat="22.4102714913" lon="114.0355453282"><ele>82.000</ele></trkpt>
      <trkpt lat="22.4103972597" lon="114.0356218881"><ele>80.000</ele></trkpt>
      <trkpt lat="22.4104707585" lon="114.0356763773"><ele>80.000</ele></trkpt>
      <trkpt lat="22.4105138967" lon="114.0357235984"><ele>80.000</ele></trkpt>
      <trkpt lat="22.4105340630" lon="114.0357850295"><ele>78.000</ele></trkpt>
      <trkpt lat="22.4105299563" lon="114.0358372157"><ele>78.000</ele></trkpt>
      <trkpt lat="22.4104825225" lon="114.0359870033"><ele>78.000</ele></trkpt>
      <trkpt lat="22.4104656466" lon="114.0361075320"><ele>78.000</ele></trkpt>
      <trkpt lat="22.4104895001" lon="114.0361951485"><ele>76.000</ele></trkpt>
      <trkpt lat="22.4105587348" lon="114.0362426719"><ele>73.000</ele></trkpt>
      <trkpt lat="22.4106322400" lon="114.0362497840"><ele>72.000</ele></trkpt>
      <trkpt lat="22.4107137443" lon="114.0362131858"><ele>73.000</ele></trkpt>
      <trkpt lat="22.4107713951" lon="114.0360889611"><ele>72.000</ele></trkpt>
      <trkpt lat="22.4108303303" lon="114.0361248935"><ele>69.000</ele></trkpt>
      <trkpt lat="22.4109166424" lon="114.0362955224"><ele>60.000</ele></trkpt>
      <trkpt lat="22.4109282418" lon="114.0363184532"><ele>60.000</ele></trkpt>
      <trkpt lat="22.4109836425" lon="114.0363616687"><ele>60.000</ele></trkpt>
      <trkpt lat="22.4109669076" lon="114.0364139697"><ele>60.000</ele></trkpt>
      <trkpt lat="22.4108847428" lon="114.0364699611"><ele>60.000</ele></trkpt>
      <trkpt lat="22.4108059399" lon="114.0365403523"><ele>58.000</ele></trkpt>
      <trkpt lat="22.4108026024" lon="114.0365655998"><ele>58.000</ele></trkpt>
      <trkpt lat="22.4109352030" lon="114.0366069508"><ele>55.000</ele></trkpt>
      <trkpt lat="22.4110053939" lon="114.0366670500"><ele>52.000</ele></trkpt>
      <trkpt lat="22.4111535686" lon="114.0367472843"><ele>46.000</ele></trkpt>
      <trkpt lat="22.4112595623" lon="114.0367393247"><ele>40.000</ele></trkpt>
      <trkpt lat="22.4113120231" lon="114.0368165443"><ele>38.000</ele></trkpt>
      <trkpt lat="22.4114240812" lon="114.0369331256"><ele>32.000</ele></trkpt>
      <trkpt lat="22.4113929240" lon="114.0370194634"><ele>30.000</ele></trkpt>
      <trkpt lat="22.4113908243" lon="114.0370422973"><ele>33.000</ele></trkpt>
      <trkpt lat="22.4113855258" lon="114.0370628548"><ele>32.000</ele></trkpt>
      <trkpt lat="22.4113728107" lon="114.0370845697"><ele>32.000</ele></trkpt>
      <trkpt lat="22.4113526370" lon="114.0371017137"><ele>32.000</ele></trkpt>
      <trkpt lat="22.4113207926" lon="114.0371222988"><ele>32.000</ele></trkpt>
      <trkpt lat="22.4112772536" lon="114.0371405947"><ele>33.000</ele></trkpt>
      <trkpt lat="22.4112273621" lon="114.0371543496"><ele>34.000</ele></trkpt>
      <trkpt lat="22.4111901877" lon="114.0371589554"><ele>32.000</ele></trkpt>
      <trkpt lat="22.4111243289" lon="114.0371521741"><ele>34.000</ele></trkpt>
      <trkpt lat="22.4111126482" lon="114.0371556142"><ele>34.000</ele></trkpt>
      <trkpt lat="22.4110213371" lon="114.0371990796"><ele>34.000</ele></trkpt>
      <trkpt lat="22.4110064827" lon="114.0372082308"><ele>32.000</ele></trkpt>
      <trkpt lat="22.4109969352" lon="114.0372159918"><ele>32.000</ele></trkpt>
      <trkpt lat="22.4109863365" lon="114.0372342751"><ele>32.000</ele></trkpt>
      <trkpt lat="22.4109768080" lon="114.0372651037"><ele>34.000</ele></trkpt>
      <trkpt lat="22.4109704454" lon="114.0372811042"><ele>34.000</ele></trkpt>
      <trkpt lat="22.4109566540" lon="114.0373050889"><ele>34.000</ele></trkpt>
      <trkpt lat="22.4109279932" lon="114.0373313786"><ele>35.000</ele></trkpt>
      <trkpt lat="22.4108388481" lon="114.0374068097"><ele>36.000</ele></trkpt>
      <trkpt lat="22.4107942834" lon="114.0374536664"><ele>36.000</ele></trkpt>
      <trkpt lat="22.4107698834" lon="114.0374845098"><ele>36.000</ele></trkpt>
      <trkpt lat="22.4107518351" lon="114.0375085084"><ele>39.000</ele></trkpt>
      <trkpt lat="22.4107423105" lon="114.0375324897"><ele>39.000</ele></trkpt>
      <trkpt lat="22.4107274617" lon="114.0375701901"><ele>38.000</ele></trkpt>
      <trkpt lat="22.4106945894" lon="114.0376167893"><ele>40.000</ele></trkpt>
      <trkpt lat="22.4106500195" lon="114.0376682049"><ele>42.000</ele></trkpt>
      <trkpt lat="22.4105905903" lon="114.0377242038"><ele>42.000</ele></trkpt>
      <trkpt lat="22.4105608712" lon="114.0377516434"><ele>43.000</ele></trkpt>
      <trkpt lat="22.4105428299" lon="114.0377619272"><ele>43.000</ele></trkpt>
      <trkpt lat="22.4105226572" lon="114.0377688051"><ele>45.000</ele></trkpt>
      <trkpt lat="22.4104982317" lon="114.0377699687"><ele>45.000</ele></trkpt>
      <trkpt lat="22.4104760320" lon="114.0377625890"><ele>46.000</ele></trkpt>
      <trkpt lat="22.4104557214" lon="114.0377528873"><ele>46.000</ele></trkpt>
      <trkpt lat="22.4104365834" lon="114.0377312140"><ele>46.000</ele></trkpt>
      <trkpt lat="22.4104025595" lon="114.0376821563"><ele>49.000</ele></trkpt>
      <trkpt lat="22.4103874880" lon="114.0376709818"><ele>48.000</ele></trkpt>
      <trkpt lat="22.4103696203" lon="114.0376616370"><ele>48.000</ele></trkpt>
      <trkpt lat="22.4103282001" lon="114.0376582489"><ele>47.000</ele></trkpt>
      <trkpt lat="22.4102952736" lon="114.0376639896"><ele>47.000</ele></trkpt>
      <trkpt lat="22.4102729734" lon="114.0376720098"><ele>47.000</ele></trkpt>
      <trkpt lat="22.4102453709" lon="114.0376857422"><ele>48.000</ele></trkpt>
      <trkpt lat="22.4102305214" lon="114.0377005905"><ele>46.000</ele></trkpt>
      <trkpt lat="22.4102167389" lon="114.0377234358"><ele>47.000</ele></trkpt>
      <trkpt lat="22.4102071934" lon="114.0377451376"><ele>46.000</ele></trkpt>
      <trkpt lat="22.4101944643" lon="114.0377622739"><ele>46.000</ele></trkpt>
      <trkpt lat="22.4101785445" lon="114.0377748448"><ele>46.000</ele></trkpt>
      <trkpt lat="22.4101562462" lon="114.0377851435"><ele>48.000</ele></trkpt>
      <trkpt lat="22.4101328839" lon="114.0377908746"><ele>48.000</ele></trkpt>
      <trkpt lat="22.4101010227" lon="114.0377920563"><ele>48.000</ele></trkpt>
      <trkpt lat="22.4100797710" lon="114.0377875088"><ele>48.000</ele></trkpt>
      <trkpt lat="22.4100659530" lon="114.0377806647"><ele>48.000</ele></trkpt>
      <trkpt lat="22.4100308866" lon="114.0377510210"><ele>48.000</ele></trkpt>
      <trkpt lat="22.4100202680" lon="114.0377462269"><ele>48.000</ele></trkpt>
      <trkpt lat="22.4100053947" lon="114.0377439632"><ele>48.000</ele></trkpt>
      <trkpt lat="22.4099788416" lon="114.0377462681"><ele>48.000</ele></trkpt>
      <trkpt lat="22.4099618587" lon="114.0377554223"><ele>48.000</ele></trkpt>
      <trkpt lat="22.4099427600" lon="114.0377794121"><ele>49.000</ele></trkpt>
      <trkpt lat="22.4099074002" lon="114.0378412685"><ele>48.000</ele></trkpt>
      <trkpt lat="22.4098696012" lon="114.0379187727"><ele>48.000</ele></trkpt>
      <trkpt lat="22.4098611475" lon="114.0379678725"><ele>48.000</ele></trkpt>
      <trkpt lat="22.4098622575" lon="114.0380375051"><ele>48.000</ele></trkpt>
      <trkpt lat="22.4098601577" lon="114.0380603386"><ele>48.000</ele></trkpt>
      <trkpt lat="22.4098336646" lon="114.0381208827"><ele>48.000</ele></trkpt>
      <trkpt lat="22.4098081973" lon="114.0381540150"><ele>48.000</ele></trkpt>
      <trkpt lat="22.4097774432" lon="114.0382099850"><ele>48.000</ele></trkpt>
      <trkpt lat="22.4097562769" lon="114.0382944944"><ele>48.000</ele></trkpt>
      <trkpt lat="22.4097467711" lon="114.0383520235"><ele>48.000</ele></trkpt>
      <trkpt lat="22.4097426179" lon="114.0384616367"><ele>48.000</ele></trkpt>
      <trkpt lat="22.4097341475" lon="114.0384913237"><ele>47.000</ele></trkpt>
      <trkpt lat="22.4097150506" lon="114.0385176024"><ele>48.000</ele></trkpt>
      <trkpt lat="22.4096874549" lon="114.0385393220"><ele>48.000</ele></trkpt>
      <trkpt lat="22.4096694154" lon="114.0385633105"><ele>50.000</ele></trkpt>
      <trkpt lat="22.4096291100" lon="114.0386238574"><ele>52.000</ele></trkpt>
      <trkpt lat="22.4095951603" lon="114.0386718431"><ele>52.000</ele></trkpt>
      <trkpt lat="22.4094848077" lon="114.0387952455"><ele>52.000</ele></trkpt>
      <trkpt lat="22.4094646408" lon="114.0388089703"><ele>52.000</ele></trkpt>
      <trkpt lat="22.4094327794" lon="114.0388215674"><ele>51.000</ele></trkpt>
      <trkpt lat="22.4094115494" lon="114.0388318542"><ele>51.000</ele></trkpt>
      <trkpt lat="22.4093913865" lon="114.0388501476"><ele>52.000</ele></trkpt>
      <trkpt lat="22.4093551512" lon="114.0388930122"><ele>52.000</ele></trkpt>
      <trkpt lat="22.4093112693" lon="114.0390134846"><ele>52.000</ele></trkpt>
      <trkpt lat="22.4092968353" lon="114.0390456316"><ele>52.000</ele></trkpt>
      <trkpt lat="22.4092495696" lon="114.0391715888"><ele>52.000</ele></trkpt>
      <trkpt lat="22.4092375354" lon="114.0391967105"><ele>52.000</ele></trkpt>
      <trkpt lat="22.4091974233" lon="114.0392279999"><ele>52.000</ele></trkpt>
      <trkpt lat="22.4091503620" lon="114.0392354790"><ele>52.000</ele></trkpt>
      <trkpt lat="22.4091032905" lon="114.0392310597"><ele>52.000</ele></trkpt>
      <trkpt lat="22.4090631477" lon="114.0392251553"><ele>51.000</ele></trkpt>
      <trkpt lat="22.4090160850" lon="114.0392311455"><ele>50.000</ele></trkpt>
      <trkpt lat="22.4089704247" lon="114.0392475642"><ele>50.000</ele></trkpt>
      <trkpt lat="22.4089169501" lon="114.0392796874"><ele>52.000</ele></trkpt>
      <trkpt lat="22.4088804950" lon="114.0393116296"><ele>52.000</ele></trkpt>
      <trkpt lat="22.4088104901" lon="114.0393448053"><ele>54.000</ele></trkpt>
      <trkpt lat="22.4087097203" lon="114.0393336228"><ele>56.000</ele></trkpt>
      <trkpt lat="22.4086425092" lon="114.0392975841"><ele>56.000</ele></trkpt>
      <trkpt lat="22.4085258597" lon="114.0393578869"><ele>56.000</ele></trkpt>
      <trkpt lat="22.4085035823" lon="114.0393705054"><ele>58.000</ele></trkpt>
      <trkpt lat="22.4084389792" lon="114.0394151224"><ele>57.000</ele></trkpt>
      <trkpt lat="22.4083678002" lon="114.0395608741"><ele>58.000</ele></trkpt>
      <trkpt lat="22.4082936206" lon="114.0396027188"><ele>59.000</ele></trkpt>
      <trkpt lat="22.4082278524" lon="114.0396802180"><ele>62.000</ele></trkpt>
      <trkpt lat="22.4082209163" lon="114.0397177057"><ele>62.000</ele></trkpt>
      <trkpt lat="22.4082200928" lon="114.0397710474"><ele>62.000</ele></trkpt>
      <trkpt lat="22.4082227966" lon="114.0398532227"><ele>62.000</ele></trkpt>
      <trkpt lat="22.4082122734" lon="114.0398702331"><ele>62.000</ele></trkpt>
      <trkpt lat="22.4081780060" lon="114.0398816104"><ele>62.000</ele></trkpt>
      <trkpt lat="22.4080303780" lon="114.0399044222"><ele>64.000</ele></trkpt>
      <trkpt lat="22.4079083379" lon="114.0400476104"><ele>66.000</ele></trkpt>
      <trkpt lat="22.4079000144" lon="114.0400573763"><ele>66.000</ele></trkpt>
      <trkpt lat="22.4078518068" lon="114.0401318909"><ele>64.000</ele></trkpt>
      <trkpt lat="22.4078134778" lon="114.0401724579"><ele>64.000</ele></trkpt>
      <trkpt lat="22.4077605752" lon="114.0401806396"><ele>65.000</ele></trkpt>
      <trkpt lat="22.4076259396" lon="114.0401473365"><ele>68.000</ele></trkpt>
      <trkpt lat="22.4075265488" lon="114.0401756132"><ele>66.000</ele></trkpt>
      <trkpt lat="22.4074677099" lon="114.0402077196"><ele>66.000</ele></trkpt>
      <trkpt lat="22.4073478991" lon="114.0403447406"><ele>66.000</ele></trkpt>
      <trkpt lat="22.4072512564" lon="114.0404856498"><ele>68.000</ele></trkpt>
      <trkpt lat="22.4071827708" lon="114.0405442006"><ele>70.000</ele></trkpt>
      <trkpt lat="22.4070154537" lon="114.0405811976"><ele>72.000</ele></trkpt>
      <trkpt lat="22.4069558311" lon="114.0406233039"><ele>72.000</ele></trkpt>
      <trkpt lat="22.4068899430" lon="114.0406266119"><ele>72.000</ele></trkpt>
      <trkpt lat="22.4068508538" lon="114.0406031003"><ele>77.000</ele></trkpt>
      <trkpt lat="22.4067920725" lon="114.0406008996"><ele>77.000</ele></trkpt>
      <trkpt lat="22.4067459106" lon="114.0406235085"><ele>76.000</ele></trkpt>
      <trkpt lat="22.4066598811" lon="114.0406709781"><ele>78.000</ele></trkpt>
      <trkpt lat="22.4065822660" lon="114.0407364980"><ele>81.000</ele></trkpt>
      <trkpt lat="22.4064993685" lon="114.0408089515"><ele>84.000</ele></trkpt>
      <trkpt lat="22.4063573810" lon="114.0409211698"><ele>88.000</ele></trkpt>
      <trkpt lat="22.4063490682" lon="114.0409219995"><ele>88.000</ele></trkpt>
      <trkpt lat="22.4062048864" lon="114.0409227661"><ele>92.000</ele></trkpt>
      <trkpt lat="22.4061000937" lon="114.0409965031"><ele>97.000</ele></trkpt>
      <trkpt lat="22.4060297749" lon="114.0410778236"><ele>95.000</ele></trkpt>
      <trkpt lat="22.4059033861" lon="114.0411693523"><ele>96.000</ele></trkpt>
      <trkpt lat="22.4057534827" lon="114.0412337190"><ele>98.000</ele></trkpt>
      <trkpt lat="22.4056590813" lon="114.0413150421"><ele>102.000</ele></trkpt>
      <trkpt lat="22.4055205459" lon="114.0413445055"><ele>105.000</ele></trkpt>
      <trkpt lat="22.4054660464" lon="114.0413492190"><ele>106.000</ele></trkpt>
      <trkpt lat="22.4054199984" lon="114.0413700413"><ele>108.000</ele></trkpt>
      <trkpt lat="22.4053716910" lon="114.0414177610"><ele>110.000</ele></trkpt>
      <trkpt lat="22.4053001210" lon="114.0415775533"><ele>116.000</ele></trkpt>
      <trkpt lat="22.4052547012" lon="114.0417655489"><ele>116.000</ele></trkpt>
      <trkpt lat="22.4052438454" lon="114.0418104816"><ele>117.000</ele></trkpt>
      <trkpt lat="22.4052082249" lon="114.0418940063"><ele>118.000</ele></trkpt>
      <trkpt lat="22.4051851575" lon="114.0419210985"><ele>118.000</ele></trkpt>
      <trkpt lat="22.4051599679" lon="114.0419211228"><ele>117.000</ele></trkpt>
      <trkpt lat="22.4050843920" lon="114.0419257128"><ele>116.000</ele></trkpt>
      <trkpt lat="22.4050145062" lon="114.0419205446"><ele>120.000</ele></trkpt>
      <trkpt lat="22.4049535061" lon="114.0419485873"><ele>119.000</ele></trkpt>
      <trkpt lat="22.4048862514" lon="114.0419840792"><ele>118.000</ele></trkpt>
      <trkpt lat="22.4047408513" lon="114.0420993015"><ele>120.000</ele></trkpt>
      <trkpt lat="22.4045954512" lon="114.0422145237"><ele>119.000</ele></trkpt>
      <trkpt lat="22.4044820169" lon="114.0423044143"><ele>124.000</ele></trkpt>
      <trkpt lat="22.4043801594" lon="114.0423977848"><ele>124.000</ele></trkpt>
      <trkpt lat="22.4043287654" lon="114.0424752464"><ele>124.000</ele></trkpt>
      <trkpt lat="22.4043084085" lon="114.0423759576"><ele>126.000</ele></trkpt>
      <trkpt lat="22.4042971295" lon="114.0423228447"><ele>131.000</ele></trkpt>
      <trkpt lat="22.4042893762" lon="114.0422852285"><ele>134.000</ele></trkpt>
      <trkpt lat="22.4042738033" lon="114.0422116200"><ele>140.000</ele></trkpt>
      <trkpt lat="22.4042599445" lon="114.0421208860"><ele>143.000</ele></trkpt>
      <trkpt lat="22.4042507531" lon="114.0419722709"><ele>150.000</ele></trkpt>
      <trkpt lat="22.4042101218" lon="114.0419079867"><ele>154.000</ele></trkpt>
      <trkpt lat="22.4041470451" lon="114.0418487851"><ele>154.000</ele></trkpt>
      <trkpt lat="22.4040925433" lon="114.0418173219"><ele>156.000</ele></trkpt>
      <trkpt lat="22.4040366928" lon="114.0417819908"><ele>158.000</ele></trkpt>
      <trkpt lat="22.4039606387" lon="114.0417276267"><ele>161.000</ele></trkpt>
      <trkpt lat="22.4038429306" lon="114.0416765058"><ele>164.000</ele></trkpt>
      <trkpt lat="22.4038459606" lon="114.0416249391"><ele>162.000</ele></trkpt>
      <trkpt lat="22.4038674488" lon="114.0415582545"><ele>162.000</ele></trkpt>
      <trkpt lat="22.4039224980" lon="114.0414572606"><ele>162.000</ele></trkpt>
      <trkpt lat="22.4039392544" lon="114.0414058660"><ele>162.000</ele></trkpt>
      <trkpt lat="22.4039715448" lon="114.0413241011"><ele>158.000</ele></trkpt>
      <trkpt lat="22.4039649307" lon="114.0411882227"><ele>156.000</ele></trkpt>
      <trkpt lat="22.4039533644" lon="114.0410665159"><ele>155.000</ele></trkpt>
      <trkpt lat="22.4039429976" lon="114.0408726000"><ele>156.000</ele></trkpt>
      <trkpt lat="22.4039413684" lon="114.0408421245"><ele>156.000</ele></trkpt>
      <trkpt lat="22.4039648861" lon="114.0407150867"><ele>154.000</ele></trkpt>
      <trkpt lat="22.4040005166" lon="114.0406215544"><ele>152.000</ele></trkpt>
      <trkpt lat="22.4041211029" lon="114.0404769526"><ele>152.000</ele></trkpt>
      <trkpt lat="22.4041590083" lon="114.0404314979"><ele>153.000</ele></trkpt>
      <trkpt lat="22.4042239831" lon="114.0403517955"><ele>156.000</ele></trkpt>
      <trkpt lat="22.4042446330" lon="114.0403110207"><ele>157.000</ele></trkpt>
      <trkpt lat="22.4043230778" lon="114.0401360617"><ele>160.000</ele></trkpt>
      <trkpt lat="22.4043727669" lon="114.0400252373"><ele>162.000</ele></trkpt>
      <trkpt lat="22.4044133188" lon="114.0399618288"><ele>162.000</ele></trkpt>
      <trkpt lat="22.4044527996" lon="114.0399186647"><ele>164.000</ele></trkpt>
      <trkpt lat="22.4044762995" lon="114.0399067340"><ele>164.000</ele></trkpt>
      <trkpt lat="22.4045196295" lon="114.0399109308"><ele>164.000</ele></trkpt>
      <trkpt lat="22.4045787293" lon="114.0399278006"><ele>164.000</ele></trkpt>
      <trkpt lat="22.4047567516" lon="114.0399605599"><ele>164.000</ele></trkpt>
      <trkpt lat="22.4047589055" lon="114.0399609562"><ele>166.000</ele></trkpt>
      <trkpt lat="22.4048899706" lon="114.0399698308"><ele>168.000</ele></trkpt>
      <trkpt lat="22.4049583666" lon="114.0399635434"><ele>168.000</ele></trkpt>
      <trkpt lat="22.4050221082" lon="114.0399495910"><ele>168.000</ele></trkpt>
      <trkpt lat="22.4051419784" lon="114.0398595065"><ele>168.000</ele></trkpt>
      <trkpt lat="22.4052128345" lon="114.0398043930"><ele>168.000</ele></trkpt>
      <trkpt lat="22.4052797605" lon="114.0397535234"><ele>168.000</ele></trkpt>
      <trkpt lat="22.4053578808" lon="114.0396645158"><ele>168.000</ele></trkpt>
      <trkpt lat="22.4054489897" lon="114.0395628175"><ele>170.000</ele></trkpt>
      <trkpt lat="22.4054826654" lon="114.0394949389"><ele>170.000</ele></trkpt>
      <trkpt lat="22.4054877996" lon="114.0394486265"><ele>170.000</ele></trkpt>
      <trkpt lat="22.4054825977" lon="114.0394152984"><ele>168.000</ele></trkpt>
      <trkpt lat="22.4054791245" lon="114.0393833554"><ele>168.000</ele></trkpt>
      <trkpt lat="22.4054281944" lon="114.0392750623"><ele>166.000</ele></trkpt>
      <trkpt lat="22.4054117906" lon="114.0392241511"><ele>166.000</ele></trkpt>
      <trkpt lat="22.4054143162" lon="114.0391528438"><ele>166.000</ele></trkpt>
      <trkpt lat="22.4054520826" lon="114.0389907546"><ele>166.000</ele></trkpt>
      <trkpt lat="22.4054830346" lon="114.0389198805"><ele>166.000</ele></trkpt>
      <trkpt lat="22.4055346785" lon="114.0388568604"><ele>166.000</ele></trkpt>
      <trkpt lat="22.4056092893" lon="114.0387723940"><ele>165.000</ele></trkpt>
      <trkpt lat="22.4056314166" lon="114.0386739961"><ele>164.000</ele></trkpt>
      <trkpt lat="22.4056338317" lon="114.0385845702"><ele>162.000</ele></trkpt>
      <trkpt lat="22.4056056439" lon="114.0384948259"><ele>162.000</ele></trkpt>
      <trkpt lat="22.4055713695" lon="114.0384313254"><ele>160.000</ele></trkpt>
      <trkpt lat="22.4055307051" lon="114.0383848116"><ele>160.000</ele></trkpt>
      <trkpt lat="22.4054601394" lon="114.0383323527"><ele>160.000</ele></trkpt>
      <trkpt lat="22.4054273514" lon="114.0382879348"><ele>160.000</ele></trkpt>
      <trkpt lat="22.4053850738" lon="114.0382083361"><ele>164.000</ele></trkpt>
      <trkpt lat="22.4053707822" lon="114.0381504527"><ele>164.000</ele></trkpt>
      <trkpt lat="22.4054008151" lon="114.0379761340"><ele>165.000</ele></trkpt>
      <trkpt lat="22.4054024742" lon="114.0378964918"><ele>165.000</ele></trkpt>
      <trkpt lat="22.4053782065" lon="114.0377367832"><ele>170.000</ele></trkpt>
      <trkpt lat="22.4053467099" lon="114.0375455215"><ele>174.000</ele></trkpt>
      <trkpt lat="22.4053329538" lon="114.0374619881"><ele>174.000</ele></trkpt>
      <trkpt lat="22.4053297006" lon="114.0374416653"><ele>174.000</ele></trkpt>
      <trkpt lat="22.4053132181" lon="114.0374112029"><ele>174.000</ele></trkpt>
      <trkpt lat="22.4052936901" lon="114.0373907633"><ele>174.000</ele></trkpt>
      <trkpt lat="22.4052195693" lon="114.0373556568"><ele>174.000</ele></trkpt>
      <trkpt lat="22.4051574497" lon="114.0372575598"><ele>174.000</ele></trkpt>
      <trkpt lat="22.4051436613" lon="114.0372191397"><ele>174.000</ele></trkpt>
      <trkpt lat="22.4050810091" lon="114.0370369633"><ele>176.000</ele></trkpt>
      <trkpt lat="22.4050650304" lon="114.0369905014"><ele>178.000</ele></trkpt>
      <trkpt lat="22.4050708941" lon="114.0368833025"><ele>180.000</ele></trkpt>
      <trkpt lat="22.4051010666" lon="114.0368288751"><ele>180.000</ele></trkpt>
      <trkpt lat="22.4051623859" lon="114.0367951221"><ele>178.000</ele></trkpt>
      <trkpt lat="22.4053386299" lon="114.0367526742"><ele>178.000</ele></trkpt>
      <trkpt lat="22.4053717274" lon="114.0367447028"><ele>176.000</ele></trkpt>
      <trkpt lat="22.4054686761" lon="114.0366969842"><ele>176.000</ele></trkpt>
      <trkpt lat="22.4054908656" lon="114.0366707126"><ele>173.000</ele></trkpt>
      <trkpt lat="22.4055152305" lon="114.0366110346"><ele>173.000</ele></trkpt>
      <trkpt lat="22.4055439505" lon="114.0364439744"><ele>168.000</ele></trkpt>
      <trkpt lat="22.4055371924" lon="114.0363342113"><ele>165.000</ele></trkpt>
      <trkpt lat="22.4055127286" lon="114.0362912946"><ele>166.000</ele></trkpt>
      <trkpt lat="22.4054527096" lon="114.0362054531"><ele>162.000</ele></trkpt>
      <trkpt lat="22.4054504642" lon="114.0361696592"><ele>162.000</ele></trkpt>
      <trkpt lat="22.4054687810" lon="114.0361471276"><ele>162.000</ele></trkpt>
      <trkpt lat="22.4055325650" lon="114.0361066482"><ele>159.000</ele></trkpt>
      <trkpt lat="22.4056701780" lon="114.0360716069"><ele>154.000</ele></trkpt>
      <trkpt lat="22.4057234251" lon="114.0360309836"><ele>150.000</ele></trkpt>
      <trkpt lat="22.4057167354" lon="114.0359999773"><ele>150.000</ele></trkpt>
      <trkpt lat="22.4057173671" lon="114.0359361867"><ele>148.000</ele></trkpt>
    </trkseg>
  </trk>
</gpx>
