<?xml version="1.0" encoding="UTF-8"?>
<gpx xmlns:xsi="http://www.w3.org/2001/XMLSchema-instance"
     xsi:schemaLocation="http://www.topografix.com/GPX/1/1 http://www.topografix.com/GPX/1/1/gpx.xsd"
     version="1.1" creator="json3d_batch_to_gpx"
     xmlns="http://www.topografix.com/GPX/1/1">
  <metadata>
    <name>WarRelicsTrail(ShingMun)</name>
  </metadata>
  <trk>
    <name>WarRelicsTrail(ShingMun)</name>
    <type>hike</type>
    <trkseg>
      <trkpt lat="22.3777401301" lon="114.1444967147"><ele>203.000</ele></trkpt>
      <trkpt lat="22.3777391270" lon="114.1444977559"><ele>203.000</ele></trkpt>
      <trkpt lat="22.3777200160" lon="114.1445176707"><ele>213.000</ele></trkpt>
      <trkpt lat="22.3777074751" lon="114.1445298771"><ele>213.000</ele></trkpt>
      <trkpt lat="22.3776901545" lon="114.1445433693"><ele>216.000</ele></trkpt>
      <trkpt lat="22.3776770149" lon="114.1445517219"><ele>216.000</ele></trkpt>
      <trkpt lat="22.3776626809" lon="114.1445613595"><ele>216.000</ele></trkpt>
      <trkpt lat="22.3776435685" lon="114.1445742093"><ele>216.000</ele></trkpt>
      <trkpt lat="22.3776149007" lon="114.1445947681"><ele>215.000</ele></trkpt>
      <trkpt lat="22.3775880241" lon="114.1446089052"><ele>215.000</ele></trkpt>
      <trkpt lat="22.3775635350" lon="114.1446172605"><ele>215.000</ele></trkpt>
      <trkpt lat="22.3775306832" lon="114.1446236902"><ele>216.000</ele></trkpt>
      <trkpt lat="22.3775091785" lon="114.1446217687"><ele>216.000</ele></trkpt>
      <trkpt lat="22.3774852847" lon="114.1446179203"><ele>221.000</ele></trkpt>
      <trkpt lat="22.3774661686" lon="114.1446121444"><ele>221.000</ele></trkpt>
      <trkpt lat="22.3774428702" lon="114.1445999462"><ele>221.000</ele></trkpt>
      <trkpt lat="22.3774237532" lon="114.1445896745"><ele>221.000</ele></trkpt>
      <trkpt lat="22.3774070238" lon="114.1445697681"><ele>220.000</ele></trkpt>
      <trkpt lat="22.3773914892" lon="114.1445505032"><ele>219.000</ele></trkpt>
      <trkpt lat="22.3773807349" lon="114.1445376603"><ele>219.000</ele></trkpt>
      <trkpt lat="22.3773628137" lon="114.1445325259"><ele>218.000</ele></trkpt>
      <trkpt lat="22.3773257784" lon="114.1445267541"><ele>218.000</ele></trkpt>
      <trkpt lat="22.3773030786" lon="114.1445235473"><ele>221.000</ele></trkpt>
      <trkpt lat="22.3772767954" lon="114.1445197004"><ele>221.000</ele></trkpt>
      <trkpt lat="22.3772546934" lon="114.1445164935"><ele>224.000</ele></trkpt>
      <trkpt lat="22.3772445386" lon="114.1445164958"><ele>224.000</ele></trkpt>
      <trkpt lat="22.3772296057" lon="114.1445164993"><ele>224.000</ele></trkpt>
      <trkpt lat="22.3772087003" lon="114.1445222854"><ele>225.000</ele></trkpt>
      <trkpt lat="22.3771740557" lon="114.1445274310"><ele>224.000</ele></trkpt>
      <trkpt lat="22.3771417997" lon="114.1445280812"><ele>224.000</ele></trkpt>
      <trkpt lat="22.3771161143" lon="114.1445242333"><ele>226.000</ele></trkpt>
      <trkpt lat="22.3770910246" lon="114.1445191005"><ele>226.000</ele></trkpt>
      <trkpt lat="22.3770593637" lon="114.1445062625"><ele>228.000</ele></trkpt>
      <trkpt lat="22.3770402469" lon="114.1444966327"><ele>231.000</ele></trkpt>
      <trkpt lat="22.3770199348" lon="114.1444799382"><ele>231.000</ele></trkpt>
      <trkpt lat="22.3770014131" lon="114.1444613169"><ele>231.000</ele></trkpt>
      <trkpt lat="22.3769924512" lon="114.1444523266"><ele>234.000</ele></trkpt>
      <trkpt lat="22.3769918521" lon="114.1444414088"><ele>234.000</ele></trkpt>
      <trkpt lat="22.3769787094" lon="114.1444343469"><ele>231.000</ele></trkpt>
      <trkpt lat="22.3769530224" lon="114.1444266451"><ele>232.000</ele></trkpt>
      <trkpt lat="22.3769321150" lon="114.1444227960"><ele>232.000</ele></trkpt>
      <trkpt lat="22.3769165848" lon="114.1444253689"><ele>232.000</ele></trkpt>
      <trkpt lat="22.3769040419" lon="114.1444324368"><ele>233.000</ele></trkpt>
      <trkpt lat="22.3768926957" lon="114.1444446429"><ele>236.000</ele></trkpt>
      <trkpt lat="22.3768855297" lon="114.1444568480"><ele>236.000</ele></trkpt>
      <trkpt lat="22.3768754640" lon="114.1444825409"><ele>236.000</ele></trkpt>
      <trkpt lat="22.3768710512" lon="114.1444979613"><ele>236.000</ele></trkpt>
      <trkpt lat="22.3768688960" lon="114.1445135074"><ele>236.000</ele></trkpt>
      <trkpt lat="22.3768671049" lon="114.1445436378"><ele>236.000</ele></trkpt>
      <trkpt lat="22.3768663758" lon="114.1445510467"><ele>236.000</ele></trkpt>
      <trkpt lat="22.3768649497" lon="114.1445589412"><ele>236.000</ele></trkpt>
      <trkpt lat="22.3768644455" lon="114.1445665927"><ele>236.000</ele></trkpt>
      <trkpt lat="22.3768648624" lon="114.1445740110"><ele>236.000</ele></trkpt>
      <trkpt lat="22.3768633507" lon="114.1445969764"><ele>237.000</ele></trkpt>
      <trkpt lat="22.3768635319" lon="114.1446046375"><ele>237.000</ele></trkpt>
      <trkpt lat="22.3768620631" lon="114.1446201922"><ele>236.000</ele></trkpt>
      <trkpt lat="22.3768618377" lon="114.1446219731"><ele>236.000</ele></trkpt>
      <trkpt lat="22.3768579696" lon="114.1446525273"><ele>237.000</ele></trkpt>
      <trkpt lat="22.3768569087" lon="114.1446757450"><ele>237.000</ele></trkpt>
      <trkpt lat="22.3768536064" lon="114.1446905524"><ele>238.000</ele></trkpt>
      <trkpt lat="22.3768532319" lon="114.1446962484"><ele>238.000</ele></trkpt>
      <trkpt lat="22.3768526245" lon="114.1446980147"><ele>238.000</ele></trkpt>
      <trkpt lat="22.3768483748" lon="114.1447213924"><ele>238.000</ele></trkpt>
      <trkpt lat="22.3768440643" lon="114.1447520089"><ele>238.000</ele></trkpt>
      <trkpt lat="22.3768412136" lon="114.1447668075"><ele>238.000</ele></trkpt>
      <trkpt lat="22.3768402053" lon="114.1447823630"><ele>239.000</ele></trkpt>
      <trkpt lat="22.3768380936" lon="114.1447900150"><ele>239.000</ele></trkpt>
      <trkpt lat="22.3768366773" lon="114.1447974143"><ele>239.000</ele></trkpt>
      <trkpt lat="22.3768317589" lon="114.1448139320"><ele>239.000</ele></trkpt>
      <trkpt lat="22.3768286736" lon="114.1448297308"><ele>239.000</ele></trkpt>
      <trkpt lat="22.3768263371" lon="114.1448371206"><ele>239.000</ele></trkpt>
      <trkpt lat="22.3768230778" lon="114.1448452583"><ele>239.000</ele></trkpt>
      <trkpt lat="22.3768161001" lon="114.1448602812"><ele>236.000</ele></trkpt>
      <trkpt lat="22.3768127988" lon="114.1448753323"><ele>237.000</ele></trkpt>
      <trkpt lat="22.3768095313" lon="114.1448829651"><ele>237.000</ele></trkpt>
      <trkpt lat="22.3768069146" lon="114.1448982686"><ele>237.000</ele></trkpt>
      <trkpt lat="22.3768017792" lon="114.1449135532"><ele>237.000</ele></trkpt>
      <trkpt lat="22.3767985117" lon="114.1449214394"><ele>237.000</ele></trkpt>
      <trkpt lat="22.3767952086" lon="114.1449318288"><ele>238.000</ele></trkpt>
      <trkpt lat="22.3767862989" lon="114.1449495806"><ele>238.000</ele></trkpt>
      <trkpt lat="22.3767753421" lon="114.1449808879"><ele>242.000</ele></trkpt>
      <trkpt lat="22.3767751164" lon="114.1449813113"><ele>242.000</ele></trkpt>
      <trkpt lat="22.3767665414" lon="114.1449973774"><ele>238.000</ele></trkpt>
      <trkpt lat="22.3767577650" lon="114.1450081963"><ele>238.000</ele></trkpt>
      <trkpt lat="22.3767464897" lon="114.1450184273"><ele>238.000</ele></trkpt>
      <trkpt lat="22.3767379112" lon="114.1450303006"><ele>241.000</ele></trkpt>
      <trkpt lat="22.3767277718" lon="114.1450398672"><ele>241.000</ele></trkpt>
      <trkpt lat="22.3767243272" lon="114.1450429092"><ele>240.000</ele></trkpt>
      <trkpt lat="22.3767169370" lon="114.1450494349"><ele>240.000</ele></trkpt>
      <trkpt lat="22.3767074923" lon="114.1450555534"><ele>240.000</ele></trkpt>
      <trkpt lat="22.3766966664" lon="114.1450641307"><ele>240.000</ele></trkpt>
      <trkpt lat="22.3766856684" lon="114.1450705107"><ele>243.000</ele></trkpt>
      <trkpt lat="22.3766789776" lon="114.1450882503"><ele>243.000</ele></trkpt>
      <trkpt lat="22.3766664367" lon="114.1451055941"><ele>243.000</ele></trkpt>
      <trkpt lat="22.3766544928" lon="114.1451190849"><ele>246.000</ele></trkpt>
      <trkpt lat="22.3766401591" lon="114.1451306488"><ele>246.000</ele></trkpt>
      <trkpt lat="22.3766234353" lon="114.1451390021"><ele>244.000</ele></trkpt>
      <trkpt lat="22.3766031283" lon="114.1451479981"><ele>244.000</ele></trkpt>
      <trkpt lat="22.3765875999" lon="114.1451595633"><ele>246.000</ele></trkpt>
      <trkpt lat="22.3765774465" lon="114.1451666295"><ele>248.000</ele></trkpt>
      <trkpt lat="22.3765660996" lon="114.1451807629"><ele>248.000</ele></trkpt>
      <trkpt lat="22.3765499773" lon="114.1452077417"><ele>248.000</ele></trkpt>
      <trkpt lat="22.3765266895" lon="114.1452501366"><ele>250.000</ele></trkpt>
      <trkpt lat="22.3765034027" lon="114.1452976700"><ele>250.000</ele></trkpt>
      <trkpt lat="22.3764741435" lon="114.1453516279"><ele>248.000</ele></trkpt>
      <trkpt lat="22.3764538420" lon="114.1453888836"><ele>247.000</ele></trkpt>
      <trkpt lat="22.3764395121" lon="114.1454203586"><ele>248.000</ele></trkpt>
      <trkpt lat="22.3764204058" lon="114.1454646799"><ele>248.000</ele></trkpt>
      <trkpt lat="22.3764138390" lon="114.1454845915"><ele>248.000</ele></trkpt>
      <trkpt lat="22.3764048819" lon="114.1455000080"><ele>248.000</ele></trkpt>
      <trkpt lat="22.3763929368" lon="114.1455070756"><ele>248.000</ele></trkpt>
      <trkpt lat="22.3763762121" lon="114.1455109333"><ele>248.000</ele></trkpt>
      <trkpt lat="22.3763618757" lon="114.1455083672"><ele>248.000</ele></trkpt>
      <trkpt lat="22.3763427594" lon="114.1455013066"><ele>247.000</ele></trkpt>
      <trkpt lat="22.3763152808" lon="114.1454942478"><ele>248.000</ele></trkpt>
      <trkpt lat="22.3762955681" lon="114.1454897565"><ele>248.000</ele></trkpt>
      <trkpt lat="22.3762764535" lon="114.1454916872"><ele>248.000</ele></trkpt>
      <trkpt lat="22.3762531592" lon="114.1455006848"><ele>248.000</ele></trkpt>
      <trkpt lat="22.3762298652" lon="114.1455109660"><ele>250.000</ele></trkpt>
      <trkpt lat="22.3761886539" lon="114.1455321700"><ele>250.000</ele></trkpt>
      <trkpt lat="22.3761510257" lon="114.1455520886"><ele>250.000</ele></trkpt>
      <trkpt lat="22.3761056326" lon="114.1455739363"><ele>250.000</ele></trkpt>
      <trkpt lat="22.3760901029" lon="114.1455790782"><ele>250.000</ele></trkpt>
      <trkpt lat="22.3760668074" lon="114.1455822945"><ele>250.000</ele></trkpt>
      <trkpt lat="22.3760470956" lon="114.1455822989"><ele>252.000</ele></trkpt>
      <trkpt lat="22.3760279805" lon="114.1455816613"><ele>252.000</ele></trkpt>
      <trkpt lat="22.3759999047" lon="114.1455771709"><ele>254.000</ele></trkpt>
      <trkpt lat="22.3759766089" lon="114.1455739651"><ele>254.000</ele></trkpt>
      <trkpt lat="22.3759539095" lon="114.1455726855"><ele>254.000</ele></trkpt>
      <trkpt lat="22.3759347946" lon="114.1455726898"><ele>254.000</ele></trkpt>
      <trkpt lat="22.3759150836" lon="114.1455771899"><ele>254.000</ele></trkpt>
      <trkpt lat="22.3758971643" lon="114.1455816905"><ele>253.000</ele></trkpt>
      <trkpt lat="22.3758822323" lon="114.1455861895"><ele>253.000</ele></trkpt>
      <trkpt lat="22.3758690922" lon="114.1455919728"><ele>251.000</ele></trkpt>
      <trkpt lat="22.3758547574" lon="114.1456028947"><ele>251.000</ele></trkpt>
      <trkpt lat="22.3758416193" lon="114.1456144582"><ele>255.000</ele></trkpt>
      <trkpt lat="22.3758272882" lon="114.1456395100"><ele>255.000</ele></trkpt>
      <trkpt lat="22.3758123601" lon="114.1456690575"><ele>255.000</ele></trkpt>
      <trkpt lat="22.3758016131" lon="114.1456941085"><ele>255.000</ele></trkpt>
      <trkpt lat="22.3757854928" lon="114.1457365015"><ele>258.000</ele></trkpt>
      <trkpt lat="22.3757723583" lon="114.1457718299"><ele>253.000</ele></trkpt>
      <trkpt lat="22.3757550418" lon="114.1458020198"><ele>259.000</ele></trkpt>
      <trkpt lat="22.3757359315" lon="114.1458264308"><ele>259.000</ele></trkpt>
      <trkpt lat="22.3757066682" lon="114.1458553387"><ele>263.000</ele></trkpt>
      <trkpt lat="22.3756863615" lon="114.1458707576"><ele>258.000</ele></trkpt>
      <trkpt lat="22.3756535106" lon="114.1458823264"><ele>258.000</ele></trkpt>
      <trkpt lat="22.3756230465" lon="114.1458842596"><ele>256.000</ele></trkpt>
      <trkpt lat="22.3755639104" lon="114.1458810616"><ele>255.000</ele></trkpt>
      <trkpt lat="22.3755280691" lon="114.1458765738"><ele>256.000</ele></trkpt>
      <trkpt lat="22.3754832693" lon="114.1458752991"><ele>258.000</ele></trkpt>
      <trkpt lat="22.3754450396" lon="114.1458759494"><ele>258.000</ele></trkpt>
      <trkpt lat="22.3754014362" lon="114.1458836667"><ele>260.000</ele></trkpt>
      <trkpt lat="22.3753715449" lon="114.1458914432"><ele>259.000</ele></trkpt>
      <trkpt lat="22.3753491849" lon="114.1458943795"><ele>259.000</ele></trkpt>
      <trkpt lat="22.3753385501" lon="114.1458964345"><ele>260.000</ele></trkpt>
      <trkpt lat="22.3753276418" lon="114.1458949707"><ele>258.000</ele></trkpt>
      <trkpt lat="22.3753126419" lon="114.1458891103"><ele>258.000</ele></trkpt>
      <trkpt lat="22.3753039146" lon="114.1458835417"><ele>258.000</ele></trkpt>
      <trkpt lat="22.3752902777" lon="114.1458700568"><ele>258.000</ele></trkpt>
      <trkpt lat="22.3752819391" lon="114.1458616149"><ele>256.000</ele></trkpt>
      <trkpt lat="22.3752752771" lon="114.1458602900"><ele>256.000</ele></trkpt>
      <trkpt lat="22.3752704663" lon="114.1458592298"><ele>256.000</ele></trkpt>
      <trkpt lat="22.3752670112" lon="114.1458547204"><ele>256.000</ele></trkpt>
      <trkpt lat="22.3752655296" lon="114.1458466295"><ele>256.000</ele></trkpt>
      <trkpt lat="22.3752640468" lon="114.1458372122"><ele>258.000</ele></trkpt>
      <trkpt lat="22.3752640449" lon="114.1458273975"><ele>258.000</ele></trkpt>
      <trkpt lat="22.3752635503" lon="114.1458195715"><ele>258.000</ele></trkpt>
      <trkpt lat="22.3752559712" lon="114.1458111227"><ele>258.000</ele></trkpt>
      <trkpt lat="22.3752219170" lon="114.1457777323"><ele>261.000</ele></trkpt>
      <trkpt lat="22.3751824849" lon="114.1457340663"><ele>264.000</ele></trkpt>
      <trkpt lat="22.3751532064" lon="114.1456884725"><ele>266.000</ele></trkpt>
      <trkpt lat="22.3751334882" lon="114.1456557208"><ele>269.000</ele></trkpt>
      <trkpt lat="22.3751095841" lon="114.1455979225"><ele>270.000</ele></trkpt>
      <trkpt lat="22.3750946427" lon="114.1455587477"><ele>274.000</ele></trkpt>
      <trkpt lat="22.3750832887" lon="114.1455311326"><ele>272.000</ele></trkpt>
      <trkpt lat="22.3750677589" lon="114.1455356317"><ele>272.000</ele></trkpt>
      <trkpt lat="22.3750366989" lon="114.1455427035"><ele>274.000</ele></trkpt>
      <trkpt lat="22.3750157928" lon="114.1455452774"><ele>274.000</ele></trkpt>
      <trkpt lat="22.3749984695" lon="114.1455452813"><ele>274.000</ele></trkpt>
      <trkpt lat="22.3749829402" lon="114.1455523496"><ele>274.000</ele></trkpt>
      <trkpt lat="22.3749620354" lon="114.1455619884"><ele>276.000</ele></trkpt>
      <trkpt lat="22.3749429233" lon="114.1455716267"><ele>276.000</ele></trkpt>
      <trkpt lat="22.3749232121" lon="114.1455799806"><ele>276.000</ele></trkpt>
      <trkpt lat="22.3749112661" lon="114.1455825525"><ele>277.000</ele></trkpt>
      <trkpt lat="22.3748993190" lon="114.1455793441"><ele>277.000</ele></trkpt>
      <trkpt lat="22.3748971290" lon="114.1455784144"><ele>277.000</ele></trkpt>
    </trkseg>
  </trk>
</gpx>
