<?xml version="1.0" encoding="UTF-8"?>
<gpx xmlns:xsi="http://www.w3.org/2001/XMLSchema-instance"
     xsi:schemaLocation="http://www.topografix.com/GPX/1/1 http://www.topografix.com/GPX/1/1/gpx.xsd"
     version="1.1" creator="json3d_batch_to_gpx"
     xmlns="http://www.topografix.com/GPX/1/1">
  <metadata>
    <name>PeakTrail(PinewoodBatterySection)</name>
  </metadata>
  <trk>
    <name>PeakTrail(PinewoodBatterySection)</name>
    <type>hike</type>
    <trkseg>
      <trkpt lat="22.2771135191" lon="114.1363658893"><ele>295.000</ele></trkpt>
      <trkpt lat="22.2771022814" lon="114.1364003534"><ele>295.000</ele></trkpt>
      <trkpt lat="22.2770943771" lon="114.1364392918"><ele>294.000</ele></trkpt>
      <trkpt lat="22.2770902224" lon="114.1364813620"><ele>294.000</ele></trkpt>
      <trkpt lat="22.2770910668" lon="114.1365270112"><ele>293.000</ele></trkpt>
      <trkpt lat="22.2770459266" lon="114.1365258482"><ele>295.000</ele></trkpt>
      <trkpt lat="22.2770359743" lon="114.1365255919"><ele>295.000</ele></trkpt>
      <trkpt lat="22.2770264154" lon="114.1365184056"><ele>295.000</ele></trkpt>
      <trkpt lat="22.2770082516" lon="114.1365019807"><ele>296.000</ele></trkpt>
      <trkpt lat="22.2769915232" lon="114.1364870952"><ele>296.000</ele></trkpt>
      <trkpt lat="22.2769661896" lon="114.1364619434"><ele>297.000</ele></trkpt>
      <trkpt lat="22.2769566298" lon="114.1364547582"><ele>297.000</ele></trkpt>
      <trkpt lat="22.2769437257" lon="114.1364465463"><ele>297.000</ele></trkpt>
      <trkpt lat="22.2769255637" lon="114.1364373094"><ele>297.000</ele></trkpt>
      <trkpt lat="22.2769040575" lon="114.1364275601"><ele>297.000</ele></trkpt>
      <trkpt lat="22.2768964103" lon="114.1364239674"><ele>297.000</ele></trkpt>
      <trkpt lat="22.2768911516" lon="114.1364157543"><ele>297.000</ele></trkpt>
      <trkpt lat="22.2768901942" lon="114.1364080523"><ele>297.000</ele></trkpt>
      <trkpt lat="22.2768892371" lon="114.1364013779"><ele>297.000</ele></trkpt>
      <trkpt lat="22.2768806338" lon="114.1363947056"><ele>297.000</ele></trkpt>
      <trkpt lat="22.2768696409" lon="114.1363880341"><ele>299.000</ele></trkpt>
      <trkpt lat="22.2768543457" lon="114.1363772555"><ele>299.000</ele></trkpt>
      <trkpt lat="22.2768438307" lon="114.1363675031"><ele>300.000</ele></trkpt>
      <trkpt lat="22.2768361826" lon="114.1363598040"><ele>300.000</ele></trkpt>
      <trkpt lat="22.2768285340" lon="114.1363505641"><ele>300.000</ele></trkpt>
      <trkpt lat="22.2768208855" lon="114.1363377292"><ele>300.000</ele></trkpt>
      <trkpt lat="22.2768089328" lon="114.1363136002"><ele>300.000</ele></trkpt>
      <trkpt lat="22.2768146666" lon="114.1363110321"><ele>300.000</ele></trkpt>
      <trkpt lat="22.2768266116" lon="114.1363043530"><ele>300.000</ele></trkpt>
      <trkpt lat="22.2768366442" lon="114.1362951079"><ele>300.000</ele></trkpt>
      <trkpt lat="22.2768442871" lon="114.1362817563"><ele>300.000</ele></trkpt>
      <trkpt lat="22.2768504957" lon="114.1362673776"><ele>300.000</ele></trkpt>
      <trkpt lat="22.2768543142" lon="114.1362509463"><ele>300.000</ele></trkpt>
      <trkpt lat="22.2768614803" lon="114.1362411888"><ele>300.000</ele></trkpt>
      <trkpt lat="22.2768719916" lon="114.1362324569"><ele>300.000</ele></trkpt>
      <trkpt lat="22.2768901471" lon="114.1362191023"><ele>300.000</ele></trkpt>
      <trkpt lat="22.2769063916" lon="114.1362057472"><ele>300.000</ele></trkpt>
      <trkpt lat="22.2769178577" lon="114.1361944486"><ele>300.000</ele></trkpt>
      <trkpt lat="22.2769288443" lon="114.1361759601"><ele>300.000</ele></trkpt>
      <trkpt lat="22.2769441291" lon="114.1361487436"><ele>300.000</ele></trkpt>
      <trkpt lat="22.2769546391" lon="114.1361348768"><ele>300.000</ele></trkpt>
      <trkpt lat="22.2769651489" lon="114.1361240918"><ele>300.000</ele></trkpt>
      <trkpt lat="22.2769861730" lon="114.1361127894"><ele>300.000</ele></trkpt>
      <trkpt lat="22.2770048079" lon="114.1361061093"><ele>300.000</ele></trkpt>
      <trkpt lat="22.2770263111" lon="114.1361004549"><ele>300.000</ele></trkpt>
      <trkpt lat="22.2770535479" lon="114.1360947989"><ele>300.000</ele></trkpt>
      <trkpt lat="22.2770980728" lon="114.1360867332"><ele>301.000</ele></trkpt>
      <trkpt lat="22.2771018109" lon="114.1360860561"><ele>301.000</ele></trkpt>
      <trkpt lat="22.2771409945" lon="114.1360773159"><ele>301.000</ele></trkpt>
      <trkpt lat="22.2771842511" lon="114.1360634027"><ele>301.000</ele></trkpt>
      <trkpt lat="22.2771921227" lon="114.1360608709"><ele>302.000</ele></trkpt>
      <trkpt lat="22.2772354609" lon="114.1360472538"><ele>303.000</ele></trkpt>
      <trkpt lat="22.2772771774" lon="114.1360341463"><ele>304.000</ele></trkpt>
      <trkpt lat="22.2773205258" lon="114.1360205668"><ele>305.000</ele></trkpt>
      <trkpt lat="22.2773263941" lon="114.1360187284"><ele>305.000</ele></trkpt>
      <trkpt lat="22.2773397742" lon="114.1360161571"><ele>305.000</ele></trkpt>
      <trkpt lat="22.2773531546" lon="114.1360151267"><ele>305.000</ele></trkpt>
      <trkpt lat="22.2773698784" lon="114.1360115278"><ele>306.000</ele></trkpt>
      <trkpt lat="22.2773808685" lon="114.1360069030"><ele>306.000</ele></trkpt>
      <trkpt lat="22.2773913796" lon="114.1359976578"><ele>306.000</ele></trkpt>
      <trkpt lat="22.2774033229" lon="114.1359843049"><ele>306.000</ele></trkpt>
      <trkpt lat="22.2774147897" lon="114.1359760860"><ele>306.000</ele></trkpt>
      <trkpt lat="22.2774343803" lon="114.1359668381"><ele>306.000</ele></trkpt>
      <trkpt lat="22.2774534934" lon="114.1359586179"><ele>306.000</ele></trkpt>
      <trkpt lat="22.2774821628" lon="114.1359473133"><ele>306.000</ele></trkpt>
      <trkpt lat="22.2775160881" lon="114.1359324131"><ele>307.000</ele></trkpt>
      <trkpt lat="22.2775332894" lon="114.1359241925"><ele>307.000</ele></trkpt>
      <trkpt lat="22.2775643466" lon="114.1359062124"><ele>306.000</ele></trkpt>
      <trkpt lat="22.2775666492" lon="114.1359042752"><ele>306.000</ele></trkpt>
      <trkpt lat="22.2775405270" lon="114.1358647029"><ele>304.000</ele></trkpt>
      <trkpt lat="22.2775184521" lon="114.1358312617"><ele>301.000</ele></trkpt>
      <trkpt lat="22.2775184506" lon="114.1358256136"><ele>301.000</ele></trkpt>
      <trkpt lat="22.2775213161" lon="114.1358184247"><ele>301.000</ele></trkpt>
      <trkpt lat="22.2775299158" lon="114.1358107199"><ele>301.000</ele></trkpt>
      <trkpt lat="22.2775447265" lon="114.1357983927"><ele>301.000</ele></trkpt>
      <trkpt lat="22.2775299158" lon="114.1358107199"><ele>301.000</ele></trkpt>
      <trkpt lat="22.2775213161" lon="114.1358184247"><ele>301.000</ele></trkpt>
      <trkpt lat="22.2775184506" lon="114.1358256136"><ele>301.000</ele></trkpt>
      <trkpt lat="22.2775184521" lon="114.1358312617"><ele>301.000</ele></trkpt>
      <trkpt lat="22.2775445743" lon="114.1358708340"><ele>305.000</ele></trkpt>
      <trkpt lat="22.2775706964" lon="114.1359104064"><ele>307.000</ele></trkpt>
      <trkpt lat="22.2775968186" lon="114.1359499787"><ele>307.000</ele></trkpt>
      <trkpt lat="22.2775987651" lon="114.1359529275"><ele>307.000</ele></trkpt>
      <trkpt lat="22.2776362854" lon="114.1359259366"><ele>306.000</ele></trkpt>
      <trkpt lat="22.2776738058" lon="114.1358989456"><ele>306.000</ele></trkpt>
      <trkpt lat="22.2777113261" lon="114.1358719546"><ele>305.000</ele></trkpt>
      <trkpt lat="22.2777230927" lon="114.1358634901"><ele>305.000</ele></trkpt>
      <trkpt lat="22.2777259306" lon="114.1358616711"><ele>305.000</ele></trkpt>
      <trkpt lat="22.2777298043" lon="114.1358681990"><ele>305.000</ele></trkpt>
      <trkpt lat="22.2777417113" lon="114.1358927504"><ele>305.000</ele></trkpt>
      <trkpt lat="22.2777445035" lon="114.1359030792"><ele>305.000</ele></trkpt>
      <trkpt lat="22.2777449478" lon="114.1359058680"><ele>305.000</ele></trkpt>
      <trkpt lat="22.2777513879" lon="114.1359101355"><ele>305.000</ele></trkpt>
      <trkpt lat="22.2777588425" lon="114.1359143714"><ele>305.000</ele></trkpt>
      <trkpt lat="22.2777621717" lon="114.1359164585"><ele>305.000</ele></trkpt>
      <trkpt lat="22.2777660136" lon="114.1359282331"><ele>305.000</ele></trkpt>
      <trkpt lat="22.2777688604" lon="114.1359404135"><ele>305.000</ele></trkpt>
      <trkpt lat="22.2777777487" lon="114.1359490084"><ele>305.000</ele></trkpt>
      <trkpt lat="22.2777845958" lon="114.1359566134"><ele>305.000</ele></trkpt>
      <trkpt lat="22.2778100582" lon="114.1359966791"><ele>305.000</ele></trkpt>
      <trkpt lat="22.2778119081" lon="114.1359995899"><ele>305.000</ele></trkpt>
      <trkpt lat="22.2778195566" lon="114.1360124239"><ele>305.000</ele></trkpt>
      <trkpt lat="22.2778276840" lon="114.1360257720"><ele>305.000</ele></trkpt>
      <trkpt lat="22.2778328924" lon="114.1360312452"><ele>305.000</ele></trkpt>
      <trkpt lat="22.2778554641" lon="114.1360469187"><ele>305.000</ele></trkpt>
      <trkpt lat="22.2778630502" lon="114.1360490029"><ele>305.000</ele></trkpt>
      <trkpt lat="22.2778704457" lon="114.1360460798"><ele>305.000</ele></trkpt>
      <trkpt lat="22.2778749980" lon="114.1360432151"><ele>305.000</ele></trkpt>
      <trkpt lat="22.2778893390" lon="114.1360622087"><ele>305.000</ele></trkpt>
      <trkpt lat="22.2779084604" lon="114.1360909573"><ele>305.000</ele></trkpt>
      <trkpt lat="22.2779359825" lon="114.1361294187"><ele>305.000</ele></trkpt>
      <trkpt lat="22.2779433580" lon="114.1361397257"><ele>305.000</ele></trkpt>
      <trkpt lat="22.2779600899" lon="114.1361648800"><ele>305.000</ele></trkpt>
      <trkpt lat="22.2779710861" lon="114.1361884961"><ele>305.000</ele></trkpt>
      <trkpt lat="22.2779796928" lon="114.1362085180"><ele>305.000</ele></trkpt>
      <trkpt lat="22.2779887788" lon="114.1362311080"><ele>305.000</ele></trkpt>
      <trkpt lat="22.2779911714" lon="114.1362470243"><ele>304.000</ele></trkpt>
      <trkpt lat="22.2779868745" lon="114.1362608884"><ele>304.000</ele></trkpt>
      <trkpt lat="22.2779816205" lon="114.1362721863"><ele>304.000</ele></trkpt>
      <trkpt lat="22.2779668110" lon="114.1362896484"><ele>304.000</ele></trkpt>
      <trkpt lat="22.2779539109" lon="114.1363009475"><ele>304.000</ele></trkpt>
      <trkpt lat="22.2779381440" lon="114.1363107085"><ele>304.000</ele></trkpt>
      <trkpt lat="22.2779137735" lon="114.1363163627"><ele>304.000</ele></trkpt>
      <trkpt lat="22.2778951371" lon="114.1363168823"><ele>304.000</ele></trkpt>
      <trkpt lat="22.2778674197" lon="114.1363143229"><ele>304.000</ele></trkpt>
      <trkpt lat="22.2778483037" lon="114.1363112477"><ele>304.000</ele></trkpt>
      <trkpt lat="22.2778339667" lon="114.1363076578"><ele>304.000</ele></trkpt>
      <trkpt lat="22.2778248910" lon="114.1363225498"><ele>303.000</ele></trkpt>
      <trkpt lat="22.2777976138" lon="114.1363580840"><ele>301.000</ele></trkpt>
      <trkpt lat="22.2777667103" lon="114.1363844570"><ele>300.000</ele></trkpt>
      <trkpt lat="22.2777509280" lon="114.1363985596"><ele>299.000</ele></trkpt>
      <trkpt lat="22.2777383709" lon="114.1363802203"><ele>299.000</ele></trkpt>
      <trkpt lat="22.2777034600" lon="114.1364109889"><ele>297.000</ele></trkpt>
      <trkpt lat="22.2776826492" lon="114.1364293305"><ele>296.000</ele></trkpt>
      <trkpt lat="22.2776473702" lon="114.1364596106"><ele>295.000</ele></trkpt>
      <trkpt lat="22.2776258911" lon="114.1364780463"><ele>295.000</ele></trkpt>
      <trkpt lat="22.2775951827" lon="114.1365136142"><ele>295.000</ele></trkpt>
      <trkpt lat="22.2775778833" lon="114.1365336512"><ele>295.000</ele></trkpt>
      <trkpt lat="22.2775491662" lon="114.1365710903"><ele>294.000</ele></trkpt>
      <trkpt lat="22.2775426242" lon="114.1365796192"><ele>294.000</ele></trkpt>
      <trkpt lat="22.2775243705" lon="114.1366239935"><ele>294.000</ele></trkpt>
      <trkpt lat="22.2775208859" lon="114.1366324645"><ele>294.000</ele></trkpt>
      <trkpt lat="22.2775104888" lon="114.1366558385"><ele>295.000</ele></trkpt>
      <trkpt lat="22.2775095461" lon="114.1366680324"><ele>294.000</ele></trkpt>
      <trkpt lat="22.2775095494" lon="114.1366812422"><ele>294.000</ele></trkpt>
      <trkpt lat="22.2775078603" lon="114.1366943423"><ele>294.000</ele></trkpt>
      <trkpt lat="22.2775447777" lon="114.1367069717"><ele>291.000</ele></trkpt>
      <trkpt lat="22.2775399133" lon="114.1367213562"><ele>291.000</ele></trkpt>
      <trkpt lat="22.2775842066" lon="114.1367307794"><ele>289.000</ele></trkpt>
      <trkpt lat="22.2775869713" lon="114.1367313675"><ele>289.000</ele></trkpt>
      <trkpt lat="22.2775837327" lon="114.1367579556"><ele>288.000</ele></trkpt>
      <trkpt lat="22.2776285324" lon="114.1367640139"><ele>285.000</ele></trkpt>
      <trkpt lat="22.2776287614" lon="114.1367640448"><ele>285.000</ele></trkpt>
      <trkpt lat="22.2776229640" lon="114.1368121587"><ele>283.000</ele></trkpt>
      <trkpt lat="22.2776223433" lon="114.1368173098"><ele>284.000</ele></trkpt>
    </trkseg>
  </trk>
</gpx>
