<?xml version="1.0" encoding="UTF-8"?>
<gpx xmlns:xsi="http://www.w3.org/2001/XMLSchema-instance"
     xsi:schemaLocation="http://www.topografix.com/GPX/1/1 http://www.topografix.com/GPX/1/1/gpx.xsd"
     version="1.1" creator="json3d_batch_to_gpx"
     xmlns="http://www.topografix.com/GPX/1/1">
  <metadata>
    <name>PeakTrail(HighWestSection)</name>
  </metadata>
  <trk>
    <name>PeakTrail(HighWestSection)</name>
    <type>hike</type>
    <trkseg>
      <trkpt lat="22.2712965126" lon="114.1494912225"><ele>397.000</ele></trkpt>
      <trkpt lat="22.2713303826" lon="114.1494591401"><ele>398.000</ele></trkpt>
      <trkpt lat="22.2713642526" lon="114.1494270578"><ele>397.000</ele></trkpt>
      <trkpt lat="22.2713692447" lon="114.1494223292"><ele>397.000</ele></trkpt>
      <trkpt lat="22.2714117465" lon="114.1494059498"><ele>401.000</ele></trkpt>
      <trkpt lat="22.2714247145" lon="114.1494009522"><ele>401.000</ele></trkpt>
      <trkpt lat="22.2714555918" lon="114.1494046012"><ele>405.000</ele></trkpt>
      <trkpt lat="22.2714976779" lon="114.1494221763"><ele>402.000</ele></trkpt>
      <trkpt lat="22.2715397639" lon="114.1494397514"><ele>402.000</ele></trkpt>
      <trkpt lat="22.2715450882" lon="114.1494419749"><ele>402.000</ele></trkpt>
      <trkpt lat="22.2715660206" lon="114.1494377540"><ele>402.000</ele></trkpt>
      <trkpt lat="22.2715814576" lon="114.1494270674"><ele>401.000</ele></trkpt>
      <trkpt lat="22.2716181869" lon="114.1493988495"><ele>404.000</ele></trkpt>
      <trkpt lat="22.2716549162" lon="114.1493706315"><ele>404.000</ele></trkpt>
      <trkpt lat="22.2716575923" lon="114.1493685755"><ele>401.000</ele></trkpt>
      <trkpt lat="22.2716793088" lon="114.1493556396"><ele>403.000</ele></trkpt>
      <trkpt lat="22.2717018118" lon="114.1493528234"><ele>403.000</ele></trkpt>
      <trkpt lat="22.2717467433" lon="114.1493576248"><ele>403.000</ele></trkpt>
      <trkpt lat="22.2717753415" lon="114.1493606808"><ele>403.000</ele></trkpt>
      <trkpt lat="22.2718080509" lon="114.1493682658"><ele>403.000</ele></trkpt>
      <trkpt lat="22.2718295102" lon="114.1493825992"><ele>403.000</ele></trkpt>
      <trkpt lat="22.2718470451" lon="114.1494045249"><ele>409.000</ele></trkpt>
      <trkpt lat="22.2718711883" lon="114.1494455209"><ele>403.000</ele></trkpt>
      <trkpt lat="22.2718857832" lon="114.1494703035"><ele>403.000</ele></trkpt>
      <trkpt lat="22.2719041035" lon="114.1494911044"><ele>403.000</ele></trkpt>
      <trkpt lat="22.2719315805" lon="114.1495034690"><ele>408.000</ele></trkpt>
      <trkpt lat="22.2719721390" lon="114.1495043053"><ele>408.000</ele></trkpt>
      <trkpt lat="22.2720014464" lon="114.1495054241"><ele>413.000</ele></trkpt>
      <trkpt lat="22.2720406545" lon="114.1495294858"><ele>409.000</ele></trkpt>
      <trkpt lat="22.2720710564" lon="114.1495481433"><ele>411.000</ele></trkpt>
      <trkpt lat="22.2721035053" lon="114.1495588206"><ele>406.000</ele></trkpt>
      <trkpt lat="22.2721312417" lon="114.1495568475"><ele>407.000</ele></trkpt>
      <trkpt lat="22.2721754598" lon="114.1495470253"><ele>412.000</ele></trkpt>
      <trkpt lat="22.2722196779" lon="114.1495372031"><ele>411.000</ele></trkpt>
      <trkpt lat="22.2722638959" lon="114.1495273808"><ele>410.000</ele></trkpt>
      <trkpt lat="22.2722908524" lon="114.1495213929"><ele>409.000</ele></trkpt>
      <trkpt lat="22.2723282709" lon="114.1495213857"><ele>409.000</ele></trkpt>
      <trkpt lat="22.2723484181" lon="114.1495154777"><ele>408.000</ele></trkpt>
      <trkpt lat="22.2723654237" lon="114.1494991680"><ele>412.000</ele></trkpt>
      <trkpt lat="22.2723919865" lon="114.1494619131"><ele>410.000</ele></trkpt>
      <trkpt lat="22.2724177886" lon="114.1494441938"><ele>413.000</ele></trkpt>
      <trkpt lat="22.2724450258" lon="114.1494380273"><ele>411.000</ele></trkpt>
      <trkpt lat="22.2724751311" lon="114.1494318602"><ele>409.000</ele></trkpt>
      <trkpt lat="22.2724930501" lon="114.1494233853"><ele>409.000</ele></trkpt>
      <trkpt lat="22.2725217165" lon="114.1493887225"><ele>409.000</ele></trkpt>
      <trkpt lat="22.2725468012" lon="114.1493686941"><ele>409.000</ele></trkpt>
      <trkpt lat="22.2725726017" lon="114.1493417329"><ele>409.000</ele></trkpt>
      <trkpt lat="22.2725982966" lon="114.1493018403"><ele>411.000</ele></trkpt>
      <trkpt lat="22.2725984000" lon="114.1493016798"><ele>411.000</ele></trkpt>
      <trkpt lat="22.2726202863" lon="114.1492592462"><ele>408.000</ele></trkpt>
      <trkpt lat="22.2726421726" lon="114.1492168125"><ele>408.000</ele></trkpt>
      <trkpt lat="22.2726640589" lon="114.1491743788"><ele>408.000</ele></trkpt>
      <trkpt lat="22.2726750729" lon="114.1491530246"><ele>411.000</ele></trkpt>
      <trkpt lat="22.2727036006" lon="114.1491154200"><ele>410.000</ele></trkpt>
      <trkpt lat="22.2727130554" lon="114.1491029568"><ele>410.000</ele></trkpt>
      <trkpt lat="22.2727449778" lon="114.1490686463"><ele>409.000</ele></trkpt>
      <trkpt lat="22.2727769003" lon="114.1490343358"><ele>409.000</ele></trkpt>
      <trkpt lat="22.2727976236" lon="114.1490120623"><ele>411.000</ele></trkpt>
      <trkpt lat="22.2728334594" lon="114.1489827888"><ele>410.000</ele></trkpt>
      <trkpt lat="22.2728671483" lon="114.1489781616"><ele>410.000</ele></trkpt>
      <trkpt lat="22.2729122988" lon="114.1489776309"><ele>409.000</ele></trkpt>
      <trkpt lat="22.2729338115" lon="114.1489773781"><ele>409.000</ele></trkpt>
      <trkpt lat="22.2729596148" lon="114.1489673607"><ele>412.000</ele></trkpt>
      <trkpt lat="22.2729961685" lon="114.1489480993"><ele>412.000</ele></trkpt>
      <trkpt lat="22.2730305727" lon="114.1489334597"><ele>411.000</ele></trkpt>
      <trkpt lat="22.2730754013" lon="114.1489276529"><ele>410.000</ele></trkpt>
      <trkpt lat="22.2731079862" lon="114.1489234321"><ele>414.000</ele></trkpt>
      <trkpt lat="22.2731524867" lon="114.1489152127"><ele>412.000</ele></trkpt>
      <trkpt lat="22.2731789486" lon="114.1489103251"><ele>412.000</ele></trkpt>
      <trkpt lat="22.2732236399" lon="114.1489172467"><ele>410.000</ele></trkpt>
      <trkpt lat="22.2732484810" lon="114.1489210940"><ele>411.000</ele></trkpt>
      <trkpt lat="22.2732916077" lon="114.1489354648"><ele>408.000</ele></trkpt>
      <trkpt lat="22.2733108466" lon="114.1489418756"><ele>408.000</ele></trkpt>
      <trkpt lat="22.2733517061" lon="114.1489495696"><ele>408.000</ele></trkpt>
      <trkpt lat="22.2733962249" lon="114.1489414652"><ele>408.000</ele></trkpt>
      <trkpt lat="22.2733982974" lon="114.1489410879"><ele>408.000</ele></trkpt>
      <trkpt lat="22.2734404529" lon="114.1489237057"><ele>410.000</ele></trkpt>
      <trkpt lat="22.2734506209" lon="114.1489195131"><ele>410.000</ele></trkpt>
      <trkpt lat="22.2734927742" lon="114.1489021248"><ele>410.000</ele></trkpt>
      <trkpt lat="22.2735122615" lon="114.1488940863"><ele>409.000</ele></trkpt>
      <trkpt lat="22.2735481008" lon="114.1488856067"><ele>409.000</ele></trkpt>
      <trkpt lat="22.2735731897" lon="114.1488902232"><ele>408.000</ele></trkpt>
      <trkpt lat="22.2736167289" lon="114.1489030780"><ele>407.000</ele></trkpt>
      <trkpt lat="22.2736305372" lon="114.1489071548"><ele>407.000</ele></trkpt>
      <trkpt lat="22.2736534742" lon="114.1489025298"><ele>405.000</ele></trkpt>
      <trkpt lat="22.2736968877" lon="114.1488891930"><ele>405.000</ele></trkpt>
      <trkpt lat="22.2737086657" lon="114.1488855748"><ele>405.000</ele></trkpt>
      <trkpt lat="22.2737537326" lon="114.1488825774"><ele>404.000</ele></trkpt>
      <trkpt lat="22.2737667266" lon="114.1488817132"><ele>404.000</ele></trkpt>
      <trkpt lat="22.2738118632" lon="114.1488830325"><ele>406.000</ele></trkpt>
      <trkpt lat="22.2738190541" lon="114.1488832426"><ele>406.000</ele></trkpt>
      <trkpt lat="22.2738505921" lon="114.1488747648"><ele>411.000</ele></trkpt>
      <trkpt lat="22.2738933162" lon="114.1488590667"><ele>412.000</ele></trkpt>
      <trkpt lat="22.2739072161" lon="114.1488539595"><ele>412.000</ele></trkpt>
      <trkpt lat="22.2739487899" lon="114.1488454787"><ele>412.000</ele></trkpt>
      <trkpt lat="22.2739874998" lon="114.1488562538"><ele>412.000</ele></trkpt>
      <trkpt lat="22.2740161752" lon="114.1488739615"><ele>413.000</ele></trkpt>
      <trkpt lat="22.2740468827" lon="114.1489095294"><ele>412.000</ele></trkpt>
      <trkpt lat="22.2740527394" lon="114.1489163130"><ele>413.000</ele></trkpt>
      <trkpt lat="22.2740799822" lon="114.1489378721"><ele>411.000</ele></trkpt>
      <trkpt lat="22.2741086560" lon="114.1489463390"><ele>411.000</ele></trkpt>
      <trkpt lat="22.2741538047" lon="114.1489470224"><ele>411.000</ele></trkpt>
      <trkpt lat="22.2741588322" lon="114.1489470985"><ele>411.000</ele></trkpt>
      <trkpt lat="22.2741925254" lon="114.1489624951"><ele>412.000</ele></trkpt>
      <trkpt lat="22.2742287927" lon="114.1489913952"><ele>409.000</ele></trkpt>
      <trkpt lat="22.2742591970" lon="114.1490156234"><ele>410.000</ele></trkpt>
      <trkpt lat="22.2742986722" lon="114.1490391759"><ele>408.000</ele></trkpt>
      <trkpt lat="22.2743108133" lon="114.1490464197"><ele>408.000</ele></trkpt>
      <trkpt lat="22.2743531061" lon="114.1490548839"><ele>408.000</ele></trkpt>
      <trkpt lat="22.2743891113" lon="114.1490495141"><ele>408.000</ele></trkpt>
      <trkpt lat="22.2744333703" lon="114.1490399070"><ele>409.000</ele></trkpt>
      <trkpt lat="22.2744542189" lon="114.1490353816"><ele>409.000</ele></trkpt>
      <trkpt lat="22.2744989852" lon="114.1490290440"><ele>410.000</ele></trkpt>
      <trkpt lat="22.2745437515" lon="114.1490227064"><ele>409.000</ele></trkpt>
      <trkpt lat="22.2745677106" lon="114.1490193145"><ele>411.000</ele></trkpt>
      <trkpt lat="22.2746127270" lon="114.1490230883"><ele>410.000</ele></trkpt>
      <trkpt lat="22.2746577434" lon="114.1490268621"><ele>411.000</ele></trkpt>
      <trkpt lat="22.2746746358" lon="114.1490282782"><ele>411.000</ele></trkpt>
      <trkpt lat="22.2747171923" lon="114.1490444933"><ele>413.000</ele></trkpt>
      <trkpt lat="22.2747301923" lon="114.1490494467"><ele>414.000</ele></trkpt>
      <trkpt lat="22.2747686071" lon="114.1490749433"><ele>410.000</ele></trkpt>
      <trkpt lat="22.2747833618" lon="114.1490847363"><ele>411.000</ele></trkpt>
      <trkpt lat="22.2748126845" lon="114.1491216287"><ele>402.000</ele></trkpt>
      <trkpt lat="22.2748251844" lon="114.1491373555"><ele>403.000</ele></trkpt>
      <trkpt lat="22.2748463034" lon="114.1491802364"><ele>403.000</ele></trkpt>
      <trkpt lat="22.2748634280" lon="114.1492150070"><ele>405.000</ele></trkpt>
      <trkpt lat="22.2748938561" lon="114.1492508512"><ele>407.000</ele></trkpt>
      <trkpt lat="22.2749004701" lon="114.1492586424"><ele>407.000</ele></trkpt>
      <trkpt lat="22.2749338084" lon="114.1492913620"><ele>409.000</ele></trkpt>
      <trkpt lat="22.2749351219" lon="114.1492926511"><ele>409.000</ele></trkpt>
      <trkpt lat="22.2749751809" lon="114.1493150369"><ele>408.000</ele></trkpt>
      <trkpt lat="22.2750086013" lon="114.1493337130"><ele>408.000</ele></trkpt>
      <trkpt lat="22.2750521903" lon="114.1493463718"><ele>409.000</ele></trkpt>
      <trkpt lat="22.2750814812" lon="114.1493548782"><ele>409.000</ele></trkpt>
      <trkpt lat="22.2751266256" lon="114.1493558396"><ele>408.000</ele></trkpt>
      <trkpt lat="22.2751412146" lon="114.1493561503"><ele>407.000</ele></trkpt>
      <trkpt lat="22.2751782490" lon="114.1493490832"><ele>407.000</ele></trkpt>
      <trkpt lat="22.2752224511" lon="114.1493426561"><ele>406.000</ele></trkpt>
      <trkpt lat="22.2752576945" lon="114.1493452166"><ele>406.000</ele></trkpt>
      <trkpt lat="22.2753021620" lon="114.1493536393"><ele>406.000</ele></trkpt>
      <trkpt lat="22.2753466295" lon="114.1493620621"><ele>402.000</ele></trkpt>
      <trkpt lat="22.2753490903" lon="114.1493625281"><ele>402.000</ele></trkpt>
      <trkpt lat="22.2753941991" lon="114.1493646787"><ele>401.000</ele></trkpt>
      <trkpt lat="22.2754393079" lon="114.1493668292"><ele>401.000</ele></trkpt>
      <trkpt lat="22.2754697542" lon="114.1493682807"><ele>402.000</ele></trkpt>
      <trkpt lat="22.2755014132" lon="114.1493650648"><ele>402.000</ele></trkpt>
      <trkpt lat="22.2755318744" lon="114.1493483718"><ele>407.000</ele></trkpt>
      <trkpt lat="22.2755563678" lon="114.1493076152"><ele>407.000</ele></trkpt>
      <trkpt lat="22.2755808611" lon="114.1492668585"><ele>407.000</ele></trkpt>
      <trkpt lat="22.2755939805" lon="114.1492450282"><ele>408.000</ele></trkpt>
      <trkpt lat="22.2756120232" lon="114.1492005550"><ele>408.000</ele></trkpt>
      <trkpt lat="22.2756300660" lon="114.1491560819"><ele>408.000</ele></trkpt>
      <trkpt lat="22.2756481088" lon="114.1491116087"><ele>407.000</ele></trkpt>
      <trkpt lat="22.2756530919" lon="114.1490993258"><ele>407.000</ele></trkpt>
      <trkpt lat="22.2756871363" lon="114.1490717210"><ele>406.000</ele></trkpt>
      <trkpt lat="22.2757193901" lon="114.1490608047"><ele>407.000</ele></trkpt>
      <trkpt lat="22.2757385032" lon="114.1490486062"><ele>406.000</ele></trkpt>
      <trkpt lat="22.2757516410" lon="114.1490280654"><ele>406.000</ele></trkpt>
      <trkpt lat="22.2757662488" lon="114.1489821596"><ele>407.000</ele></trkpt>
      <trkpt lat="22.2757749249" lon="114.1489548947"><ele>408.000</ele></trkpt>
      <trkpt lat="22.2757980315" lon="114.1489132137"><ele>412.000</ele></trkpt>
      <trkpt lat="22.2758211382" lon="114.1488715326"><ele>413.000</ele></trkpt>
      <trkpt lat="22.2758268774" lon="114.1488611800"><ele>413.000</ele></trkpt>
      <trkpt lat="22.2758310536" lon="114.1488322974"><ele>413.000</ele></trkpt>
      <trkpt lat="22.2758202968" lon="114.1488040600"><ele>415.000</ele></trkpt>
      <trkpt lat="22.2757940097" lon="114.1487790345"><ele>417.000</ele></trkpt>
      <trkpt lat="22.2757549288" lon="114.1487547346"><ele>419.000</ele></trkpt>
      <trkpt lat="22.2757158479" lon="114.1487304347"><ele>419.000</ele></trkpt>
      <trkpt lat="22.2756918532" lon="114.1487155151"><ele>419.000</ele></trkpt>
      <trkpt lat="22.2756608307" lon="114.1486802638"><ele>413.000</ele></trkpt>
      <trkpt lat="22.2756506292" lon="114.1486686717"><ele>413.000</ele></trkpt>
      <trkpt lat="22.2756267956" lon="114.1486274660"><ele>413.000</ele></trkpt>
      <trkpt lat="22.2756261307" lon="114.1486263165"><ele>413.000</ele></trkpt>
      <trkpt lat="22.2756219452" lon="114.1486012866"><ele>413.000</ele></trkpt>
      <trkpt lat="22.2756297052" lon="114.1485749717"><ele>419.000</ele></trkpt>
      <trkpt lat="22.2756513355" lon="114.1485323859"><ele>421.000</ele></trkpt>
      <trkpt lat="22.2756729658" lon="114.1484898000"><ele>421.000</ele></trkpt>
      <trkpt lat="22.2756945962" lon="114.1484472142"><ele>419.000</ele></trkpt>
      <trkpt lat="22.2757162265" lon="114.1484046284"><ele>420.000</ele></trkpt>
      <trkpt lat="22.2757378568" lon="114.1483620425"><ele>418.000</ele></trkpt>
      <trkpt lat="22.2757431615" lon="114.1483515985"><ele>418.000</ele></trkpt>
      <trkpt lat="22.2757604782" lon="114.1483182208"><ele>420.000</ele></trkpt>
      <trkpt lat="22.2757879505" lon="114.1482886920"><ele>421.000</ele></trkpt>
      <trkpt lat="22.2758288741" lon="114.1482681907"><ele>419.000</ele></trkpt>
      <trkpt lat="22.2758697976" lon="114.1482476894"><ele>417.000</ele></trkpt>
      <trkpt lat="22.2759107211" lon="114.1482271880"><ele>421.000</ele></trkpt>
      <trkpt lat="22.2759109921" lon="114.1482270523"><ele>421.000</ele></trkpt>
      <trkpt lat="22.2759486239" lon="114.1482231945"><ele>420.000</ele></trkpt>
      <trkpt lat="22.2759937276" lon="114.1482254660"><ele>417.000</ele></trkpt>
      <trkpt lat="22.2759993983" lon="114.1482257515"><ele>417.000</ele></trkpt>
      <trkpt lat="22.2760226928" lon="114.1482154772"><ele>417.000</ele></trkpt>
      <trkpt lat="22.2760489709" lon="114.1481891574"><ele>419.000</ele></trkpt>
      <trkpt lat="22.2760820393" lon="114.1481561227"><ele>419.000</ele></trkpt>
      <trkpt lat="22.2761151076" lon="114.1481230880"><ele>420.000</ele></trkpt>
      <trkpt lat="22.2761481760" lon="114.1480900533"><ele>422.000</ele></trkpt>
      <trkpt lat="22.2761505008" lon="114.1480877308"><ele>422.000</ele></trkpt>
      <trkpt lat="22.2761875328" lon="114.1480678263"><ele>419.000</ele></trkpt>
      <trkpt lat="22.2762296098" lon="114.1480502258"><ele>421.000</ele></trkpt>
      <trkpt lat="22.2762716868" lon="114.1480326252"><ele>418.000</ele></trkpt>
      <trkpt lat="22.2763137638" lon="114.1480150246"><ele>415.000</ele></trkpt>
      <trkpt lat="22.2763517889" lon="114.1479991188"><ele>421.000</ele></trkpt>
      <trkpt lat="22.2763760534" lon="114.1479842450"><ele>417.000</ele></trkpt>
      <trkpt lat="22.2764125230" lon="114.1479556399"><ele>416.000</ele></trkpt>
      <trkpt lat="22.2764202504" lon="114.1479495788"><ele>421.000</ele></trkpt>
      <trkpt lat="22.2764611209" lon="114.1479289555"><ele>420.000</ele></trkpt>
      <trkpt lat="22.2764787845" lon="114.1479200424"><ele>420.000</ele></trkpt>
      <trkpt lat="22.2765238761" lon="114.1479225747"><ele>419.000</ele></trkpt>
      <trkpt lat="22.2765689678" lon="114.1479251069"><ele>418.000</ele></trkpt>
      <trkpt lat="22.2766140595" lon="114.1479276392"><ele>420.000</ele></trkpt>
      <trkpt lat="22.2766591511" lon="114.1479301714"><ele>421.000</ele></trkpt>
      <trkpt lat="22.2767042428" lon="114.1479327037"><ele>422.000</ele></trkpt>
      <trkpt lat="22.2767493344" lon="114.1479352360"><ele>425.000</ele></trkpt>
      <trkpt lat="22.2767763823" lon="114.1479367549"><ele>426.000</ele></trkpt>
      <trkpt lat="22.2768055372" lon="114.1479644753"><ele>424.000</ele></trkpt>
      <trkpt lat="22.2768400922" lon="114.1479957042"><ele>424.000</ele></trkpt>
      <trkpt lat="22.2768447293" lon="114.1479998950"><ele>424.000</ele></trkpt>
      <trkpt lat="22.2768888199" lon="114.1480103580"><ele>425.000</ele></trkpt>
      <trkpt lat="22.2768901291" lon="114.1480106687"><ele>425.000</ele></trkpt>
      <trkpt lat="22.2769288368" lon="114.1480086066"><ele>426.000</ele></trkpt>
      <trkpt lat="22.2769739883" lon="114.1480090304"><ele>425.000</ele></trkpt>
      <trkpt lat="22.2769823588" lon="114.1480091089"><ele>425.000</ele></trkpt>
      <trkpt lat="22.2770229807" lon="114.1480260450"><ele>426.000</ele></trkpt>
      <trkpt lat="22.2770544687" lon="114.1480608170"><ele>423.000</ele></trkpt>
      <trkpt lat="22.2770569164" lon="114.1480635199"><ele>423.000</ele></trkpt>
      <trkpt lat="22.2770908503" lon="114.1480912395"><ele>423.000</ele></trkpt>
      <trkpt lat="22.2771324330" lon="114.1481101478"><ele>421.000</ele></trkpt>
      <trkpt lat="22.2771438978" lon="114.1481153611"><ele>421.000</ele></trkpt>
      <trkpt lat="22.2771889293" lon="114.1481189208"><ele>422.000</ele></trkpt>
      <trkpt lat="22.2772021996" lon="114.1481199698"><ele>422.000</ele></trkpt>
      <trkpt lat="22.2772464890" lon="114.1481105256"><ele>421.000</ele></trkpt>
      <trkpt lat="22.2772576303" lon="114.1481081498"><ele>418.000</ele></trkpt>
      <trkpt lat="22.2772934681" lon="114.1480911981"><ele>422.000</ele></trkpt>
      <trkpt lat="22.2773278695" lon="114.1480614104"><ele>419.000</ele></trkpt>
      <trkpt lat="22.2773595405" lon="114.1480268308"><ele>421.000</ele></trkpt>
      <trkpt lat="22.2773912116" lon="114.1479922513"><ele>424.000</ele></trkpt>
      <trkpt lat="22.2774228826" lon="114.1479576717"><ele>420.000</ele></trkpt>
      <trkpt lat="22.2774545536" lon="114.1479230921"><ele>418.000</ele></trkpt>
      <trkpt lat="22.2774862246" lon="114.1478885125"><ele>419.000</ele></trkpt>
      <trkpt lat="22.2775094260" lon="114.1478631802"><ele>419.000</ele></trkpt>
      <trkpt lat="22.2775341726" lon="114.1478226000"><ele>421.000</ele></trkpt>
      <trkpt lat="22.2775589193" lon="114.1477820198"><ele>423.000</ele></trkpt>
      <trkpt lat="22.2775748754" lon="114.1477558546"><ele>421.000</ele></trkpt>
      <trkpt lat="22.2775957249" lon="114.1477128210"><ele>421.000</ele></trkpt>
      <trkpt lat="22.2775987598" lon="114.1477065570"><ele>423.000</ele></trkpt>
      <trkpt lat="22.2776095470" lon="114.1476594464"><ele>426.000</ele></trkpt>
      <trkpt lat="22.2776203341" lon="114.1476123358"><ele>424.000</ele></trkpt>
      <trkpt lat="22.2776221570" lon="114.1476043748"><ele>424.000</ele></trkpt>
      <trkpt lat="22.2776412220" lon="114.1475603961"><ele>426.000</ele></trkpt>
      <trkpt lat="22.2776450853" lon="114.1475514844"><ele>426.000</ele></trkpt>
      <trkpt lat="22.2776695119" lon="114.1475106809"><ele>424.000</ele></trkpt>
      <trkpt lat="22.2776804377" lon="114.1474924298"><ele>424.000</ele></trkpt>
      <trkpt lat="22.2777024151" lon="114.1474698326"><ele>424.000</ele></trkpt>
      <trkpt lat="22.2777320422" lon="114.1474616108"><ele>422.000</ele></trkpt>
      <trkpt lat="22.2777654891" lon="114.1474420928"><ele>418.000</ele></trkpt>
      <trkpt lat="22.2777869860" lon="114.1473994714"><ele>420.000</ele></trkpt>
      <trkpt lat="22.2777965374" lon="114.1473676355"><ele>423.000</ele></trkpt>
      <trkpt lat="22.2778001927" lon="114.1473192792"><ele>419.000</ele></trkpt>
      <trkpt lat="22.2778038480" lon="114.1472709230"><ele>420.000</ele></trkpt>
      <trkpt lat="22.2778075033" lon="114.1472225668"><ele>421.000</ele></trkpt>
      <trkpt lat="22.2778111586" lon="114.1471742105"><ele>421.000</ele></trkpt>
      <trkpt lat="22.2778148139" lon="114.1471258543"><ele>422.000</ele></trkpt>
      <trkpt lat="22.2778184669" lon="114.1470775277"><ele>424.000</ele></trkpt>
      <trkpt lat="22.2778241937" lon="114.1470359361"><ele>424.000</ele></trkpt>
      <trkpt lat="22.2778407172" lon="114.1469907858"><ele>426.000</ele></trkpt>
      <trkpt lat="22.2778471200" lon="114.1469732900"><ele>423.000</ele></trkpt>
      <trkpt lat="22.2778720615" lon="114.1469328476"><ele>424.000</ele></trkpt>
      <trkpt lat="22.2778753062" lon="114.1469275863"><ele>424.000</ele></trkpt>
      <trkpt lat="22.2779030168" lon="114.1468936923"><ele>420.000</ele></trkpt>
      <trkpt lat="22.2779416976" lon="114.1468686639"><ele>418.000</ele></trkpt>
      <trkpt lat="22.2779522315" lon="114.1468618479"><ele>418.000</ele></trkpt>
      <trkpt lat="22.2779960118" lon="114.1468499755"><ele>416.000</ele></trkpt>
      <trkpt lat="22.2780071838" lon="114.1468469458"><ele>416.000</ele></trkpt>
      <trkpt lat="22.2780506710" lon="114.1468479631"><ele>415.000</ele></trkpt>
      <trkpt lat="22.2780850778" lon="114.1468479558"><ele>414.000</ele></trkpt>
      <trkpt lat="22.2781132695" lon="114.1468325461"><ele>417.000</ele></trkpt>
      <trkpt lat="22.2781479047" lon="114.1468014197"><ele>414.000</ele></trkpt>
      <trkpt lat="22.2781715598" lon="114.1467801611"><ele>414.000</ele></trkpt>
      <trkpt lat="22.2781968144" lon="114.1467399436"><ele>416.000</ele></trkpt>
      <trkpt lat="22.2782220690" lon="114.1466997261"><ele>414.000</ele></trkpt>
      <trkpt lat="22.2782473235" lon="114.1466595087"><ele>415.000</ele></trkpt>
      <trkpt lat="22.2782618513" lon="114.1466363735"><ele>414.000</ele></trkpt>
      <trkpt lat="22.2782903175" lon="114.1465987137"><ele>414.000</ele></trkpt>
      <trkpt lat="22.2782991161" lon="114.1465870736"><ele>414.000</ele></trkpt>
      <trkpt lat="22.2783363558" lon="114.1465596375"><ele>414.000</ele></trkpt>
      <trkpt lat="22.2783416409" lon="114.1465557437"><ele>412.000</ele></trkpt>
      <trkpt lat="22.2783779559" lon="114.1465413588"><ele>414.000</ele></trkpt>
      <trkpt lat="22.2784032815" lon="114.1465321111"><ele>412.000</ele></trkpt>
      <trkpt lat="22.2784243051" lon="114.1465146486"><ele>412.000</ele></trkpt>
      <trkpt lat="22.2784429365" lon="114.1464869179"><ele>412.000</ele></trkpt>
      <trkpt lat="22.2784538279" lon="114.1464398347"><ele>413.000</ele></trkpt>
      <trkpt lat="22.2784647192" lon="114.1463927515"><ele>415.000</ele></trkpt>
      <trkpt lat="22.2784668113" lon="114.1463837072"><ele>415.000</ele></trkpt>
      <trkpt lat="22.2784700706" lon="114.1463353181"><ele>415.000</ele></trkpt>
      <trkpt lat="22.2784710998" lon="114.1463200382"><ele>415.000</ele></trkpt>
      <trkpt lat="22.2784631244" lon="114.1462722853"><ele>415.000</ele></trkpt>
      <trkpt lat="22.2784620101" lon="114.1462656133"><ele>415.000</ele></trkpt>
      <trkpt lat="22.2784454862" lon="114.1462204630"><ele>414.000</ele></trkpt>
      <trkpt lat="22.2784289622" lon="114.1461753127"><ele>420.000</ele></trkpt>
      <trkpt lat="22.2784137201" lon="114.1461336650"><ele>419.000</ele></trkpt>
      <trkpt lat="22.2784034030" lon="114.1460864328"><ele>417.000</ele></trkpt>
      <trkpt lat="22.2783974581" lon="114.1460592164"><ele>414.000</ele></trkpt>
      <trkpt lat="22.2783945317" lon="114.1460108027"><ele>414.000</ele></trkpt>
      <trkpt lat="22.2783931442" lon="114.1459878469"><ele>414.000</ele></trkpt>
      <trkpt lat="22.2784003155" lon="114.1459399470"><ele>413.000</ele></trkpt>
      <trkpt lat="22.2784045985" lon="114.1459113390"><ele>414.000</ele></trkpt>
      <trkpt lat="22.2784079347" lon="114.1458651271"><ele>416.000</ele></trkpt>
      <trkpt lat="22.2784041031" lon="114.1458184035"><ele>416.000</ele></trkpt>
      <trkpt lat="22.2783986993" lon="114.1457702365"><ele>412.000</ele></trkpt>
      <trkpt lat="22.2783956296" lon="114.1457428752"><ele>412.000</ele></trkpt>
      <trkpt lat="22.2783992062" lon="114.1457028247"><ele>410.000</ele></trkpt>
      <trkpt lat="22.2784110249" lon="114.1456560004"><ele>409.000</ele></trkpt>
      <trkpt lat="22.2784128150" lon="114.1456489081"><ele>409.000</ele></trkpt>
      <trkpt lat="22.2784199771" lon="114.1456157888"><ele>410.000</ele></trkpt>
      <trkpt lat="22.2784232792" lon="114.1455674030"><ele>409.000</ele></trkpt>
      <trkpt lat="22.2784235513" lon="114.1455634153"><ele>409.000</ele></trkpt>
      <trkpt lat="22.2784140345" lon="114.1455159894"><ele>407.000</ele></trkpt>
      <trkpt lat="22.2784135059" lon="114.1455133552"><ele>407.000</ele></trkpt>
      <trkpt lat="22.2783955851" lon="114.1454688243"><ele>407.000</ele></trkpt>
      <trkpt lat="22.2783776643" lon="114.1454242934"><ele>415.000</ele></trkpt>
      <trkpt lat="22.2783597434" lon="114.1453797625"><ele>414.000</ele></trkpt>
      <trkpt lat="22.2783518314" lon="114.1453601021"><ele>414.000</ele></trkpt>
      <trkpt lat="22.2783587530" lon="114.1453121598"><ele>413.000</ele></trkpt>
      <trkpt lat="22.2783656746" lon="114.1452642176"><ele>412.000</ele></trkpt>
      <trkpt lat="22.2783725963" lon="114.1452162753"><ele>412.000</ele></trkpt>
      <trkpt lat="22.2783747384" lon="114.1452014381"><ele>412.000</ele></trkpt>
      <trkpt lat="22.2783833328" lon="114.1451644672"><ele>412.000</ele></trkpt>
      <trkpt lat="22.2783697731" lon="114.1451181909"><ele>411.000</ele></trkpt>
      <trkpt lat="22.2783562134" lon="114.1450719145"><ele>410.000</ele></trkpt>
      <trkpt lat="22.2783431649" lon="114.1450273827"><ele>409.000</ele></trkpt>
      <trkpt lat="22.2783309754" lon="114.1450096714"><ele>413.000</ele></trkpt>
      <trkpt lat="22.2782939953" lon="114.1449818329"><ele>414.000</ele></trkpt>
      <trkpt lat="22.2782570152" lon="114.1449539944"><ele>414.000</ele></trkpt>
      <trkpt lat="22.2782542651" lon="114.1449519241"><ele>414.000</ele></trkpt>
      <trkpt lat="22.2782204846" lon="114.1449197315"><ele>411.000</ele></trkpt>
      <trkpt lat="22.2782033625" lon="114.1449034142"><ele>411.000</ele></trkpt>
      <trkpt lat="22.2781641892" lon="114.1448792861"><ele>406.000</ele></trkpt>
      <trkpt lat="22.2781546137" lon="114.1448733883"><ele>406.000</ele></trkpt>
      <trkpt lat="22.2781110784" lon="114.1448605177"><ele>409.000</ele></trkpt>
      <trkpt lat="22.2781051509" lon="114.1448587653"><ele>409.000</ele></trkpt>
      <trkpt lat="22.2780600262" lon="114.1448570441"><ele>413.000</ele></trkpt>
      <trkpt lat="22.2780449387" lon="114.1448564687"><ele>413.000</ele></trkpt>
      <trkpt lat="22.2779998681" lon="114.1448594011"><ele>414.000</ele></trkpt>
      <trkpt lat="22.2779617902" lon="114.1448618786"><ele>414.000</ele></trkpt>
      <trkpt lat="22.2779174910" lon="114.1448524871"><ele>416.000</ele></trkpt>
      <trkpt lat="22.2779037261" lon="114.1448495689"><ele>416.000</ele></trkpt>
      <trkpt lat="22.2778630653" lon="114.1448284725"><ele>416.000</ele></trkpt>
      <trkpt lat="22.2778399236" lon="114.1448164657"><ele>418.000</ele></trkpt>
      <trkpt lat="22.2778072663" lon="114.1447829619"><ele>415.000</ele></trkpt>
      <trkpt lat="22.2777918880" lon="114.1447671849"><ele>417.000</ele></trkpt>
      <trkpt lat="22.2777655467" lon="114.1447277806"><ele>414.000</ele></trkpt>
      <trkpt lat="22.2777517349" lon="114.1447071193"><ele>417.000</ele></trkpt>
      <trkpt lat="22.2777286097" lon="114.1446654496"><ele>416.000</ele></trkpt>
      <trkpt lat="22.2777054845" lon="114.1446237799"><ele>418.000</ele></trkpt>
      <trkpt lat="22.2776823593" lon="114.1445821102"><ele>416.000</ele></trkpt>
      <trkpt lat="22.2776592341" lon="114.1445404405"><ele>416.000</ele></trkpt>
      <trkpt lat="22.2776448923" lon="114.1445145977"><ele>416.000</ele></trkpt>
      <trkpt lat="22.2776279350" lon="114.1444696335"><ele>414.000</ele></trkpt>
      <trkpt lat="22.2776109778" lon="114.1444246693"><ele>413.000</ele></trkpt>
      <trkpt lat="22.2776097499" lon="114.1444214135"><ele>413.000</ele></trkpt>
      <trkpt lat="22.2775998899" lon="114.1443740689"><ele>412.000</ele></trkpt>
      <trkpt lat="22.2775961168" lon="114.1443559519"><ele>410.000</ele></trkpt>
      <trkpt lat="22.2775919186" lon="114.1443076466"><ele>407.000</ele></trkpt>
      <trkpt lat="22.2775877203" lon="114.1442593414"><ele>406.000</ele></trkpt>
      <trkpt lat="22.2775853401" lon="114.1442319548"><ele>406.000</ele></trkpt>
      <trkpt lat="22.2775810357" lon="114.1442119306"><ele>406.000</ele></trkpt>
      <trkpt lat="22.2775573629" lon="114.1441706175"><ele>408.000</ele></trkpt>
      <trkpt lat="22.2775466169" lon="114.1441518639"><ele>408.000</ele></trkpt>
      <trkpt lat="22.2775250214" lon="114.1441092572"><ele>411.000</ele></trkpt>
      <trkpt lat="22.2775157813" lon="114.1440910270"><ele>411.000</ele></trkpt>
      <trkpt lat="22.2775081233" lon="114.1440432145"><ele>410.000</ele></trkpt>
      <trkpt lat="22.2775078867" lon="114.1440417372"><ele>410.000</ele></trkpt>
      <trkpt lat="22.2775080121" lon="114.1439932220"><ele>410.000</ele></trkpt>
      <trkpt lat="22.2775081375" lon="114.1439447069"><ele>410.000</ele></trkpt>
      <trkpt lat="22.2775082629" lon="114.1438961917"><ele>409.000</ele></trkpt>
      <trkpt lat="22.2775083883" lon="114.1438476765"><ele>408.000</ele></trkpt>
      <trkpt lat="22.2775085137" lon="114.1437991613"><ele>407.000</ele></trkpt>
      <trkpt lat="22.2775085516" lon="114.1437844959"><ele>407.000</ele></trkpt>
      <trkpt lat="22.2775158904" lon="114.1437366257"><ele>407.000</ele></trkpt>
      <trkpt lat="22.2775200053" lon="114.1437097854"><ele>407.000</ele></trkpt>
      <trkpt lat="22.2775343558" lon="114.1436637855"><ele>404.000</ele></trkpt>
      <trkpt lat="22.2775487064" lon="114.1436177856"><ele>404.000</ele></trkpt>
      <trkpt lat="22.2775579714" lon="114.1435880873"><ele>404.000</ele></trkpt>
      <trkpt lat="22.2775673442" lon="114.1435406286"><ele>404.000</ele></trkpt>
      <trkpt lat="22.2775767170" lon="114.1434931699"><ele>403.000</ele></trkpt>
      <trkpt lat="22.2775860898" lon="114.1434457113"><ele>402.000</ele></trkpt>
      <trkpt lat="22.2775873293" lon="114.1434394350"><ele>402.000</ele></trkpt>
      <trkpt lat="22.2775938354" lon="114.1433914258"><ele>402.000</ele></trkpt>
      <trkpt lat="22.2776003414" lon="114.1433434167"><ele>402.000</ele></trkpt>
      <trkpt lat="22.2776068475" lon="114.1432954076"><ele>401.000</ele></trkpt>
      <trkpt lat="22.2776133535" lon="114.1432473984"><ele>400.000</ele></trkpt>
      <trkpt lat="22.2776198596" lon="114.1431993893"><ele>398.000</ele></trkpt>
      <trkpt lat="22.2776223997" lon="114.1431806454"><ele>398.000</ele></trkpt>
      <trkpt lat="22.2776071927" lon="114.1431349642"><ele>398.000</ele></trkpt>
      <trkpt lat="22.2775919858" lon="114.1430892830"><ele>397.000</ele></trkpt>
      <trkpt lat="22.2775767789" lon="114.1430436018"><ele>397.000</ele></trkpt>
      <trkpt lat="22.2775615719" lon="114.1429979206"><ele>400.000</ele></trkpt>
      <trkpt lat="22.2775585638" lon="114.1429888842"><ele>400.000</ele></trkpt>
      <trkpt lat="22.2775512915" lon="114.1429410022"><ele>399.000</ele></trkpt>
      <trkpt lat="22.2775440192" lon="114.1428931202"><ele>397.000</ele></trkpt>
      <trkpt lat="22.2775427728" lon="114.1428849137"><ele>397.000</ele></trkpt>
      <trkpt lat="22.2775334445" lon="114.1428394755"><ele>395.000</ele></trkpt>
      <trkpt lat="22.2775156114" lon="114.1427949042"><ele>397.000</ele></trkpt>
      <trkpt lat="22.2774977783" lon="114.1427503330"><ele>396.000</ele></trkpt>
      <trkpt lat="22.2774799452" lon="114.1427057617"><ele>397.000</ele></trkpt>
      <trkpt lat="22.2774621121" lon="114.1426611905"><ele>396.000</ele></trkpt>
      <trkpt lat="22.2774502513" lon="114.1426315462"><ele>396.000</ele></trkpt>
      <trkpt lat="22.2774229533" lon="114.1425929009"><ele>397.000</ele></trkpt>
      <trkpt lat="22.2774187023" lon="114.1425868829"><ele>397.000</ele></trkpt>
      <trkpt lat="22.2773833786" lon="114.1425566631"><ele>397.000</ele></trkpt>
      <trkpt lat="22.2773764024" lon="114.1425506949"><ele>397.000</ele></trkpt>
      <trkpt lat="22.2773374515" lon="114.1425261548"><ele>397.000</ele></trkpt>
      <trkpt lat="22.2772985007" lon="114.1425016148"><ele>396.000</ele></trkpt>
      <trkpt lat="22.2772595498" lon="114.1424770747"><ele>396.000</ele></trkpt>
      <trkpt lat="22.2772205989" lon="114.1424525347"><ele>396.000</ele></trkpt>
      <trkpt lat="22.2771816480" lon="114.1424279946"><ele>398.000</ele></trkpt>
      <trkpt lat="22.2771426971" lon="114.1424034546"><ele>398.000</ele></trkpt>
      <trkpt lat="22.2771075642" lon="114.1423813200"><ele>400.000</ele></trkpt>
      <trkpt lat="22.2770729834" lon="114.1423501240"><ele>399.000</ele></trkpt>
      <trkpt lat="22.2770384026" lon="114.1423189281"><ele>396.000</ele></trkpt>
      <trkpt lat="22.2770038218" lon="114.1422877322"><ele>399.000</ele></trkpt>
      <trkpt lat="22.2770000220" lon="114.1422843043"><ele>399.000</ele></trkpt>
      <trkpt lat="22.2769634805" lon="114.1422558053"><ele>398.000</ele></trkpt>
      <trkpt lat="22.2769269390" lon="114.1422273063"><ele>397.000</ele></trkpt>
      <trkpt lat="22.2768903974" lon="114.1421988073"><ele>400.000</ele></trkpt>
      <trkpt lat="22.2768538559" lon="114.1421703084"><ele>397.000</ele></trkpt>
      <trkpt lat="22.2768173143" lon="114.1421418094"><ele>399.000</ele></trkpt>
      <trkpt lat="22.2767807728" lon="114.1421133105"><ele>398.000</ele></trkpt>
      <trkpt lat="22.2767442312" lon="114.1420848116"><ele>400.000</ele></trkpt>
      <trkpt lat="22.2767076896" lon="114.1420563126"><ele>398.000</ele></trkpt>
      <trkpt lat="22.2766711480" lon="114.1420278138"><ele>395.000</ele></trkpt>
      <trkpt lat="22.2766346065" lon="114.1419993149"><ele>397.000</ele></trkpt>
      <trkpt lat="22.2765980649" lon="114.1419708160"><ele>397.000</ele></trkpt>
      <trkpt lat="22.2765705823" lon="114.1419493823"><ele>399.000</ele></trkpt>
      <trkpt lat="22.2765304718" lon="114.1419271032"><ele>396.000</ele></trkpt>
      <trkpt lat="22.2765290021" lon="114.1419262869"><ele>396.000</ele></trkpt>
      <trkpt lat="22.2764874252" lon="114.1419185959"><ele>396.000</ele></trkpt>
      <trkpt lat="22.2764422820" lon="114.1419175728"><ele>397.000</ele></trkpt>
      <trkpt lat="22.2763971389" lon="114.1419165498"><ele>398.000</ele></trkpt>
      <trkpt lat="22.2763519957" lon="114.1419155267"><ele>399.000</ele></trkpt>
      <trkpt lat="22.2763068525" lon="114.1419145037"><ele>399.000</ele></trkpt>
      <trkpt lat="22.2762617094" lon="114.1419134806"><ele>399.000</ele></trkpt>
      <trkpt lat="22.2762165662" lon="114.1419124575"><ele>399.000</ele></trkpt>
      <trkpt lat="22.2761714231" lon="114.1419114345"><ele>401.000</ele></trkpt>
      <trkpt lat="22.2761512408" lon="114.1419109771"><ele>402.000</ele></trkpt>
      <trkpt lat="22.2761218508" lon="114.1419079037"><ele>401.000</ele></trkpt>
      <trkpt lat="22.2760797001" lon="114.1418905079"><ele>401.000</ele></trkpt>
      <trkpt lat="22.2760375494" lon="114.1418731120"><ele>398.000</ele></trkpt>
      <trkpt lat="22.2759953987" lon="114.1418557162"><ele>392.000</ele></trkpt>
      <trkpt lat="22.2759532480" lon="114.1418383204"><ele>389.000</ele></trkpt>
      <trkpt lat="22.2759110973" lon="114.1418209246"><ele>396.000</ele></trkpt>
      <trkpt lat="22.2758924521" lon="114.1418132297"><ele>399.000</ele></trkpt>
      <trkpt lat="22.2758488021" lon="114.1418008159"><ele>402.000</ele></trkpt>
      <trkpt lat="22.2758051521" lon="114.1417884021"><ele>400.000</ele></trkpt>
      <trkpt lat="22.2757615020" lon="114.1417759883"><ele>401.000</ele></trkpt>
      <trkpt lat="22.2757178520" lon="114.1417635746"><ele>402.000</ele></trkpt>
      <trkpt lat="22.2756742019" lon="114.1417511608"><ele>403.000</ele></trkpt>
      <trkpt lat="22.2756305519" lon="114.1417387471"><ele>399.000</ele></trkpt>
      <trkpt lat="22.2756164633" lon="114.1417347404"><ele>399.000</ele></trkpt>
      <trkpt lat="22.2755784685" lon="114.1417170362"><ele>400.000</ele></trkpt>
      <trkpt lat="22.2755505101" lon="114.1417024102"><ele>400.000</ele></trkpt>
      <trkpt lat="22.2755220399" lon="114.1416647545"><ele>402.000</ele></trkpt>
      <trkpt lat="22.2754935697" lon="114.1416270989"><ele>410.000</ele></trkpt>
      <trkpt lat="22.2754650996" lon="114.1415894433"><ele>411.000</ele></trkpt>
      <trkpt lat="22.2754366294" lon="114.1415517877"><ele>414.000</ele></trkpt>
      <trkpt lat="22.2754142772" lon="114.1415222239"><ele>414.000</ele></trkpt>
      <trkpt lat="22.2753920502" lon="114.1414799943"><ele>415.000</ele></trkpt>
      <trkpt lat="22.2753863104" lon="114.1414690890"><ele>415.000</ele></trkpt>
      <trkpt lat="22.2753793297" lon="114.1414211576"><ele>412.000</ele></trkpt>
      <trkpt lat="22.2753791320" lon="114.1414197999"><ele>412.000</ele></trkpt>
      <trkpt lat="22.2753772411" lon="114.1413713278"><ele>408.000</ele></trkpt>
      <trkpt lat="22.2753769688" lon="114.1413643482"><ele>408.000</ele></trkpt>
      <trkpt lat="22.2753795791" lon="114.1413159147"><ele>403.000</ele></trkpt>
      <trkpt lat="22.2753805386" lon="114.1412981122"><ele>396.000</ele></trkpt>
      <trkpt lat="22.2753791608" lon="114.1412496202"><ele>392.000</ele></trkpt>
      <trkpt lat="22.2753790943" lon="114.1412472809"><ele>392.000</ele></trkpt>
      <trkpt lat="22.2753651158" lon="114.1412011496"><ele>390.000</ele></trkpt>
      <trkpt lat="22.2753597258" lon="114.1411833620"><ele>390.000</ele></trkpt>
      <trkpt lat="22.2753412637" lon="114.1411390880"><ele>392.000</ele></trkpt>
      <trkpt lat="22.2753228016" lon="114.1410948141"><ele>391.000</ele></trkpt>
      <trkpt lat="22.2753043394" lon="114.1410505402"><ele>394.000</ele></trkpt>
      <trkpt lat="22.2752951796" lon="114.1410285740"><ele>394.000</ele></trkpt>
      <trkpt lat="22.2752776252" lon="114.1409838759"><ele>396.000</ele></trkpt>
      <trkpt lat="22.2752600709" lon="114.1409391777"><ele>403.000</ele></trkpt>
      <trkpt lat="22.2752425166" lon="114.1408944796"><ele>404.000</ele></trkpt>
      <trkpt lat="22.2752249622" lon="114.1408497815"><ele>400.000</ele></trkpt>
      <trkpt lat="22.2752198722" lon="114.1408368209"><ele>406.000</ele></trkpt>
      <trkpt lat="22.2752066940" lon="114.1407904185"><ele>402.000</ele></trkpt>
      <trkpt lat="22.2752019378" lon="114.1407736711"><ele>398.000</ele></trkpt>
      <trkpt lat="22.2751983451" lon="114.1407359335"><ele>398.000</ele></trkpt>
      <trkpt lat="22.2752051732" lon="114.1406879769"><ele>395.000</ele></trkpt>
      <trkpt lat="22.2752119430" lon="114.1406404291"><ele>392.000</ele></trkpt>
      <trkpt lat="22.2752206026" lon="114.1405928151"><ele>390.000</ele></trkpt>
      <trkpt lat="22.2752248302" lon="114.1405695702"><ele>382.000</ele></trkpt>
      <trkpt lat="22.2752231356" lon="114.1405210898"><ele>380.000</ele></trkpt>
      <trkpt lat="22.2752214410" lon="114.1404726094"><ele>383.000</ele></trkpt>
      <trkpt lat="22.2752212228" lon="114.1404663680"><ele>383.000</ele></trkpt>
      <trkpt lat="22.2752104606" lon="114.1404201607"><ele>381.000</ele></trkpt>
      <trkpt lat="22.2751860486" lon="114.1403793479"><ele>380.000</ele></trkpt>
      <trkpt lat="22.2751616365" lon="114.1403385351"><ele>384.000</ele></trkpt>
      <trkpt lat="22.2751473579" lon="114.1403146637"><ele>383.000</ele></trkpt>
      <trkpt lat="22.2751246078" lon="114.1402727570"><ele>384.000</ele></trkpt>
      <trkpt lat="22.2751018578" lon="114.1402308503"><ele>383.000</ele></trkpt>
      <trkpt lat="22.2750791077" lon="114.1401889436"><ele>383.000</ele></trkpt>
      <trkpt lat="22.2750563576" lon="114.1401470370"><ele>383.000</ele></trkpt>
      <trkpt lat="22.2750541338" lon="114.1401429406"><ele>382.000</ele></trkpt>
      <trkpt lat="22.2750384977" lon="114.1400974278"><ele>383.000</ele></trkpt>
      <trkpt lat="22.2750228616" lon="114.1400519150"><ele>382.000</ele></trkpt>
      <trkpt lat="22.2750218560" lon="114.1400489881"><ele>382.000</ele></trkpt>
      <trkpt lat="22.2750096461" lon="114.1400022810"><ele>382.000</ele></trkpt>
      <trkpt lat="22.2749974363" lon="114.1399555738"><ele>383.000</ele></trkpt>
      <trkpt lat="22.2749852264" lon="114.1399088667"><ele>384.000</ele></trkpt>
      <trkpt lat="22.2749823976" lon="114.1398980455"><ele>383.000</ele></trkpt>
      <trkpt lat="22.2749809424" lon="114.1398495562"><ele>383.000</ele></trkpt>
      <trkpt lat="22.2749795084" lon="114.1398017751"><ele>383.000</ele></trkpt>
      <trkpt lat="22.2749776594" lon="114.1397533013"><ele>383.000</ele></trkpt>
      <trkpt lat="22.2749758103" lon="114.1397048275"><ele>382.000</ele></trkpt>
      <trkpt lat="22.2749739612" lon="114.1396563537"><ele>382.000</ele></trkpt>
      <trkpt lat="22.2749721121" lon="114.1396078799"><ele>382.000</ele></trkpt>
      <trkpt lat="22.2749715762" lon="114.1395938314"><ele>382.000</ele></trkpt>
      <trkpt lat="22.2749703451" lon="114.1395453350"><ele>382.000</ele></trkpt>
      <trkpt lat="22.2749691139" lon="114.1394968385"><ele>381.000</ele></trkpt>
      <trkpt lat="22.2749678827" lon="114.1394483421"><ele>381.000</ele></trkpt>
      <trkpt lat="22.2749672356" lon="114.1394228549"><ele>381.000</ele></trkpt>
      <trkpt lat="22.2749599699" lon="114.1393749726"><ele>380.000</ele></trkpt>
      <trkpt lat="22.2749571855" lon="114.1393566227"><ele>380.000</ele></trkpt>
      <trkpt lat="22.2749485762" lon="114.1393235080"><ele>382.000</ele></trkpt>
      <trkpt lat="22.2749297386" lon="114.1392794171"><ele>382.000</ele></trkpt>
      <trkpt lat="22.2749124286" lon="114.1392389016"><ele>381.000</ele></trkpt>
      <trkpt lat="22.2748896996" lon="114.1391969818"><ele>384.000</ele></trkpt>
      <trkpt lat="22.2748669706" lon="114.1391550620"><ele>385.000</ele></trkpt>
      <trkpt lat="22.2748442416" lon="114.1391131423"><ele>389.000</ele></trkpt>
      <trkpt lat="22.2748215126" lon="114.1390712225"><ele>390.000</ele></trkpt>
      <trkpt lat="22.2747987835" lon="114.1390293028"><ele>392.000</ele></trkpt>
      <trkpt lat="22.2747760544" lon="114.1389873830"><ele>393.000</ele></trkpt>
      <trkpt lat="22.2747533254" lon="114.1389454633"><ele>396.000</ele></trkpt>
      <trkpt lat="22.2747305963" lon="114.1389035436"><ele>396.000</ele></trkpt>
      <trkpt lat="22.2747078672" lon="114.1388616239"><ele>396.000</ele></trkpt>
      <trkpt lat="22.2746851381" lon="114.1388197042"><ele>395.000</ele></trkpt>
      <trkpt lat="22.2746624090" lon="114.1387777846"><ele>395.000</ele></trkpt>
      <trkpt lat="22.2746396799" lon="114.1387358649"><ele>394.000</ele></trkpt>
      <trkpt lat="22.2746225947" lon="114.1387043545"><ele>397.000</ele></trkpt>
      <trkpt lat="22.2745954364" lon="114.1386655966"><ele>395.000</ele></trkpt>
      <trkpt lat="22.2745771815" lon="114.1386395449"><ele>395.000</ele></trkpt>
      <trkpt lat="22.2745431660" lon="114.1386076401"><ele>398.000</ele></trkpt>
      <trkpt lat="22.2745299806" lon="114.1385952728"><ele>398.000</ele></trkpt>
      <trkpt lat="22.2744882865" lon="114.1385766501"><ele>399.000</ele></trkpt>
      <trkpt lat="22.2744553056" lon="114.1385619191"><ele>399.000</ele></trkpt>
      <trkpt lat="22.2744102501" lon="114.1385587280"><ele>400.000</ele></trkpt>
      <trkpt lat="22.2743740655" lon="114.1385561651"><ele>399.000</ele></trkpt>
      <trkpt lat="22.2743291092" lon="114.1385606920"><ele>396.000</ele></trkpt>
      <trkpt lat="22.2743101517" lon="114.1385626009"><ele>392.000</ele></trkpt>
      <trkpt lat="22.2742658775" lon="114.1385721272"><ele>390.000</ele></trkpt>
      <trkpt lat="22.2742235414" lon="114.1385812365"><ele>390.000</ele></trkpt>
      <trkpt lat="22.2741807784" lon="114.1385968117"><ele>390.000</ele></trkpt>
      <trkpt lat="22.2741494775" lon="114.1386082121"><ele>390.000</ele></trkpt>
      <trkpt lat="22.2741073978" lon="114.1386258049"><ele>389.000</ele></trkpt>
      <trkpt lat="22.2740653180" lon="114.1386433977"><ele>391.000</ele></trkpt>
      <trkpt lat="22.2740232383" lon="114.1386609905"><ele>392.000</ele></trkpt>
      <trkpt lat="22.2739811585" lon="114.1386785832"><ele>392.000</ele></trkpt>
      <trkpt lat="22.2739390787" lon="114.1386961760"><ele>396.000</ele></trkpt>
      <trkpt lat="22.2738969990" lon="114.1387137687"><ele>395.000</ele></trkpt>
      <trkpt lat="22.2738549192" lon="114.1387313615"><ele>392.000</ele></trkpt>
      <trkpt lat="22.2738128395" lon="114.1387489542"><ele>392.000</ele></trkpt>
      <trkpt lat="22.2737707597" lon="114.1387665469"><ele>391.000</ele></trkpt>
      <trkpt lat="22.2737286799" lon="114.1387841396"><ele>390.000</ele></trkpt>
      <trkpt lat="22.2736866002" lon="114.1388017323"><ele>390.000</ele></trkpt>
      <trkpt lat="22.2736445204" lon="114.1388193250"><ele>390.000</ele></trkpt>
      <trkpt lat="22.2736149104" lon="114.1388317043"><ele>390.000</ele></trkpt>
      <trkpt lat="22.2735802677" lon="114.1388458331"><ele>391.000</ele></trkpt>
      <trkpt lat="22.2735404118" lon="114.1388686334"><ele>390.000</ele></trkpt>
      <trkpt lat="22.2735151663" lon="114.1388830755"><ele>392.000</ele></trkpt>
      <trkpt lat="22.2734794478" lon="114.1389127538"><ele>390.000</ele></trkpt>
      <trkpt lat="22.2734437292" lon="114.1389424321"><ele>392.000</ele></trkpt>
      <trkpt lat="22.2734080106" lon="114.1389721104"><ele>393.000</ele></trkpt>
      <trkpt lat="22.2733722920" lon="114.1390017887"><ele>395.000</ele></trkpt>
      <trkpt lat="22.2733365734" lon="114.1390314670"><ele>396.000</ele></trkpt>
      <trkpt lat="22.2733042270" lon="114.1390583433"><ele>397.000</ele></trkpt>
      <trkpt lat="22.2732688704" lon="114.1390885178"><ele>397.000</ele></trkpt>
      <trkpt lat="22.2732335138" lon="114.1391186923"><ele>394.000</ele></trkpt>
      <trkpt lat="22.2731981572" lon="114.1391488668"><ele>390.000</ele></trkpt>
      <trkpt lat="22.2731628006" lon="114.1391790413"><ele>388.000</ele></trkpt>
      <trkpt lat="22.2731274440" lon="114.1392092158"><ele>385.000</ele></trkpt>
      <trkpt lat="22.2730984837" lon="114.1392339314"><ele>387.000</ele></trkpt>
      <trkpt lat="22.2730629164" lon="114.1392638186"><ele>387.000</ele></trkpt>
      <trkpt lat="22.2730273491" lon="114.1392937059"><ele>395.000</ele></trkpt>
      <trkpt lat="22.2730136781" lon="114.1393051937"><ele>395.000</ele></trkpt>
      <trkpt lat="22.2729757018" lon="114.1393314372"><ele>396.000</ele></trkpt>
      <trkpt lat="22.2729718701" lon="114.1393340851"><ele>396.000</ele></trkpt>
      <trkpt lat="22.2729652977" lon="114.1393267069"><ele>396.000</ele></trkpt>
      <trkpt lat="22.2729709661" lon="114.1392984655"><ele>399.000</ele></trkpt>
      <trkpt lat="22.2729932016" lon="114.1392562419"><ele>399.000</ele></trkpt>
      <trkpt lat="22.2730029097" lon="114.1392378070"><ele>399.000</ele></trkpt>
      <trkpt lat="22.2730233603" lon="114.1391945543"><ele>389.000</ele></trkpt>
      <trkpt lat="22.2730438109" lon="114.1391513016"><ele>387.000</ele></trkpt>
      <trkpt lat="22.2730642615" lon="114.1391080489"><ele>393.000</ele></trkpt>
      <trkpt lat="22.2730667946" lon="114.1391026915"><ele>393.000</ele></trkpt>
      <trkpt lat="22.2730837433" lon="114.1390577250"><ele>395.000</ele></trkpt>
      <trkpt lat="22.2730897778" lon="114.1390417150"><ele>395.000</ele></trkpt>
      <trkpt lat="22.2731034194" lon="114.1389954682"><ele>392.000</ele></trkpt>
      <trkpt lat="22.2731073854" lon="114.1389820228"><ele>392.000</ele></trkpt>
      <trkpt lat="22.2731141981" lon="114.1389586188"><ele>391.000</ele></trkpt>
      <trkpt lat="22.2731048293" lon="114.1389570679"><ele>391.000</ele></trkpt>
      <trkpt lat="22.2730896696" lon="114.1389608085"><ele>392.000</ele></trkpt>
      <trkpt lat="22.2730456623" lon="114.1389716690"><ele>394.000</ele></trkpt>
      <trkpt lat="22.2730267305" lon="114.1389763412"><ele>394.000</ele></trkpt>
      <trkpt lat="22.2729844563" lon="114.1389933873"><ele>394.000</ele></trkpt>
      <trkpt lat="22.2729505163" lon="114.1390070728"><ele>393.000</ele></trkpt>
      <trkpt lat="22.2729094425" lon="114.1390236348"><ele>391.000</ele></trkpt>
      <trkpt lat="22.2728991115" lon="114.1390237929"><ele>391.000</ele></trkpt>
      <trkpt lat="22.2728615337" lon="114.1390506905"><ele>388.000</ele></trkpt>
      <trkpt lat="22.2728239559" lon="114.1390775882"><ele>388.000</ele></trkpt>
      <trkpt lat="22.2728223999" lon="114.1390787019"><ele>388.000</ele></trkpt>
      <trkpt lat="22.2727848227" lon="114.1391056005"><ele>388.000</ele></trkpt>
      <trkpt lat="22.2727804324" lon="114.1391087432"><ele>391.000</ele></trkpt>
      <trkpt lat="22.2727405971" lon="114.1391315848"><ele>389.000</ele></trkpt>
      <trkpt lat="22.2727007618" lon="114.1391544264"><ele>391.000</ele></trkpt>
      <trkpt lat="22.2726924676" lon="114.1391591822"><ele>389.000</ele></trkpt>
      <trkpt lat="22.2726514165" lon="114.1391686437"><ele>389.000</ele></trkpt>
      <trkpt lat="22.2726065403" lon="114.1391740095"><ele>385.000</ele></trkpt>
      <trkpt lat="22.2725986338" lon="114.1391749549"><ele>383.000</ele></trkpt>
      <trkpt lat="22.2725605086" lon="114.1391844156"><ele>383.000</ele></trkpt>
      <trkpt lat="22.2725253303" lon="114.1392064890"><ele>385.000</ele></trkpt>
      <trkpt lat="22.2724913896" lon="114.1392384852"><ele>385.000</ele></trkpt>
      <trkpt lat="22.2724848584" lon="114.1392446422"><ele>385.000</ele></trkpt>
      <trkpt lat="22.2724690592" lon="114.1392326247"><ele>385.000</ele></trkpt>
      <trkpt lat="22.2724447056" lon="114.1392298029"><ele>384.000</ele></trkpt>
      <trkpt lat="22.2724308848" lon="114.1392361706"><ele>384.000</ele></trkpt>
      <trkpt lat="22.2724150894" lon="114.1392404178"><ele>384.000</ele></trkpt>
      <trkpt lat="22.2723940284" lon="114.1392418381"><ele>384.000</ele></trkpt>
      <trkpt lat="22.2723488777" lon="114.1392423453"><ele>383.000</ele></trkpt>
      <trkpt lat="22.2723295263" lon="114.1392425627"><ele>383.000</ele></trkpt>
      <trkpt lat="22.2723018818" lon="114.1392390334"><ele>383.000</ele></trkpt>
      <trkpt lat="22.2722683129" lon="114.1392305564"><ele>383.000</ele></trkpt>
      <trkpt lat="22.2722465900" lon="114.1392199552"><ele>385.000</ele></trkpt>
      <trkpt lat="22.2722294761" lon="114.1392164241"><ele>385.000</ele></trkpt>
      <trkpt lat="22.2722031487" lon="114.1392150165"><ele>385.000</ele></trkpt>
      <trkpt lat="22.2721587908" lon="114.1392059511"><ele>384.000</ele></trkpt>
      <trkpt lat="22.2721478587" lon="114.1392037169"><ele>384.000</ele></trkpt>
      <trkpt lat="22.2721045176" lon="114.1391901109"><ele>383.000</ele></trkpt>
      <trkpt lat="22.2720780864" lon="114.1391818133"><ele>383.000</ele></trkpt>
      <trkpt lat="22.2720372791" lon="114.1391832389"><ele>383.000</ele></trkpt>
      <trkpt lat="22.2719936751" lon="114.1391958377"><ele>383.000</ele></trkpt>
      <trkpt lat="22.2719500710" lon="114.1392084364"><ele>384.000</ele></trkpt>
      <trkpt lat="22.2719490881" lon="114.1392087204"><ele>384.000</ele></trkpt>
      <trkpt lat="22.2719174994" lon="114.1392264072"><ele>382.000</ele></trkpt>
      <trkpt lat="22.2718727942" lon="114.1392332243"><ele>383.000</ele></trkpt>
      <trkpt lat="22.2718385201" lon="114.1392384509"><ele>383.000</ele></trkpt>
      <trkpt lat="22.2717948361" lon="114.1392507254"><ele>384.000</ele></trkpt>
      <trkpt lat="22.2717654661" lon="114.1392589779"><ele>385.000</ele></trkpt>
      <trkpt lat="22.2717232677" lon="114.1392762393"><ele>384.000</ele></trkpt>
      <trkpt lat="22.2717049195" lon="114.1392837447"><ele>384.000</ele></trkpt>
      <trkpt lat="22.2716891262" lon="114.1392971851"><ele>385.000</ele></trkpt>
      <trkpt lat="22.2716746477" lon="114.1393063823"><ele>385.000</ele></trkpt>
      <trkpt lat="22.2716371354" lon="114.1393226569"><ele>384.000</ele></trkpt>
      <trkpt lat="22.2716180496" lon="114.1393283196"><ele>384.000</ele></trkpt>
      <trkpt lat="22.2715943558" lon="114.1393318616"><ele>385.000</ele></trkpt>
      <trkpt lat="22.2715686855" lon="114.1393290391"><ele>385.000</ele></trkpt>
      <trkpt lat="22.2715245695" lon="114.1393187005"><ele>387.000</ele></trkpt>
      <trkpt lat="22.2715114209" lon="114.1393156191"><ele>387.000</ele></trkpt>
      <trkpt lat="22.2714831182" lon="114.1393127973"><ele>387.000</ele></trkpt>
      <trkpt lat="22.2714567916" lon="114.1393184620"><ele>387.000</ele></trkpt>
      <trkpt lat="22.2714196058" lon="114.1393331151"><ele>386.000</ele></trkpt>
      <trkpt lat="22.2713875495" lon="114.1393595226"><ele>386.000</ele></trkpt>
      <trkpt lat="22.2713429383" lon="114.1393520287"><ele>385.000</ele></trkpt>
      <trkpt lat="22.2713396853" lon="114.1393514822"><ele>385.000</ele></trkpt>
      <trkpt lat="22.2713123209" lon="114.1393451828"><ele>384.000</ele></trkpt>
      <trkpt lat="22.2713005801" lon="114.1393410138"><ele>384.000</ele></trkpt>
      <trkpt lat="22.2712843220" lon="114.1393280165"><ele>385.000</ele></trkpt>
      <trkpt lat="22.2712674303" lon="114.1393092949"><ele>386.000</ele></trkpt>
      <trkpt lat="22.2712584801" lon="114.1392666057"><ele>385.000</ele></trkpt>
      <trkpt lat="22.2712517944" lon="114.1392532178"><ele>385.000</ele></trkpt>
      <trkpt lat="22.2712462843" lon="114.1392474947"><ele>385.000</ele></trkpt>
      <trkpt lat="22.2712391492" lon="114.1392432275"><ele>385.000</ele></trkpt>
      <trkpt lat="22.2712312017" lon="114.1392411921"><ele>385.000</ele></trkpt>
      <trkpt lat="22.2711863554" lon="114.1392355454"><ele>386.000</ele></trkpt>
      <trkpt lat="22.2711789127" lon="114.1392346082"><ele>386.000</ele></trkpt>
      <trkpt lat="22.2711670818" lon="114.1392311184"><ele>386.000</ele></trkpt>
      <trkpt lat="22.2711464894" lon="114.1392203540"><ele>386.000</ele></trkpt>
      <trkpt lat="22.2711108638" lon="114.1391905474"><ele>388.000</ele></trkpt>
      <trkpt lat="22.2711015081" lon="114.1391827198"><ele>388.000</ele></trkpt>
      <trkpt lat="22.2710927455" lon="114.1391703028"><ele>389.000</ele></trkpt>
      <trkpt lat="22.2710856081" lon="114.1391567210"><ele>389.000</ele></trkpt>
      <trkpt lat="22.2710803670" lon="114.1391421685"><ele>389.000</ele></trkpt>
      <trkpt lat="22.2710714901" lon="114.1390946021"><ele>390.000</ele></trkpt>
      <trkpt lat="22.2710680600" lon="114.1390762220"><ele>393.000</ele></trkpt>
      <trkpt lat="22.2710665218" lon="114.1390515283"><ele>393.000</ele></trkpt>
      <trkpt lat="22.2710500952" lon="114.1390212906"><ele>395.000</ele></trkpt>
      <trkpt lat="22.2710465707" lon="114.1389948286"><ele>395.000</ele></trkpt>
      <trkpt lat="22.2710171770" lon="114.1389580025"><ele>396.000</ele></trkpt>
      <trkpt lat="22.2710113753" lon="114.1389507338"><ele>396.000</ele></trkpt>
      <trkpt lat="22.2710113639" lon="114.1389022207"><ele>398.000</ele></trkpt>
      <trkpt lat="22.2710113564" lon="114.1388700865"><ele>399.000</ele></trkpt>
      <trkpt lat="22.2709849103" lon="114.1388307652"><ele>400.000</ele></trkpt>
      <trkpt lat="22.2709808520" lon="114.1388247311"><ele>400.000</ele></trkpt>
      <trkpt lat="22.2709714636" lon="114.1388007915"><ele>399.000</ele></trkpt>
      <trkpt lat="22.2709667616" lon="114.1387554281"><ele>400.000</ele></trkpt>
      <trkpt lat="22.2709761367" lon="114.1387226627"><ele>400.000</ele></trkpt>
      <trkpt lat="22.2710091761" lon="114.1386895958"><ele>402.000</ele></trkpt>
      <trkpt lat="22.2710422155" lon="114.1386565289"><ele>403.000</ele></trkpt>
      <trkpt lat="22.2710441450" lon="114.1386545978"><ele>403.000</ele></trkpt>
      <trkpt lat="22.2710818735" lon="114.1386279453"><ele>406.000</ele></trkpt>
      <trkpt lat="22.2710851879" lon="114.1386256040"><ele>406.000</ele></trkpt>
      <trkpt lat="22.2710969133" lon="114.1386104793"><ele>406.000</ele></trkpt>
      <trkpt lat="22.2711180207" lon="114.1385953520"><ele>407.000</ele></trkpt>
      <trkpt lat="22.2711425776" lon="114.1385546408"><ele>408.000</ele></trkpt>
      <trkpt lat="22.2711666751" lon="114.1385146914"><ele>411.000</ele></trkpt>
      <trkpt lat="22.2712112121" lon="114.1385067039"><ele>414.000</ele></trkpt>
      <trkpt lat="22.2712159324" lon="114.1385058573"><ele>414.000</ele></trkpt>
      <trkpt lat="22.2712546369" lon="114.1385096269"><ele>415.000</ele></trkpt>
      <trkpt lat="22.2712886520" lon="114.1385222185"><ele>415.000</ele></trkpt>
      <trkpt lat="22.2713038978" lon="114.1385159144"><ele>416.000</ele></trkpt>
      <trkpt lat="22.2713367997" lon="114.1384826894"><ele>417.000</ele></trkpt>
      <trkpt lat="22.2713425922" lon="114.1384768400"><ele>417.000</ele></trkpt>
      <trkpt lat="22.2713824652" lon="114.1384617076"><ele>417.000</ele></trkpt>
      <trkpt lat="22.2714141327" lon="114.1384642187"><ele>418.000</ele></trkpt>
      <trkpt lat="22.2714575151" lon="114.1384776714"><ele>419.000</ele></trkpt>
      <trkpt lat="22.2714669152" lon="114.1384805863"><ele>419.000</ele></trkpt>
      <trkpt lat="22.2714880217" lon="114.1384616788"><ele>421.000</ele></trkpt>
      <trkpt lat="22.2714903568" lon="114.1384188341"><ele>423.000</ele></trkpt>
      <trkpt lat="22.2715079423" lon="114.1383885861"><ele>425.000</ele></trkpt>
      <trkpt lat="22.2715208366" lon="114.1383595998"><ele>427.000</ele></trkpt>
      <trkpt lat="22.2715658115" lon="114.1383552922"><ele>429.000</ele></trkpt>
      <trkpt lat="22.2715736141" lon="114.1383545448"><ele>429.000</ele></trkpt>
      <trkpt lat="22.2716046886" lon="114.1383318544"><ele>431.000</ele></trkpt>
      <trkpt lat="22.2716328362" lon="114.1383280666"><ele>433.000</ele></trkpt>
      <trkpt lat="22.2716404016" lon="114.1382802390"><ele>436.000</ele></trkpt>
      <trkpt lat="22.2716422050" lon="114.1382688379"><ele>436.000</ele></trkpt>
      <trkpt lat="22.2716551032" lon="114.1382562335"><ele>436.000</ele></trkpt>
      <trkpt lat="22.2716985877" lon="114.1382431664"><ele>439.000</ele></trkpt>
      <trkpt lat="22.2717348508" lon="114.1382322694"><ele>441.000</ele></trkpt>
      <trkpt lat="22.2717336678" lon="114.1381906850"><ele>443.000</ele></trkpt>
      <trkpt lat="22.2717453905" lon="114.1381642197"><ele>443.000</ele></trkpt>
      <trkpt lat="22.2717805718" lon="114.1381478280"><ele>446.000</ele></trkpt>
      <trkpt lat="22.2717993375" lon="114.1381478228"><ele>449.000</ele></trkpt>
      <trkpt lat="22.2718227970" lon="114.1381616776"><ele>447.000</ele></trkpt>
      <trkpt lat="22.2718392168" lon="114.1381591533"><ele>448.000</ele></trkpt>
      <trkpt lat="22.2718509392" lon="114.1381352078"><ele>451.000</ele></trkpt>
      <trkpt lat="22.2718853359" lon="114.1381037789"><ele>454.000</ele></trkpt>
      <trkpt lat="22.2718978432" lon="114.1380923507"><ele>454.000</ele></trkpt>
      <trkpt lat="22.2719083922" lon="114.1380671451"><ele>454.000</ele></trkpt>
      <trkpt lat="22.2719494416" lon="114.1380658734"><ele>456.000</ele></trkpt>
      <trkpt lat="22.2719728960" lon="114.1380545264"><ele>459.000</ele></trkpt>
      <trkpt lat="22.2719986890" lon="114.1380154553"><ele>459.000</ele></trkpt>
      <trkpt lat="22.2720144480" lon="114.1379699924"><ele>461.000</ele></trkpt>
      <trkpt lat="22.2720227156" lon="114.1379461413"><ele>464.000</ele></trkpt>
      <trkpt lat="22.2720543746" lon="114.1379133695"><ele>464.000</ele></trkpt>
      <trkpt lat="22.2720614056" lon="114.1378856450"><ele>466.000</ele></trkpt>
      <trkpt lat="22.2720860321" lon="114.1378742967"><ele>467.000</ele></trkpt>
      <trkpt lat="22.2720977600" lon="114.1378274482"><ele>469.000</ele></trkpt>
      <trkpt lat="22.2721024368" lon="114.1378087659"><ele>470.000</ele></trkpt>
      <trkpt lat="22.2721172322" lon="114.1377629308"><ele>473.000</ele></trkpt>
      <trkpt lat="22.2721320276" lon="114.1377170956"><ele>474.000</ele></trkpt>
      <trkpt lat="22.2721468229" lon="114.1376712604"><ele>474.000</ele></trkpt>
      <trkpt lat="22.2721539453" lon="114.1376491955"><ele>475.000</ele></trkpt>
      <trkpt lat="22.2721503245" lon="114.1376437844"><ele>475.000</ele></trkpt>
      <trkpt lat="22.2721434392" lon="114.1376159551"><ele>476.000</ele></trkpt>
      <trkpt lat="22.2721446007" lon="114.1375680699"><ele>476.000</ele></trkpt>
      <trkpt lat="22.2721551487" lon="114.1375353039"><ele>477.000</ele></trkpt>
      <trkpt lat="22.2721598334" lon="114.1375075790"><ele>478.000</ele></trkpt>
      <trkpt lat="22.2721621135" lon="114.1374734986"><ele>479.000</ele></trkpt>
      <trkpt lat="22.2721621625" lon="114.1374407918"><ele>479.000</ele></trkpt>
      <trkpt lat="22.2721462972" lon="114.1373953716"><ele>480.000</ele></trkpt>
      <trkpt lat="22.2721304318" lon="114.1373499514"><ele>481.000</ele></trkpt>
      <trkpt lat="22.2721269528" lon="114.1373399915"><ele>481.000</ele></trkpt>
      <trkpt lat="22.2721243881" lon="114.1372915563"><ele>482.000</ele></trkpt>
      <trkpt lat="22.2721239580" lon="114.1372834333"><ele>482.000</ele></trkpt>
      <trkpt lat="22.2721293307" lon="114.1372352645"><ele>483.000</ele></trkpt>
      <trkpt lat="22.2721339539" lon="114.1371938154"><ele>483.000</ele></trkpt>
      <trkpt lat="22.2721315988" lon="114.1371534916"><ele>483.000</ele></trkpt>
      <trkpt lat="22.2721200552" lon="114.1371065903"><ele>484.000</ele></trkpt>
      <trkpt lat="22.2721151620" lon="114.1370867097"><ele>485.000</ele></trkpt>
      <trkpt lat="22.2721055588" lon="114.1370393061"><ele>485.000</ele></trkpt>
      <trkpt lat="22.2721034197" lon="114.1370287471"><ele>485.000</ele></trkpt>
      <trkpt lat="22.2721069319" lon="114.1370035433"><ele>487.000</ele></trkpt>
      <trkpt lat="22.2721124151" lon="114.1369808093"><ele>488.000</ele></trkpt>
      <trkpt lat="22.2721245090" lon="114.1369405319"><ele>490.000</ele></trkpt>
      <trkpt lat="22.2721417357" lon="114.1368956879"><ele>490.000</ele></trkpt>
      <trkpt lat="22.2721467788" lon="114.1368825597"><ele>491.000</ele></trkpt>
      <trkpt lat="22.2721329698" lon="114.1368363706"><ele>492.000</ele></trkpt>
      <trkpt lat="22.2721295350" lon="114.1368248820"><ele>492.000</ele></trkpt>
      <trkpt lat="22.2721116763" lon="114.1367803243"><ele>493.000</ele></trkpt>
      <trkpt lat="22.2721092217" lon="114.1367741999"><ele>493.000</ele></trkpt>
      <trkpt lat="22.2720901879" lon="114.1367302074"><ele>491.000</ele></trkpt>
      <trkpt lat="22.2720736025" lon="114.1366918739"><ele>492.000</ele></trkpt>
      <trkpt lat="22.2720597051" lon="114.1366457155"><ele>490.000</ele></trkpt>
      <trkpt lat="22.2720505555" lon="114.1366153262"><ele>490.000</ele></trkpt>
      <trkpt lat="22.2720474812" lon="114.1365999969"><ele>490.000</ele></trkpt>
      <trkpt lat="22.2720468456" lon="114.1365859281"><ele>490.000</ele></trkpt>
      <trkpt lat="22.2720493709" lon="114.1365728288"><ele>490.000</ele></trkpt>
      <trkpt lat="22.2720546054" lon="114.1365592435"><ele>490.000</ele></trkpt>
      <trkpt lat="22.2720761788" lon="114.1365197473"><ele>491.000</ele></trkpt>
      <trkpt lat="22.2720889956" lon="114.1364925761"><ele>490.000</ele></trkpt>
      <trkpt lat="22.2721056051" lon="114.1364474641"><ele>489.000</ele></trkpt>
      <trkpt lat="22.2721222146" lon="114.1364023521"><ele>490.000</ele></trkpt>
      <trkpt lat="22.2721360956" lon="114.1363646509"><ele>490.000</ele></trkpt>
      <trkpt lat="22.2721574917" lon="114.1363219298"><ele>491.000</ele></trkpt>
      <trkpt lat="22.2721607126" lon="114.1363154986"><ele>491.000</ele></trkpt>
      <trkpt lat="22.2721637211" lon="114.1362989857"><ele>492.000</ele></trkpt>
      <trkpt lat="22.2721562156" lon="114.1362586246"><ele>492.000</ele></trkpt>
      <trkpt lat="22.2721415739" lon="114.1362127325"><ele>491.000</ele></trkpt>
      <trkpt lat="22.2721393151" lon="114.1362056527"><ele>491.000</ele></trkpt>
      <trkpt lat="22.2721136964" lon="114.1361657037"><ele>489.000</ele></trkpt>
      <trkpt lat="22.2721043528" lon="114.1361511336"><ele>488.000</ele></trkpt>
      <trkpt lat="22.2720730433" lon="114.1361161774"><ele>488.000</ele></trkpt>
      <trkpt lat="22.2720679491" lon="114.1361104899"><ele>488.000</ele></trkpt>
      <trkpt lat="22.2720452912" lon="114.1360685265"><ele>487.000</ele></trkpt>
      <trkpt lat="22.2720368955" lon="114.1360529774"><ele>487.000</ele></trkpt>
    </trkseg>
  </trk>
</gpx>
