<?xml version="1.0" encoding="UTF-8"?>
<gpx xmlns:xsi="http://www.w3.org/2001/XMLSchema-instance"
     xsi:schemaLocation="http://www.topografix.com/GPX/1/1 http://www.topografix.com/GPX/1/1/gpx.xsd"
     version="1.1" creator="json3d_batch_to_gpx"
     xmlns="http://www.topografix.com/GPX/1/1">
  <metadata>
    <name>SharpIslandGeoTrail</name>
  </metadata>
  <trk>
    <name>SharpIslandGeoTrail</name>
    <type>hike</type>
    <trkseg>
      <trkpt lat="22.3672183431" lon="114.2878320901"><ele>3.000</ele></trkpt>
      <trkpt lat="22.3671911629" lon="114.2878708555"><ele>4.000</ele></trkpt>
      <trkpt lat="22.3671639827" lon="114.2879096209"><ele>4.000</ele></trkpt>
      <trkpt lat="22.3671368024" lon="114.2879483862"><ele>4.000</ele></trkpt>
      <trkpt lat="22.3671096222" lon="114.2879871516"><ele>3.000</ele></trkpt>
      <trkpt lat="22.3670824420" lon="114.2880259170"><ele>3.000</ele></trkpt>
      <trkpt lat="22.3670552617" lon="114.2880646823"><ele>4.000</ele></trkpt>
      <trkpt lat="22.3670509259" lon="114.2880708662"><ele>4.000</ele></trkpt>
      <trkpt lat="22.3670152842" lon="114.2881006703"><ele>4.000</ele></trkpt>
      <trkpt lat="22.3669796426" lon="114.2881304744"><ele>3.000</ele></trkpt>
      <trkpt lat="22.3669440009" lon="114.2881602785"><ele>3.000</ele></trkpt>
      <trkpt lat="22.3669083593" lon="114.2881900825"><ele>3.000</ele></trkpt>
      <trkpt lat="22.3668727176" lon="114.2882198866"><ele>3.000</ele></trkpt>
      <trkpt lat="22.3668370759" lon="114.2882496906"><ele>3.000</ele></trkpt>
      <trkpt lat="22.3668238086" lon="114.2882607850"><ele>3.000</ele></trkpt>
      <trkpt lat="22.3667867989" lon="114.2882885949"><ele>3.000</ele></trkpt>
      <trkpt lat="22.3667497893" lon="114.2883164049"><ele>3.000</ele></trkpt>
      <trkpt lat="22.3667127797" lon="114.2883442148"><ele>3.000</ele></trkpt>
      <trkpt lat="22.3666757700" lon="114.2883720248"><ele>3.000</ele></trkpt>
      <trkpt lat="22.3666387604" lon="114.2883998347"><ele>4.000</ele></trkpt>
      <trkpt lat="22.3666325631" lon="114.2884044915"><ele>4.000</ele></trkpt>
      <trkpt lat="22.3665927916" lon="114.2884274755"><ele>3.000</ele></trkpt>
      <trkpt lat="22.3665530202" lon="114.2884504595"><ele>3.000</ele></trkpt>
      <trkpt lat="22.3665132487" lon="114.2884734435"><ele>3.000</ele></trkpt>
      <trkpt lat="22.3664734773" lon="114.2884964275"><ele>3.000</ele></trkpt>
      <trkpt lat="22.3664337058" lon="114.2885194115"><ele>3.000</ele></trkpt>
      <trkpt lat="22.3663939343" lon="114.2885423954"><ele>3.000</ele></trkpt>
      <trkpt lat="22.3663541629" lon="114.2885653794"><ele>3.000</ele></trkpt>
      <trkpt lat="22.3663218260" lon="114.2885840669"><ele>3.000</ele></trkpt>
      <trkpt lat="22.3662860574" lon="114.2885544393"><ele>3.000</ele></trkpt>
      <trkpt lat="22.3662597389" lon="114.2885326394"><ele>3.000</ele></trkpt>
      <trkpt lat="22.3662243517" lon="114.2885024870"><ele>2.000</ele></trkpt>
      <trkpt lat="22.3661889645" lon="114.2884723347"><ele>2.000</ele></trkpt>
      <trkpt lat="22.3661535773" lon="114.2884421823"><ele>2.000</ele></trkpt>
      <trkpt lat="22.3661181901" lon="114.2884120300"><ele>2.000</ele></trkpt>
      <trkpt lat="22.3660828028" lon="114.2883818777"><ele>2.000</ele></trkpt>
      <trkpt lat="22.3660474156" lon="114.2883517254"><ele>2.000</ele></trkpt>
      <trkpt lat="22.3660120284" lon="114.2883215731"><ele>2.000</ele></trkpt>
      <trkpt lat="22.3659851268" lon="114.2882986512"><ele>1.000</ele></trkpt>
      <trkpt lat="22.3659474531" lon="114.2882718921"><ele>1.000</ele></trkpt>
      <trkpt lat="22.3659097793" lon="114.2882451330"><ele>1.000</ele></trkpt>
      <trkpt lat="22.3658721055" lon="114.2882183739"><ele>1.000</ele></trkpt>
      <trkpt lat="22.3658344317" lon="114.2881916149"><ele>1.000</ele></trkpt>
      <trkpt lat="22.3657967579" lon="114.2881648558"><ele>1.000</ele></trkpt>
      <trkpt lat="22.3657590841" lon="114.2881380968"><ele>1.000</ele></trkpt>
      <trkpt lat="22.3657214103" lon="114.2881113378"><ele>1.000</ele></trkpt>
      <trkpt lat="22.3656837365" lon="114.2880845788"><ele>1.000</ele></trkpt>
      <trkpt lat="22.3656460626" lon="114.2880578198"><ele>1.000</ele></trkpt>
      <trkpt lat="22.3656083888" lon="114.2880310608"><ele>1.000</ele></trkpt>
      <trkpt lat="22.3655707150" lon="114.2880043019"><ele>1.000</ele></trkpt>
      <trkpt lat="22.3655361515" lon="114.2879797521"><ele>1.000</ele></trkpt>
      <trkpt lat="22.3654945159" lon="114.2879609682"><ele>1.000</ele></trkpt>
      <trkpt lat="22.3654528802" lon="114.2879421842"><ele>2.000</ele></trkpt>
      <trkpt lat="22.3654112446" lon="114.2879234003"><ele>2.000</ele></trkpt>
      <trkpt lat="22.3653696090" lon="114.2879046164"><ele>2.000</ele></trkpt>
      <trkpt lat="22.3653279734" lon="114.2878858325"><ele>2.000</ele></trkpt>
      <trkpt lat="22.3652863378" lon="114.2878670486"><ele>2.000</ele></trkpt>
      <trkpt lat="22.3652447022" lon="114.2878482647"><ele>2.000</ele></trkpt>
      <trkpt lat="22.3652030665" lon="114.2878294809"><ele>2.000</ele></trkpt>
      <trkpt lat="22.3651614309" lon="114.2878106970"><ele>2.000</ele></trkpt>
      <trkpt lat="22.3651539764" lon="114.2878073339"><ele>2.000</ele></trkpt>
      <trkpt lat="22.3651140902" lon="114.2877845811"><ele>1.000</ele></trkpt>
      <trkpt lat="22.3650742040" lon="114.2877618283"><ele>1.000</ele></trkpt>
      <trkpt lat="22.3650343179" lon="114.2877390756"><ele>1.000</ele></trkpt>
      <trkpt lat="22.3649944317" lon="114.2877163228"><ele>1.000</ele></trkpt>
      <trkpt lat="22.3649545455" lon="114.2876935700"><ele>1.000</ele></trkpt>
      <trkpt lat="22.3649146593" lon="114.2876708173"><ele>1.000</ele></trkpt>
      <trkpt lat="22.3648747731" lon="114.2876480646"><ele>1.000</ele></trkpt>
      <trkpt lat="22.3648348869" lon="114.2876253118"><ele>1.000</ele></trkpt>
      <trkpt lat="22.3647950007" lon="114.2876025591"><ele>-9999.000</ele></trkpt>
      <trkpt lat="22.3647551145" lon="114.2875798064"><ele>-9999.000</ele></trkpt>
      <trkpt lat="22.3647152282" lon="114.2875570538"><ele>-9999.000</ele></trkpt>
      <trkpt lat="22.3646753420" lon="114.2875343011"><ele>-9999.000</ele></trkpt>
      <trkpt lat="22.3646354558" lon="114.2875115484"><ele>-9999.000</ele></trkpt>
      <trkpt lat="22.3645955696" lon="114.2874887958"><ele>-9999.000</ele></trkpt>
      <trkpt lat="22.3645556833" lon="114.2874660432"><ele>-9999.000</ele></trkpt>
      <trkpt lat="22.3645157971" lon="114.2874432906"><ele>1.000</ele></trkpt>
      <trkpt lat="22.3645091084" lon="114.2874394751"><ele>1.000</ele></trkpt>
      <trkpt lat="22.3644777796" lon="114.2874045162"><ele>1.000</ele></trkpt>
      <trkpt lat="22.3644464509" lon="114.2873695573"><ele>2.000</ele></trkpt>
      <trkpt lat="22.3644151221" lon="114.2873345984"><ele>2.000</ele></trkpt>
      <trkpt lat="22.3643837933" lon="114.2872996395"><ele>2.000</ele></trkpt>
      <trkpt lat="22.3643777950" lon="114.2872929462"><ele>2.000</ele></trkpt>
      <trkpt lat="22.3643645669" lon="114.2872465308"><ele>2.000</ele></trkpt>
      <trkpt lat="22.3643513389" lon="114.2872001155"><ele>2.000</ele></trkpt>
      <trkpt lat="22.3643381108" lon="114.2871537002"><ele>2.000</ele></trkpt>
      <trkpt lat="22.3643321999" lon="114.2871329597"><ele>3.000</ele></trkpt>
      <trkpt lat="22.3643284723" lon="114.2871300265"><ele>2.000</ele></trkpt>
      <trkpt lat="22.3643262799" lon="114.2871283150"><ele>2.000</ele></trkpt>
      <trkpt lat="22.3643240876" lon="114.2871266026"><ele>2.000</ele></trkpt>
      <trkpt lat="22.3643218997" lon="114.2871248843"><ele>2.000</ele></trkpt>
      <trkpt lat="22.3643197209" lon="114.2871231534"><ele>3.000</ele></trkpt>
      <trkpt lat="22.3643175539" lon="114.2871214050"><ele>3.000</ele></trkpt>
      <trkpt lat="22.3643154049" lon="114.2871196343"><ele>3.000</ele></trkpt>
      <trkpt lat="22.3643132695" lon="114.2871178413"><ele>3.000</ele></trkpt>
      <trkpt lat="22.3643111404" lon="114.2871160406"><ele>3.000</ele></trkpt>
      <trkpt lat="22.3643090168" lon="114.2871142311"><ele>3.000</ele></trkpt>
      <trkpt lat="22.3643069004" lon="114.2871124128"><ele>3.000</ele></trkpt>
      <trkpt lat="22.3643047903" lon="114.2871105849"><ele>3.000</ele></trkpt>
      <trkpt lat="22.3643026874" lon="114.2871087472"><ele>3.000</ele></trkpt>
      <trkpt lat="22.3643005927" lon="114.2871068989"><ele>3.000</ele></trkpt>
      <trkpt lat="22.3642985070" lon="114.2871050399"><ele>3.000</ele></trkpt>
      <trkpt lat="22.3642964294" lon="114.2871031703"><ele>3.000</ele></trkpt>
      <trkpt lat="22.3642943609" lon="114.2871012900"><ele>3.000</ele></trkpt>
      <trkpt lat="22.3642922969" lon="114.2870994028"><ele>3.000</ele></trkpt>
      <trkpt lat="22.3642902329" lon="114.2870975167"><ele>3.000</ele></trkpt>
      <trkpt lat="22.3642881680" lon="114.2870956286"><ele>3.000</ele></trkpt>
      <trkpt lat="22.3642861049" lon="114.2870937385"><ele>3.000</ele></trkpt>
      <trkpt lat="22.3642840446" lon="114.2870918446"><ele>3.000</ele></trkpt>
      <trkpt lat="22.3642819887" lon="114.2870899459"><ele>3.000</ele></trkpt>
      <trkpt lat="22.3642799383" lon="114.2870880393"><ele>3.000</ele></trkpt>
      <trkpt lat="22.3642778960" lon="114.2870861241"><ele>4.000</ele></trkpt>
      <trkpt lat="22.3642758618" lon="114.2870841991"><ele>3.000</ele></trkpt>
      <trkpt lat="22.3642738376" lon="114.2870822625"><ele>3.000</ele></trkpt>
      <trkpt lat="22.3642718251" lon="114.2870803123"><ele>3.000</ele></trkpt>
      <trkpt lat="22.3642698252" lon="114.2870783485"><ele>3.000</ele></trkpt>
      <trkpt lat="22.3642678399" lon="114.2870763682"><ele>3.000</ele></trkpt>
      <trkpt lat="22.3642658708" lon="114.2870743695"><ele>4.000</ele></trkpt>
      <trkpt lat="22.3642639143" lon="114.2870723572"><ele>4.000</ele></trkpt>
      <trkpt lat="22.3642619606" lon="114.2870703401"><ele>3.000</ele></trkpt>
      <trkpt lat="22.3642600114" lon="114.2870683171"><ele>3.000</ele></trkpt>
      <trkpt lat="22.3642580649" lon="114.2870662893"><ele>3.000</ele></trkpt>
      <trkpt lat="22.3642561229" lon="114.2870642567"><ele>4.000</ele></trkpt>
      <trkpt lat="22.3642541845" lon="114.2870622192"><ele>3.000</ele></trkpt>
      <trkpt lat="22.3642522507" lon="114.2870601758"><ele>4.000</ele></trkpt>
      <trkpt lat="22.3642503222" lon="114.2870581276"><ele>4.000</ele></trkpt>
      <trkpt lat="22.3642483974" lon="114.2870560736"><ele>4.000</ele></trkpt>
      <trkpt lat="22.3642464789" lon="114.2870540148"><ele>4.000</ele></trkpt>
      <trkpt lat="22.3642445650" lon="114.2870519501"><ele>4.000</ele></trkpt>
      <trkpt lat="22.3642426564" lon="114.2870498796"><ele>4.000</ele></trkpt>
      <trkpt lat="22.3642407542" lon="114.2870478032"><ele>4.000</ele></trkpt>
      <trkpt lat="22.3642388574" lon="114.2870457211"><ele>4.000</ele></trkpt>
      <trkpt lat="22.3642369678" lon="114.2870436331"><ele>4.000</ele></trkpt>
      <trkpt lat="22.3642350837" lon="114.2870415394"><ele>4.000</ele></trkpt>
      <trkpt lat="22.3642332067" lon="114.2870394388"><ele>4.000</ele></trkpt>
      <trkpt lat="22.3642313361" lon="114.2870373334"><ele>4.000</ele></trkpt>
      <trkpt lat="22.3642294737" lon="114.2870352202"><ele>4.000</ele></trkpt>
      <trkpt lat="22.3642276175" lon="114.2870331021"><ele>4.000</ele></trkpt>
      <trkpt lat="22.3642257695" lon="114.2870309773"><ele>4.000</ele></trkpt>
      <trkpt lat="22.3642239279" lon="114.2870288437"><ele>4.000</ele></trkpt>
      <trkpt lat="22.3642220844" lon="114.2870266781"><ele>5.000</ele></trkpt>
      <trkpt lat="22.3642202626" lon="114.2870244718"><ele>5.000</ele></trkpt>
      <trkpt lat="22.3642184915" lon="114.2870222150"><ele>5.000</ele></trkpt>
      <trkpt lat="22.3642168007" lon="114.2870199029"><ele>5.000</ele></trkpt>
      <trkpt lat="22.3642152193" lon="114.2870175278"><ele>5.000</ele></trkpt>
      <trkpt lat="22.3642137761" lon="114.2870150838"><ele>5.000</ele></trkpt>
      <trkpt lat="22.3642125018" lon="114.2870125633"><ele>5.000</ele></trkpt>
      <trkpt lat="22.3642114334" lon="114.2870099411"><ele>5.000</ele></trkpt>
      <trkpt lat="22.3642105629" lon="114.2870072102"><ele>5.000</ele></trkpt>
      <trkpt lat="22.3642098433" lon="114.2870043979"><ele>5.000</ele></trkpt>
      <trkpt lat="22.3642092321" lon="114.2870015303"><ele>5.000</ele></trkpt>
      <trkpt lat="22.3642086823" lon="114.2869986356"><ele>5.000</ele></trkpt>
      <trkpt lat="22.3642081497" lon="114.2869957409"><ele>6.000</ele></trkpt>
      <trkpt lat="22.3642075899" lon="114.2869928715"><ele>6.000</ele></trkpt>
      <trkpt lat="22.3642070012" lon="114.2869900291"><ele>6.000</ele></trkpt>
      <trkpt lat="22.3642064397" lon="114.2869871801"><ele>6.000</ele></trkpt>
      <trkpt lat="22.3642059034" lon="114.2869843252"><ele>6.000</ele></trkpt>
      <trkpt lat="22.3642053906" lon="114.2869814635"><ele>6.000</ele></trkpt>
      <trkpt lat="22.3642048986" lon="114.2869785980"><ele>6.000</ele></trkpt>
      <trkpt lat="22.3642044255" lon="114.2869757286"><ele>6.000</ele></trkpt>
      <trkpt lat="22.3642039678" lon="114.2869728573"><ele>6.000</ele></trkpt>
      <trkpt lat="22.3642035246" lon="114.2869699840"><ele>6.000</ele></trkpt>
      <trkpt lat="22.3642030940" lon="114.2869671088"><ele>6.000</ele></trkpt>
      <trkpt lat="22.3642026760" lon="114.2869642307"><ele>6.000</ele></trkpt>
      <trkpt lat="22.3642022689" lon="114.2869613517"><ele>6.000</ele></trkpt>
      <trkpt lat="22.3642018726" lon="114.2869584697"><ele>7.000</ele></trkpt>
      <trkpt lat="22.3642014863" lon="114.2869555868"><ele>7.000</ele></trkpt>
      <trkpt lat="22.3642011080" lon="114.2869527019"><ele>7.000</ele></trkpt>
      <trkpt lat="22.3642007370" lon="114.2869498161"><ele>7.000</ele></trkpt>
      <trkpt lat="22.3642003733" lon="114.2869469293"><ele>7.000</ele></trkpt>
      <trkpt lat="22.3642000140" lon="114.2869440415"><ele>7.000</ele></trkpt>
      <trkpt lat="22.3641996593" lon="114.2869411548"><ele>7.000</ele></trkpt>
      <trkpt lat="22.3641993181" lon="114.2869382651"><ele>7.000</ele></trkpt>
      <trkpt lat="22.3641989922" lon="114.2869353725"><ele>7.000</ele></trkpt>
      <trkpt lat="22.3641986790" lon="114.2869324790"><ele>7.000</ele></trkpt>
      <trkpt lat="22.3641983731" lon="114.2869295844"><ele>7.000</ele></trkpt>
      <trkpt lat="22.3641980725" lon="114.2869266890"><ele>7.000</ele></trkpt>
      <trkpt lat="22.3641977710" lon="114.2869237935"><ele>7.000</ele></trkpt>
      <trkpt lat="22.3641974678" lon="114.2869208980"><ele>8.000</ele></trkpt>
      <trkpt lat="22.3641971564" lon="114.2869180045"><ele>8.000</ele></trkpt>
      <trkpt lat="22.3641968342" lon="114.2869151129"><ele>8.000</ele></trkpt>
      <trkpt lat="22.3641964975" lon="114.2869122232"><ele>8.000</ele></trkpt>
      <trkpt lat="22.3641961427" lon="114.2869093364"><ele>8.000</ele></trkpt>
      <trkpt lat="22.3641957654" lon="114.2869064535"><ele>8.000</ele></trkpt>
      <trkpt lat="22.3641954107" lon="114.2869035444"><ele>8.000</ele></trkpt>
      <trkpt lat="22.3641950776" lon="114.2869006071"><ele>9.000</ele></trkpt>
      <trkpt lat="22.3641947148" lon="114.2868976727"><ele>9.000</ele></trkpt>
      <trkpt lat="22.3641942743" lon="114.2868947704"><ele>9.000</ele></trkpt>
      <trkpt lat="22.3641937037" lon="114.2868919290"><ele>9.000</ele></trkpt>
      <trkpt lat="22.3641929551" lon="114.2868891779"><ele>9.000</ele></trkpt>
      <trkpt lat="22.3641919581" lon="114.2868865440"><ele>9.000</ele></trkpt>
      <trkpt lat="22.3641905944" lon="114.2868840341"><ele>9.000</ele></trkpt>
      <trkpt lat="22.3641889281" lon="114.2868816667"><ele>9.000</ele></trkpt>
      <trkpt lat="22.3641870530" lon="114.2868794632"><ele>9.000</ele></trkpt>
      <trkpt lat="22.3641850632" lon="114.2868774470"><ele>10.000</ele></trkpt>
      <trkpt lat="22.3641829973" lon="114.2868756123"><ele>10.000</ele></trkpt>
      <trkpt lat="22.3641808104" lon="114.2868739096"><ele>10.000</ele></trkpt>
      <trkpt lat="22.3641785295" lon="114.2868723145"><ele>10.000</ele></trkpt>
      <trkpt lat="22.3641761844" lon="114.2868708068"><ele>10.000</ele></trkpt>
      <trkpt lat="22.3641738031" lon="114.2868693661"><ele>10.000</ele></trkpt>
      <trkpt lat="22.3641714146" lon="114.2868679690"><ele>11.000</ele></trkpt>
      <trkpt lat="22.3641690288" lon="114.2868665457"><ele>11.000</ele></trkpt>
      <trkpt lat="22.3641666141" lon="114.2868650710"><ele>11.000</ele></trkpt>
      <trkpt lat="22.3641641542" lon="114.2868637000"><ele>11.000</ele></trkpt>
      <trkpt lat="22.3641616372" lon="114.2868625922"><ele>11.000</ele></trkpt>
      <trkpt lat="22.3641590477" lon="114.2868619057"><ele>11.000</ele></trkpt>
      <trkpt lat="22.3641563929" lon="114.2868616531"><ele>11.000</ele></trkpt>
      <trkpt lat="22.3641537227" lon="114.2868614957"><ele>12.000</ele></trkpt>
      <trkpt lat="22.3641510407" lon="114.2868614033"><ele>12.000</ele></trkpt>
      <trkpt lat="22.3641483487" lon="114.2868613681"><ele>12.000</ele></trkpt>
      <trkpt lat="22.3641456486" lon="114.2868613815"><ele>12.000</ele></trkpt>
      <trkpt lat="22.3641429403" lon="114.2868614367"><ele>12.000</ele></trkpt>
      <trkpt lat="22.3641402266" lon="114.2868615249"><ele>12.000</ele></trkpt>
      <trkpt lat="22.3641375074" lon="114.2868616383"><ele>12.000</ele></trkpt>
      <trkpt lat="22.3641347846" lon="114.2868617682"><ele>13.000</ele></trkpt>
      <trkpt lat="22.3641320591" lon="114.2868619078"><ele>13.000</ele></trkpt>
      <trkpt lat="22.3641293327" lon="114.2868620493"><ele>13.000</ele></trkpt>
      <trkpt lat="22.3641266063" lon="114.2868621831"><ele>13.000</ele></trkpt>
      <trkpt lat="22.3641238817" lon="114.2868623033"><ele>13.000</ele></trkpt>
      <trkpt lat="22.3641211589" lon="114.2868624002"><ele>13.000</ele></trkpt>
      <trkpt lat="22.3641184398" lon="114.2868624660"><ele>13.000</ele></trkpt>
      <trkpt lat="22.3641157252" lon="114.2868624940"><ele>13.000</ele></trkpt>
      <trkpt lat="22.3641130160" lon="114.2868624880"><ele>13.000</ele></trkpt>
      <trkpt lat="22.3641103060" lon="114.2868624839"><ele>13.000</ele></trkpt>
      <trkpt lat="22.3641075959" lon="114.2868624847"><ele>13.000</ele></trkpt>
      <trkpt lat="22.3641048840" lon="114.2868624874"><ele>13.000</ele></trkpt>
      <trkpt lat="22.3641021721" lon="114.2868624911"><ele>13.000</ele></trkpt>
      <trkpt lat="22.3640994603" lon="114.2868624938"><ele>14.000</ele></trkpt>
      <trkpt lat="22.3640967484" lon="114.2868624927"><ele>14.000</ele></trkpt>
      <trkpt lat="22.3640940356" lon="114.2868624857"><ele>14.000</ele></trkpt>
      <trkpt lat="22.3640913238" lon="114.2868624729"><ele>14.000</ele></trkpt>
      <trkpt lat="22.3640886128" lon="114.2868624504"><ele>14.000</ele></trkpt>
      <trkpt lat="22.3640859019" lon="114.2868624162"><ele>14.000</ele></trkpt>
      <trkpt lat="22.3640831910" lon="114.2868623694"><ele>14.000</ele></trkpt>
      <trkpt lat="22.3640804818" lon="114.2868623081"><ele>14.000</ele></trkpt>
      <trkpt lat="22.3640777736" lon="114.2868622292"><ele>14.000</ele></trkpt>
      <trkpt lat="22.3640750672" lon="114.2868621319"><ele>14.000</ele></trkpt>
      <trkpt lat="22.3640723618" lon="114.2868620143"><ele>14.000</ele></trkpt>
      <trkpt lat="22.3640696581" lon="114.2868618733"><ele>14.000</ele></trkpt>
      <trkpt lat="22.3640669563" lon="114.2868617081"><ele>14.000</ele></trkpt>
      <trkpt lat="22.3640642563" lon="114.2868615157"><ele>14.000</ele></trkpt>
      <trkpt lat="22.3640615581" lon="114.2868612980"><ele>15.000</ele></trkpt>
      <trkpt lat="22.3640588600" lon="114.2868610619"><ele>15.000</ele></trkpt>
      <trkpt lat="22.3640561636" lon="114.2868608103"><ele>15.000</ele></trkpt>
      <trkpt lat="22.3640534673" lon="114.2868605441"><ele>15.000</ele></trkpt>
      <trkpt lat="22.3640507710" lon="114.2868602643"><ele>15.000</ele></trkpt>
      <trkpt lat="22.3640480765" lon="114.2868599699"><ele>15.000</ele></trkpt>
      <trkpt lat="22.3640453819" lon="114.2868596629"><ele>15.000</ele></trkpt>
      <trkpt lat="22.3640426884" lon="114.2868593433"><ele>15.000</ele></trkpt>
      <trkpt lat="22.3640399948" lon="114.2868590121"><ele>15.000</ele></trkpt>
      <trkpt lat="22.3640373030" lon="114.2868586692"><ele>15.000</ele></trkpt>
      <trkpt lat="22.3640346112" lon="114.2868583156"><ele>15.000</ele></trkpt>
      <trkpt lat="22.3640319213" lon="114.2868579523"><ele>15.000</ele></trkpt>
      <trkpt lat="22.3640292314" lon="114.2868575793"><ele>15.000</ele></trkpt>
      <trkpt lat="22.3640265432" lon="114.2868571966"><ele>15.000</ele></trkpt>
      <trkpt lat="22.3640238560" lon="114.2868568061"><ele>15.000</ele></trkpt>
      <trkpt lat="22.3640211697" lon="114.2868564069"><ele>16.000</ele></trkpt>
      <trkpt lat="22.3640184852" lon="114.2868560019"><ele>16.000</ele></trkpt>
      <trkpt lat="22.3640158007" lon="114.2868555891"><ele>16.000</ele></trkpt>
      <trkpt lat="22.3640131180" lon="114.2868551704"><ele>16.000</ele></trkpt>
      <trkpt lat="22.3640104371" lon="114.2868547460"><ele>16.000</ele></trkpt>
      <trkpt lat="22.3640077572" lon="114.2868543167"><ele>16.000</ele></trkpt>
      <trkpt lat="22.3640050781" lon="114.2868538835"><ele>16.000</ele></trkpt>
      <trkpt lat="22.3640024008" lon="114.2868534464"><ele>16.000</ele></trkpt>
      <trkpt lat="22.3639997263" lon="114.2868529967"><ele>16.000</ele></trkpt>
      <trkpt lat="22.3639970590" lon="114.2868525014"><ele>16.000</ele></trkpt>
      <trkpt lat="22.3639943990" lon="114.2868519615"><ele>16.000</ele></trkpt>
      <trkpt lat="22.3639917444" lon="114.2868513846"><ele>16.000</ele></trkpt>
      <trkpt lat="22.3639890943" lon="114.2868507786"><ele>16.000</ele></trkpt>
      <trkpt lat="22.3639864470" lon="114.2868501522"><ele>16.000</ele></trkpt>
      <trkpt lat="22.3639838024" lon="114.2868495113"><ele>16.000</ele></trkpt>
      <trkpt lat="22.3639811578" lon="114.2868488646"><ele>16.000</ele></trkpt>
      <trkpt lat="22.3639785141" lon="114.2868482197"><ele>16.000</ele></trkpt>
      <trkpt lat="22.3639758677" lon="114.2868475837"><ele>16.000</ele></trkpt>
      <trkpt lat="22.3639732195" lon="114.2868469641"><ele>16.000</ele></trkpt>
      <trkpt lat="22.3639705667" lon="114.2868463688"><ele>16.000</ele></trkpt>
      <trkpt lat="22.3639679085" lon="114.2868458045"><ele>16.000</ele></trkpt>
      <trkpt lat="22.3639652457" lon="114.2868452723"><ele>16.000</ele></trkpt>
      <trkpt lat="22.3639625812" lon="114.2868447479"><ele>17.000</ele></trkpt>
      <trkpt lat="22.3639599148" lon="114.2868442322"><ele>17.000</ele></trkpt>
      <trkpt lat="22.3639572476" lon="114.2868437223"><ele>17.000</ele></trkpt>
      <trkpt lat="22.3639545785" lon="114.2868432202"><ele>17.000</ele></trkpt>
      <trkpt lat="22.3639519094" lon="114.2868427239"><ele>17.000</ele></trkpt>
      <trkpt lat="22.3639492385" lon="114.2868422334"><ele>17.000</ele></trkpt>
      <trkpt lat="22.3639465667" lon="114.2868417488"><ele>17.000</ele></trkpt>
      <trkpt lat="22.3639438940" lon="114.2868412690"><ele>17.000</ele></trkpt>
      <trkpt lat="22.3639412212" lon="114.2868407941"><ele>17.000</ele></trkpt>
      <trkpt lat="22.3639385467" lon="114.2868403240"><ele>17.000</ele></trkpt>
      <trkpt lat="22.3639358722" lon="114.2868398578"><ele>17.000</ele></trkpt>
      <trkpt lat="22.3639331977" lon="114.2868393965"><ele>17.000</ele></trkpt>
      <trkpt lat="22.3639305222" lon="114.2868389371"><ele>17.000</ele></trkpt>
      <trkpt lat="22.3639278459" lon="114.2868384816"><ele>17.000</ele></trkpt>
      <trkpt lat="22.3639251695" lon="114.2868380280"><ele>17.000</ele></trkpt>
      <trkpt lat="22.3639224932" lon="114.2868375832"><ele>17.000</ele></trkpt>
      <trkpt lat="22.3639198141" lon="114.2868371500"><ele>17.000</ele></trkpt>
      <trkpt lat="22.3639171333" lon="114.2868367265"><ele>17.000</ele></trkpt>
      <trkpt lat="22.3639144515" lon="114.2868363118"><ele>17.000</ele></trkpt>
      <trkpt lat="22.3639117688" lon="114.2868359038"><ele>17.000</ele></trkpt>
      <trkpt lat="22.3639090852" lon="114.2868354998"><ele>17.000</ele></trkpt>
      <trkpt lat="22.3639064016" lon="114.2868350986"><ele>17.000</ele></trkpt>
      <trkpt lat="22.3639037180" lon="114.2868346994"><ele>17.000</ele></trkpt>
      <trkpt lat="22.3639010335" lon="114.2868342992"><ele>17.000</ele></trkpt>
      <trkpt lat="22.3638983508" lon="114.2868338961"><ele>17.000</ele></trkpt>
      <trkpt lat="22.3638956681" lon="114.2868334892"><ele>17.000</ele></trkpt>
      <trkpt lat="22.3638929854" lon="114.2868330754"><ele>17.000</ele></trkpt>
      <trkpt lat="22.3638903054" lon="114.2868326539"><ele>17.000</ele></trkpt>
      <trkpt lat="22.3638876263" lon="114.2868322236"><ele>17.000</ele></trkpt>
      <trkpt lat="22.3638849491" lon="114.2868317807"><ele>17.000</ele></trkpt>
      <trkpt lat="22.3638822736" lon="114.2868313252"><ele>17.000</ele></trkpt>
      <trkpt lat="22.3638796009" lon="114.2868308551"><ele>17.000</ele></trkpt>
      <trkpt lat="22.3638769291" lon="114.2868303714"><ele>17.000</ele></trkpt>
      <trkpt lat="22.3638742600" lon="114.2868298751"><ele>17.000</ele></trkpt>
      <trkpt lat="22.3638715919" lon="114.2868293682"><ele>17.000</ele></trkpt>
      <trkpt lat="22.3638689264" lon="114.2868288496"><ele>17.000</ele></trkpt>
      <trkpt lat="22.3638662618" lon="114.2868283212"><ele>17.000</ele></trkpt>
      <trkpt lat="22.3638635982" lon="114.2868277842"><ele>17.000</ele></trkpt>
      <trkpt lat="22.3638609373" lon="114.2868272374"><ele>17.000</ele></trkpt>
      <trkpt lat="22.3638582764" lon="114.2868266829"><ele>17.000</ele></trkpt>
      <trkpt lat="22.3638556181" lon="114.2868261206"><ele>17.000</ele></trkpt>
      <trkpt lat="22.3638529608" lon="114.2868255515"><ele>17.000</ele></trkpt>
      <trkpt lat="22.3638503045" lon="114.2868249766"><ele>17.000</ele></trkpt>
      <trkpt lat="22.3638476499" lon="114.2868243949"><ele>17.000</ele></trkpt>
      <trkpt lat="22.3638449962" lon="114.2868238093"><ele>17.000</ele></trkpt>
      <trkpt lat="22.3638423443" lon="114.2868232120"><ele>17.000</ele></trkpt>
      <trkpt lat="22.3638396952" lon="114.2868226041"><ele>17.000</ele></trkpt>
      <trkpt lat="22.3638370479" lon="114.2868219865"><ele>17.000</ele></trkpt>
      <trkpt lat="22.3638344014" lon="114.2868213601"><ele>17.000</ele></trkpt>
      <trkpt lat="22.3638317568" lon="114.2868207269"><ele>17.000</ele></trkpt>
      <trkpt lat="22.3638291131" lon="114.2868200899"><ele>17.000</ele></trkpt>
      <trkpt lat="22.3638264694" lon="114.2868194489"><ele>17.000</ele></trkpt>
      <trkpt lat="22.3638238266" lon="114.2868188061"><ele>17.000</ele></trkpt>
      <trkpt lat="22.3638211838" lon="114.2868181622"><ele>17.000</ele></trkpt>
      <trkpt lat="22.3638185401" lon="114.2868175203"><ele>17.000</ele></trkpt>
      <trkpt lat="22.3638158973" lon="114.2868168813"><ele>17.000</ele></trkpt>
      <trkpt lat="22.3638132527" lon="114.2868162472"><ele>17.000</ele></trkpt>
      <trkpt lat="22.3638106072" lon="114.2868156179"><ele>17.000</ele></trkpt>
      <trkpt lat="22.3638079607" lon="114.2868149974"><ele>17.000</ele></trkpt>
      <trkpt lat="22.3638053116" lon="114.2868143856"><ele>17.000</ele></trkpt>
      <trkpt lat="22.3638026615" lon="114.2868137835"><ele>17.000</ele></trkpt>
      <trkpt lat="22.3638000088" lon="114.2868131950"><ele>17.000</ele></trkpt>
      <trkpt lat="22.3637973542" lon="114.2868126191"><ele>17.000</ele></trkpt>
      <trkpt lat="22.3637946960" lon="114.2868120587"><ele>17.000</ele></trkpt>
      <trkpt lat="22.3637920360" lon="114.2868115071"><ele>17.000</ele></trkpt>
      <trkpt lat="22.3637893741" lon="114.2868109633"><ele>17.000</ele></trkpt>
      <trkpt lat="22.3637867105" lon="114.2868104272"><ele>17.000</ele></trkpt>
      <trkpt lat="22.3637840450" lon="114.2868099018"><ele>17.000</ele></trkpt>
      <trkpt lat="22.3637813778" lon="114.2868093861"><ele>17.000</ele></trkpt>
      <trkpt lat="22.3637787078" lon="114.2868088820"><ele>17.000</ele></trkpt>
      <trkpt lat="22.3637760369" lon="114.2868083896"><ele>17.000</ele></trkpt>
      <trkpt lat="22.3637733633" lon="114.2868079098"><ele>17.000</ele></trkpt>
      <trkpt lat="22.3637706878" lon="114.2868074446"><ele>17.000</ele></trkpt>
      <trkpt lat="22.3637680106" lon="114.2868069930"><ele>17.000</ele></trkpt>
      <trkpt lat="22.3637653315" lon="114.2868065569"><ele>17.000</ele></trkpt>
      <trkpt lat="22.3637626506" lon="114.2868061382"><ele>17.000</ele></trkpt>
      <trkpt lat="22.3637599679" lon="114.2868057352"><ele>17.000</ele></trkpt>
      <trkpt lat="22.3637572834" lon="114.2868053505"><ele>17.000</ele></trkpt>
      <trkpt lat="22.3637545971" lon="114.2868049814"><ele>17.000</ele></trkpt>
      <trkpt lat="22.3637519099" lon="114.2868046171"><ele>17.000</ele></trkpt>
      <trkpt lat="22.3637492217" lon="114.2868042587"><ele>17.000</ele></trkpt>
      <trkpt lat="22.3637465336" lon="114.2868039042"><ele>17.000</ele></trkpt>
      <trkpt lat="22.3637438436" lon="114.2868035554"><ele>17.000</ele></trkpt>
      <trkpt lat="22.3637411536" lon="114.2868032106"><ele>17.000</ele></trkpt>
      <trkpt lat="22.3637384637" lon="114.2868028716"><ele>17.000</ele></trkpt>
      <trkpt lat="22.3637357719" lon="114.2868025355"><ele>17.000</ele></trkpt>
      <trkpt lat="22.3637330801" lon="114.2868022052"><ele>18.000</ele></trkpt>
      <trkpt lat="22.3637303874" lon="114.2868018778"><ele>18.000</ele></trkpt>
      <trkpt lat="22.3637276947" lon="114.2868015553"><ele>18.000</ele></trkpt>
      <trkpt lat="22.3637250012" lon="114.2868012367"><ele>18.000</ele></trkpt>
      <trkpt lat="22.3637223076" lon="114.2868009210"><ele>18.000</ele></trkpt>
      <trkpt lat="22.3637196131" lon="114.2868006101"><ele>18.000</ele></trkpt>
      <trkpt lat="22.3637169186" lon="114.2868003022"><ele>18.000</ele></trkpt>
      <trkpt lat="22.3637142241" lon="114.2867999981"><ele>18.000</ele></trkpt>
      <trkpt lat="22.3637115286" lon="114.2867996969"><ele>18.000</ele></trkpt>
      <trkpt lat="22.3637088332" lon="114.2867993987"><ele>18.000</ele></trkpt>
      <trkpt lat="22.3637061369" lon="114.2867991034"><ele>18.000</ele></trkpt>
      <trkpt lat="22.3637034415" lon="114.2867988110"><ele>18.000</ele></trkpt>
      <trkpt lat="22.3637007452" lon="114.2867985214"><ele>18.000</ele></trkpt>
      <trkpt lat="22.3636980489" lon="114.2867982349"><ele>18.000</ele></trkpt>
      <trkpt lat="22.3636953525" lon="114.2867979502"><ele>18.000</ele></trkpt>
      <trkpt lat="22.3636926553" lon="114.2867976675"><ele>18.000</ele></trkpt>
      <trkpt lat="22.3636899590" lon="114.2867973877"><ele>18.000</ele></trkpt>
      <trkpt lat="22.3636872626" lon="114.2867971098"><ele>18.000</ele></trkpt>
      <trkpt lat="22.3636845654" lon="114.2867968339"><ele>18.000</ele></trkpt>
      <trkpt lat="22.3636818691" lon="114.2867965600"><ele>18.000</ele></trkpt>
      <trkpt lat="22.3636791718" lon="114.2867962996"><ele>18.000</ele></trkpt>
      <trkpt lat="22.3636764710" lon="114.2867960654"><ele>18.000</ele></trkpt>
      <trkpt lat="22.3636737692" lon="114.2867958555"><ele>19.000</ele></trkpt>
      <trkpt lat="22.3636710656" lon="114.2867956680"><ele>19.000</ele></trkpt>
      <trkpt lat="22.3636683601" lon="114.2867954998"><ele>19.000</ele></trkpt>
      <trkpt lat="22.3636656538" lon="114.2867953482"><ele>19.000</ele></trkpt>
      <trkpt lat="22.3636629465" lon="114.2867952121"><ele>19.000</ele></trkpt>
      <trkpt lat="22.3636602383" lon="114.2867950886"><ele>19.000</ele></trkpt>
      <trkpt lat="22.3636575311" lon="114.2867949748"><ele>19.000</ele></trkpt>
      <trkpt lat="22.3636548229" lon="114.2867948678"><ele>19.000</ele></trkpt>
      <trkpt lat="22.3636521156" lon="114.2867947676"><ele>19.000</ele></trkpt>
      <trkpt lat="22.3636494083" lon="114.2867946742"><ele>19.000</ele></trkpt>
      <trkpt lat="22.3636467010" lon="114.2867945876"><ele>19.000</ele></trkpt>
      <trkpt lat="22.3636439928" lon="114.2867945069"><ele>19.000</ele></trkpt>
      <trkpt lat="22.3636412846" lon="114.2867944319"><ele>19.000</ele></trkpt>
      <trkpt lat="22.3636385764" lon="114.2867943618"><ele>19.000</ele></trkpt>
      <trkpt lat="22.3636358673" lon="114.2867942966"><ele>19.000</ele></trkpt>
      <trkpt lat="22.3636331591" lon="114.2867942352"><ele>20.000</ele></trkpt>
      <trkpt lat="22.3636304499" lon="114.2867941778"><ele>20.000</ele></trkpt>
      <trkpt lat="22.3636277417" lon="114.2867941232"><ele>20.000</ele></trkpt>
      <trkpt lat="22.3636250326" lon="114.2867940706"><ele>20.000</ele></trkpt>
      <trkpt lat="22.3636223235" lon="114.2867940209"><ele>20.000</ele></trkpt>
      <trkpt lat="22.3636196143" lon="114.2867939712"><ele>20.000</ele></trkpt>
      <trkpt lat="22.3636169052" lon="114.2867939225"><ele>20.000</ele></trkpt>
      <trkpt lat="22.3636141961" lon="114.2867938747"><ele>20.000</ele></trkpt>
      <trkpt lat="22.3636114879" lon="114.2867938260"><ele>20.000</ele></trkpt>
      <trkpt lat="22.3636087787" lon="114.2867937753"><ele>20.000</ele></trkpt>
      <trkpt lat="22.3636060696" lon="114.2867937246"><ele>20.000</ele></trkpt>
      <trkpt lat="22.3636033614" lon="114.2867936711"><ele>20.000</ele></trkpt>
      <trkpt lat="22.3636006523" lon="114.2867936175"><ele>20.000</ele></trkpt>
      <trkpt lat="22.3635979431" lon="114.2867935629"><ele>20.000</ele></trkpt>
      <trkpt lat="22.3635952349" lon="114.2867935093"><ele>20.000</ele></trkpt>
      <trkpt lat="22.3635925258" lon="114.2867934577"><ele>20.000</ele></trkpt>
      <trkpt lat="22.3635898167" lon="114.2867934090"><ele>20.000</ele></trkpt>
      <trkpt lat="22.3635871075" lon="114.2867933641"><ele>20.000</ele></trkpt>
      <trkpt lat="22.3635843984" lon="114.2867933232"><ele>21.000</ele></trkpt>
      <trkpt lat="22.3635816893" lon="114.2867932880"><ele>21.000</ele></trkpt>
      <trkpt lat="22.3635789801" lon="114.2867932597"><ele>21.000</ele></trkpt>
      <trkpt lat="22.3635762719" lon="114.2867932391"><ele>21.000</ele></trkpt>
      <trkpt lat="22.3635735627" lon="114.2867932263"><ele>21.000</ele></trkpt>
      <trkpt lat="22.3635708536" lon="114.2867932232"><ele>21.000</ele></trkpt>
      <trkpt lat="22.3635681444" lon="114.2867932366"><ele>21.000</ele></trkpt>
      <trkpt lat="22.3635654352" lon="114.2867932830"><ele>21.000</ele></trkpt>
      <trkpt lat="22.3635627251" lon="114.2867933576"><ele>21.000</ele></trkpt>
      <trkpt lat="22.3635600141" lon="114.2867934516"><ele>21.000</ele></trkpt>
      <trkpt lat="22.3635573039" lon="114.2867935582"><ele>21.000</ele></trkpt>
      <trkpt lat="22.3635545929" lon="114.2867936677"><ele>21.000</ele></trkpt>
      <trkpt lat="22.3635518828" lon="114.2867937743"><ele>21.000</ele></trkpt>
      <trkpt lat="22.3635491735" lon="114.2867938693"><ele>21.000</ele></trkpt>
      <trkpt lat="22.3635464643" lon="114.2867939439"><ele>21.000</ele></trkpt>
      <trkpt lat="22.3635437569" lon="114.2867939903"><ele>21.000</ele></trkpt>
      <trkpt lat="22.3635410496" lon="114.2867940018"><ele>21.000</ele></trkpt>
      <trkpt lat="22.3635383441" lon="114.2867939695"><ele>21.000</ele></trkpt>
      <trkpt lat="22.3635356404" lon="114.2867938849"><ele>21.000</ele></trkpt>
      <trkpt lat="22.3635329376" lon="114.2867937536"><ele>21.000</ele></trkpt>
      <trkpt lat="22.3635302358" lon="114.2867935865"><ele>21.000</ele></trkpt>
      <trkpt lat="22.3635275349" lon="114.2867933863"><ele>21.000</ele></trkpt>
      <trkpt lat="22.3635248340" lon="114.2867931560"><ele>21.000</ele></trkpt>
      <trkpt lat="22.3635221350" lon="114.2867929005"><ele>21.000</ele></trkpt>
      <trkpt lat="22.3635194359" lon="114.2867926226"><ele>21.000</ele></trkpt>
      <trkpt lat="22.3635167387" lon="114.2867923263"><ele>21.000</ele></trkpt>
      <trkpt lat="22.3635140424" lon="114.2867920145"><ele>21.000</ele></trkpt>
      <trkpt lat="22.3635113461" lon="114.2867916910"><ele>21.000</ele></trkpt>
      <trkpt lat="22.3635086516" lon="114.2867913588"><ele>21.000</ele></trkpt>
      <trkpt lat="22.3635059580" lon="114.2867910227"><ele>21.000</ele></trkpt>
      <trkpt lat="22.3635032663" lon="114.2867906856"><ele>21.000</ele></trkpt>
      <trkpt lat="22.3635005754" lon="114.2867903514"><ele>21.000</ele></trkpt>
      <trkpt lat="22.3634978827" lon="114.2867900212"><ele>21.000</ele></trkpt>
      <trkpt lat="22.3634951882" lon="114.2867896899"><ele>21.000</ele></trkpt>
      <trkpt lat="22.3634924938" lon="114.2867893509"><ele>22.000</ele></trkpt>
      <trkpt lat="22.3634898011" lon="114.2867889963"><ele>22.000</ele></trkpt>
      <trkpt lat="22.3634871121" lon="114.2867886185"><ele>22.000</ele></trkpt>
      <trkpt lat="22.3634844276" lon="114.2867882096"><ele>22.000</ele></trkpt>
      <trkpt lat="22.3634817494" lon="114.2867877647"><ele>22.000</ele></trkpt>
      <trkpt lat="22.3634790794" lon="114.2867872743"><ele>22.000</ele></trkpt>
      <trkpt lat="22.3634764203" lon="114.2867867314"><ele>22.000</ele></trkpt>
      <trkpt lat="22.3634737720" lon="114.2867861332"><ele>22.000</ele></trkpt>
      <trkpt lat="22.3634711256" lon="114.2867855165"><ele>22.000</ele></trkpt>
      <trkpt lat="22.3634684783" lon="114.2867848989"><ele>22.000</ele></trkpt>
      <trkpt lat="22.3634658300" lon="114.2867842774"><ele>22.000</ele></trkpt>
      <trkpt lat="22.3634631818" lon="114.2867836520"><ele>22.000</ele></trkpt>
      <trkpt lat="22.3634605336" lon="114.2867830217"><ele>22.000</ele></trkpt>
      <trkpt lat="22.3634578863" lon="114.2867823876"><ele>22.000</ele></trkpt>
      <trkpt lat="22.3634552389" lon="114.2867817476"><ele>22.000</ele></trkpt>
      <trkpt lat="22.3634525934" lon="114.2867811009"><ele>22.000</ele></trkpt>
      <trkpt lat="22.3634499479" lon="114.2867804483"><ele>22.000</ele></trkpt>
      <trkpt lat="22.3634473042" lon="114.2867797880"><ele>22.000</ele></trkpt>
      <trkpt lat="22.3634446633" lon="114.2867791208"><ele>22.000</ele></trkpt>
      <trkpt lat="22.3634420232" lon="114.2867784440"><ele>22.000</ele></trkpt>
      <trkpt lat="22.3634393867" lon="114.2867777594"><ele>22.000</ele></trkpt>
      <trkpt lat="22.3634367521" lon="114.2867770650"><ele>22.000</ele></trkpt>
      <trkpt lat="22.3634341211" lon="114.2867763600"><ele>22.000</ele></trkpt>
      <trkpt lat="22.3634314928" lon="114.2867756444"><ele>22.000</ele></trkpt>
      <trkpt lat="22.3634288681" lon="114.2867749180"><ele>22.000</ele></trkpt>
      <trkpt lat="22.3634262479" lon="114.2867741790"><ele>22.000</ele></trkpt>
      <trkpt lat="22.3634236314" lon="114.2867734284"><ele>22.000</ele></trkpt>
      <trkpt lat="22.3634210194" lon="114.2867726652"><ele>22.000</ele></trkpt>
      <trkpt lat="22.3634184119" lon="114.2867718874"><ele>22.000</ele></trkpt>
      <trkpt lat="22.3634158107" lon="114.2867710960"><ele>22.000</ele></trkpt>
      <trkpt lat="22.3634132141" lon="114.2867702901"><ele>22.000</ele></trkpt>
      <trkpt lat="22.3634106229" lon="114.2867694686"><ele>22.000</ele></trkpt>
      <trkpt lat="22.3634080525" lon="114.2867685850"><ele>22.000</ele></trkpt>
      <trkpt lat="22.3634055283" lon="114.2867675597"><ele>22.000</ele></trkpt>
      <trkpt lat="22.3634030420" lon="114.2867664189"><ele>22.000</ele></trkpt>
      <trkpt lat="22.3634005829" lon="114.2867651907"><ele>22.000</ele></trkpt>
      <trkpt lat="22.3633981429" lon="114.2867639053"><ele>22.000</ele></trkpt>
      <trkpt lat="22.3633957109" lon="114.2867625917"><ele>22.000</ele></trkpt>
      <trkpt lat="22.3633932772" lon="114.2867612790"><ele>22.000</ele></trkpt>
      <trkpt lat="22.3633908335" lon="114.2867599975"><ele>22.000</ele></trkpt>
      <trkpt lat="22.3633883681" lon="114.2867587761"><ele>22.000</ele></trkpt>
      <trkpt lat="22.3633858746" lon="114.2867576372"><ele>22.000</ele></trkpt>
      <trkpt lat="22.3633833631" lon="114.2867565449"><ele>22.000</ele></trkpt>
      <trkpt lat="22.3633808407" lon="114.2867554827"><ele>22.000</ele></trkpt>
      <trkpt lat="22.3633783092" lon="114.2867544409"><ele>22.000</ele></trkpt>
      <trkpt lat="22.3633757741" lon="114.2867534107"><ele>22.000</ele></trkpt>
      <trkpt lat="22.3633732363" lon="114.2867523844"><ele>22.000</ele></trkpt>
      <trkpt lat="22.3633707022" lon="114.2867513533"><ele>22.000</ele></trkpt>
      <trkpt lat="22.3633681725" lon="114.2867503085"><ele>22.000</ele></trkpt>
      <trkpt lat="22.3633656519" lon="114.2867492425"><ele>22.000</ele></trkpt>
      <trkpt lat="22.3633631431" lon="114.2867481443"><ele>22.000</ele></trkpt>
      <trkpt lat="22.3633606505" lon="114.2867470074"><ele>22.000</ele></trkpt>
      <trkpt lat="22.3633581733" lon="114.2867458307"><ele>22.000</ele></trkpt>
      <trkpt lat="22.3633557079" lon="114.2867446239"><ele>22.000</ele></trkpt>
      <trkpt lat="22.3633532515" lon="114.2867433908"><ele>22.000</ele></trkpt>
      <trkpt lat="22.3633508033" lon="114.2867421394"><ele>22.000</ele></trkpt>
      <trkpt lat="22.3633483605" lon="114.2867408724"><ele>22.000</ele></trkpt>
      <trkpt lat="22.3633459213" lon="114.2867395976"><ele>22.000</ele></trkpt>
      <trkpt lat="22.3633434849" lon="114.2867383180"><ele>22.000</ele></trkpt>
      <trkpt lat="22.3633410475" lon="114.2867370403"><ele>22.000</ele></trkpt>
      <trkpt lat="22.3633386101" lon="114.2867357694"><ele>22.000</ele></trkpt>
      <trkpt lat="22.3633361682" lon="114.2867345102"><ele>22.000</ele></trkpt>
      <trkpt lat="22.3633337209" lon="114.2867332684"><ele>22.000</ele></trkpt>
      <trkpt lat="22.3633312672" lon="114.2867320500"><ele>22.000</ele></trkpt>
      <trkpt lat="22.3633287753" lon="114.2867312121"><ele>22.000</ele></trkpt>
      <trkpt lat="22.3633266725" lon="114.2867293754"><ele>22.000</ele></trkpt>
      <trkpt lat="22.3633245642" lon="114.2867275456"><ele>22.000</ele></trkpt>
      <trkpt lat="22.3633224505" lon="114.2867257244"><ele>22.000</ele></trkpt>
      <trkpt lat="22.3633203304" lon="114.2867239111"><ele>22.000</ele></trkpt>
      <trkpt lat="22.3633182049" lon="114.2867221045"><ele>22.000</ele></trkpt>
      <trkpt lat="22.3633160732" lon="114.2867203067"><ele>22.000</ele></trkpt>
      <trkpt lat="22.3633139359" lon="114.2867185166"><ele>22.000</ele></trkpt>
      <trkpt lat="22.3633117933" lon="114.2867167352"><ele>22.000</ele></trkpt>
      <trkpt lat="22.3633096443" lon="114.2867149607"><ele>23.000</ele></trkpt>
      <trkpt lat="22.3633074899" lon="114.2867131949"><ele>23.000</ele></trkpt>
      <trkpt lat="22.3633053301" lon="114.2867114368"><ele>23.000</ele></trkpt>
      <trkpt lat="22.3633031649" lon="114.2867096865"><ele>23.000</ele></trkpt>
      <trkpt lat="22.3633009933" lon="114.2867079450"><ele>23.000</ele></trkpt>
      <trkpt lat="22.3632988163" lon="114.2867062112"><ele>23.000</ele></trkpt>
      <trkpt lat="22.3632966339" lon="114.2867044852"><ele>23.000</ele></trkpt>
      <trkpt lat="22.3632944461" lon="114.2867027679"><ele>23.000</ele></trkpt>
      <trkpt lat="22.3632922528" lon="114.2867010583"><ele>23.000</ele></trkpt>
      <trkpt lat="22.3632900542" lon="114.2866993566"><ele>23.000</ele></trkpt>
      <trkpt lat="22.3632878500" lon="114.2866976635"><ele>23.000</ele></trkpt>
      <trkpt lat="22.3632856396" lon="114.2866959783"><ele>23.000</ele></trkpt>
      <trkpt lat="22.3632834247" lon="114.2866943007"><ele>23.000</ele></trkpt>
      <trkpt lat="22.3632812043" lon="114.2866926329"><ele>23.000</ele></trkpt>
      <trkpt lat="22.3632789785" lon="114.2866909719"><ele>23.000</ele></trkpt>
      <trkpt lat="22.3632767472" lon="114.2866893197"><ele>23.000</ele></trkpt>
      <trkpt lat="22.3632745106" lon="114.2866876761"><ele>23.000</ele></trkpt>
      <trkpt lat="22.3632722685" lon="114.2866860403"><ele>23.000</ele></trkpt>
      <trkpt lat="22.3632700219" lon="114.2866844133"><ele>23.000</ele></trkpt>
      <trkpt lat="22.3632677699" lon="114.2866827950"><ele>24.000</ele></trkpt>
      <trkpt lat="22.3632655125" lon="114.2866811844"><ele>24.000</ele></trkpt>
      <trkpt lat="22.3632632496" lon="114.2866795816"><ele>24.000</ele></trkpt>
      <trkpt lat="22.3632609822" lon="114.2866779885"><ele>24.000</ele></trkpt>
      <trkpt lat="22.3632587094" lon="114.2866764032"><ele>24.000</ele></trkpt>
      <trkpt lat="22.3632564321" lon="114.2866748257"><ele>24.000</ele></trkpt>
      <trkpt lat="22.3632541493" lon="114.2866732578"><ele>24.000</ele></trkpt>
      <trkpt lat="22.3632518611" lon="114.2866716977"><ele>24.000</ele></trkpt>
      <trkpt lat="22.3632495684" lon="114.2866701464"><ele>24.000</ele></trkpt>
      <trkpt lat="22.3632472703" lon="114.2866686038"><ele>24.000</ele></trkpt>
      <trkpt lat="22.3632449676" lon="114.2866670689"><ele>24.000</ele></trkpt>
      <trkpt lat="22.3632426596" lon="114.2866655437"><ele>24.000</ele></trkpt>
      <trkpt lat="22.3632403470" lon="114.2866640264"><ele>24.000</ele></trkpt>
      <trkpt lat="22.3632380299" lon="114.2866625177"><ele>24.000</ele></trkpt>
      <trkpt lat="22.3632357073" lon="114.2866610178"><ele>25.000</ele></trkpt>
      <trkpt lat="22.3632333803" lon="114.2866595256"><ele>25.000</ele></trkpt>
      <trkpt lat="22.3632310487" lon="114.2866580432"><ele>25.000</ele></trkpt>
      <trkpt lat="22.3632287117" lon="114.2866565695"><ele>25.000</ele></trkpt>
      <trkpt lat="22.3632263710" lon="114.2866551035"><ele>25.000</ele></trkpt>
      <trkpt lat="22.3632252021" lon="114.2866543778"><ele>25.000</ele></trkpt>
      <trkpt lat="22.3632246012" lon="114.2866555713"><ele>25.000</ele></trkpt>
      <trkpt lat="22.3632226623" lon="114.2866576053"><ele>25.000</ele></trkpt>
      <trkpt lat="22.3632202489" lon="114.2866589282"><ele>25.000</ele></trkpt>
      <trkpt lat="22.3632175789" lon="114.2866594208"><ele>25.000</ele></trkpt>
      <trkpt lat="22.3632148937" lon="114.2866590383"><ele>25.000</ele></trkpt>
      <trkpt lat="22.3632124206" lon="114.2866578424"><ele>25.000</ele></trkpt>
      <trkpt lat="22.3632100540" lon="114.2866564243"><ele>25.000</ele></trkpt>
      <trkpt lat="22.3632077254" lon="114.2866549355"><ele>25.000</ele></trkpt>
      <trkpt lat="22.3632054388" lon="114.2866533737"><ele>26.000</ele></trkpt>
      <trkpt lat="22.3632031958" lon="114.2866517399"><ele>26.000</ele></trkpt>
      <trkpt lat="22.3632009987" lon="114.2866500359"><ele>26.000</ele></trkpt>
      <trkpt lat="22.3631988493" lon="114.2866482628"><ele>26.000</ele></trkpt>
      <trkpt lat="22.3631967496" lon="114.2866464223"><ele>26.000</ele></trkpt>
      <trkpt lat="22.3631947009" lon="114.2866445163"><ele>26.000</ele></trkpt>
      <trkpt lat="22.3631927058" lon="114.2866425460"><ele>26.000</ele></trkpt>
      <trkpt lat="22.3631907654" lon="114.2866405133"><ele>26.000</ele></trkpt>
      <trkpt lat="22.3631888813" lon="114.2866384203"><ele>26.000</ele></trkpt>
      <trkpt lat="22.3631870452" lon="114.2866362785"><ele>27.000</ele></trkpt>
      <trkpt lat="22.3631852277" lon="114.2866341185"><ele>26.000</ele></trkpt>
      <trkpt lat="22.3631834272" lon="114.2866319423"><ele>27.000</ele></trkpt>
      <trkpt lat="22.3631816413" lon="114.2866297520"><ele>27.000</ele></trkpt>
      <trkpt lat="22.3631798674" lon="114.2866275506"><ele>27.000</ele></trkpt>
      <trkpt lat="22.3631781036" lon="114.2866253397"><ele>27.000</ele></trkpt>
      <trkpt lat="22.3631763478" lon="114.2866231215"><ele>27.000</ele></trkpt>
      <trkpt lat="22.3631745978" lon="114.2866208980"><ele>27.000</ele></trkpt>
      <trkpt lat="22.3631728519" lon="114.2866186708"><ele>27.000</ele></trkpt>
      <trkpt lat="22.3631711080" lon="114.2866164417"><ele>27.000</ele></trkpt>
      <trkpt lat="22.3631693644" lon="114.2866142126"><ele>27.000</ele></trkpt>
      <trkpt lat="22.3631676192" lon="114.2866119847"><ele>27.000</ele></trkpt>
      <trkpt lat="22.3631658706" lon="114.2866097600"><ele>27.000</ele></trkpt>
      <trkpt lat="22.3631641166" lon="114.2866075404"><ele>27.000</ele></trkpt>
      <trkpt lat="22.3631623551" lon="114.2866053273"><ele>28.000</ele></trkpt>
      <trkpt lat="22.3631605841" lon="114.2866031229"><ele>28.000</ele></trkpt>
      <trkpt lat="22.3631588018" lon="114.2866009295"><ele>28.000</ele></trkpt>
      <trkpt lat="22.3631570055" lon="114.2865987489"><ele>28.000</ele></trkpt>
      <trkpt lat="22.3631551930" lon="114.2865965843"><ele>28.000</ele></trkpt>
      <trkpt lat="22.3631533615" lon="114.2865944379"><ele>28.000</ele></trkpt>
      <trkpt lat="22.3631515081" lon="114.2865923136"><ele>28.000</ele></trkpt>
      <trkpt lat="22.3631496293" lon="114.2865902150"><ele>28.000</ele></trkpt>
      <trkpt lat="22.3631477223" lon="114.2865881462"><ele>28.000</ele></trkpt>
      <trkpt lat="22.3631457828" lon="114.2865861126"><ele>28.000</ele></trkpt>
      <trkpt lat="22.3631438061" lon="114.2865841207"><ele>28.000</ele></trkpt>
      <trkpt lat="22.3631417877" lon="114.2865821778"><ele>28.000</ele></trkpt>
      <trkpt lat="22.3631397217" lon="114.2865802939"><ele>28.000</ele></trkpt>
      <trkpt lat="22.3631376077" lon="114.2865784686"><ele>28.000</ele></trkpt>
      <trkpt lat="22.3631351962" lon="114.2865780330"><ele>28.000</ele></trkpt>
      <trkpt lat="22.3631336248" lon="114.2865804961"><ele>28.000</ele></trkpt>
      <trkpt lat="22.3631325605" lon="114.2865831883"><ele>28.000</ele></trkpt>
      <trkpt lat="22.3631315983" lon="114.2865859119"><ele>28.000</ele></trkpt>
      <trkpt lat="22.3631305566" lon="114.2865886032"><ele>28.000</ele></trkpt>
      <trkpt lat="22.3631292637" lon="114.2865911590"><ele>28.000</ele></trkpt>
      <trkpt lat="22.3631277267" lon="114.2865935588"><ele>28.000</ele></trkpt>
      <trkpt lat="22.3631260030" lon="114.2865958061"><ele>28.000</ele></trkpt>
      <trkpt lat="22.3631241014" lon="114.2865978804"><ele>28.000</ele></trkpt>
      <trkpt lat="22.3631220361" lon="114.2865997655"><ele>28.000</ele></trkpt>
      <trkpt lat="22.3631198237" lon="114.2866014465"><ele>28.000</ele></trkpt>
      <trkpt lat="22.3631174815" lon="114.2866029103"><ele>28.000</ele></trkpt>
      <trkpt lat="22.3631150277" lon="114.2866041450"><ele>28.000</ele></trkpt>
      <trkpt lat="22.3631124820" lon="114.2866051416"><ele>28.000</ele></trkpt>
      <trkpt lat="22.3631098642" lon="114.2866058915"><ele>28.000</ele></trkpt>
      <trkpt lat="22.3631071949" lon="114.2866063889"><ele>28.000</ele></trkpt>
      <trkpt lat="22.3631044946" lon="114.2866066446"><ele>28.000</ele></trkpt>
      <trkpt lat="22.3631017935" lon="114.2866064995"><ele>28.000</ele></trkpt>
      <trkpt lat="22.3630990892" lon="114.2866063154"><ele>28.000</ele></trkpt>
      <trkpt lat="22.3630963802" lon="114.2866063106"><ele>28.000</ele></trkpt>
      <trkpt lat="22.3630936750" lon="114.2866064720"><ele>28.000</ele></trkpt>
      <trkpt lat="22.3630909830" lon="114.2866067981"><ele>28.000</ele></trkpt>
      <trkpt lat="22.3630883126" lon="114.2866072882"><ele>28.000</ele></trkpt>
      <trkpt lat="22.3630856721" lon="114.2866079403"><ele>28.000</ele></trkpt>
      <trkpt lat="22.3630830703" lon="114.2866087524"><ele>27.000</ele></trkpt>
      <trkpt lat="22.3630805158" lon="114.2866097220"><ele>27.000</ele></trkpt>
      <trkpt lat="22.3630780041" lon="114.2866108235"><ele>27.000</ele></trkpt>
      <trkpt lat="22.3630739991" lon="114.2866137910"><ele>27.000</ele></trkpt>
      <trkpt lat="22.3630727622" lon="114.2866153360"><ele>27.000</ele></trkpt>
      <trkpt lat="22.3630709445" lon="114.2866174955"><ele>27.000</ele></trkpt>
      <trkpt lat="22.3630690769" lon="114.2866196055"><ele>27.000</ele></trkpt>
      <trkpt lat="22.3630671615" lon="114.2866216652"><ele>27.000</ele></trkpt>
      <trkpt lat="22.3630651987" lon="114.2866236727"><ele>27.000</ele></trkpt>
      <trkpt lat="22.3630631901" lon="114.2866256273"><ele>27.000</ele></trkpt>
      <trkpt lat="22.3630611368" lon="114.2866275274"><ele>27.000</ele></trkpt>
      <trkpt lat="22.3630590403" lon="114.2866293719"><ele>27.000</ele></trkpt>
      <trkpt lat="22.3630569018" lon="114.2866311598"><ele>26.000</ele></trkpt>
      <trkpt lat="22.3630547224" lon="114.2866328900"><ele>26.000</ele></trkpt>
      <trkpt lat="22.3630525036" lon="114.2866345613"><ele>26.000</ele></trkpt>
      <trkpt lat="22.3630502469" lon="114.2866361727"><ele>26.000</ele></trkpt>
      <trkpt lat="22.3630479537" lon="114.2866377231"><ele>26.000</ele></trkpt>
      <trkpt lat="22.3630456253" lon="114.2866392119"><ele>26.000</ele></trkpt>
      <trkpt lat="22.3630432628" lon="114.2866406377"><ele>26.000</ele></trkpt>
      <trkpt lat="22.3630408684" lon="114.2866420000"><ele>26.000</ele></trkpt>
      <trkpt lat="22.3630384430" lon="114.2866432979"><ele>26.000</ele></trkpt>
      <trkpt lat="22.3630359884" lon="114.2866445302"><ele>26.000</ele></trkpt>
      <trkpt lat="22.3630335060" lon="114.2866456967"><ele>26.000</ele></trkpt>
      <trkpt lat="22.3630309975" lon="114.2866467962"><ele>26.000</ele></trkpt>
      <trkpt lat="22.3630284641" lon="114.2866478283"><ele>26.000</ele></trkpt>
      <trkpt lat="22.3630259079" lon="114.2866487923"><ele>26.000</ele></trkpt>
      <trkpt lat="22.3630233299" lon="114.2866496876"><ele>26.000</ele></trkpt>
      <trkpt lat="22.3630207320" lon="114.2866505138"><ele>26.000</ele></trkpt>
      <trkpt lat="22.3630181160" lon="114.2866512700"><ele>26.000</ele></trkpt>
      <trkpt lat="22.3630154829" lon="114.2866519560"><ele>26.000</ele></trkpt>
      <trkpt lat="22.3630128349" lon="114.2866525715"><ele>26.000</ele></trkpt>
      <trkpt lat="22.3630101690" lon="114.2866530888"><ele>25.000</ele></trkpt>
      <trkpt lat="22.3630075069" lon="114.2866536292"><ele>25.000</ele></trkpt>
      <trkpt lat="22.3630048488" lon="114.2866541922"><ele>25.000</ele></trkpt>
      <trkpt lat="22.3630021950" lon="114.2866547780"><ele>25.000</ele></trkpt>
      <trkpt lat="22.3629995455" lon="114.2866553864"><ele>25.000</ele></trkpt>
      <trkpt lat="22.3629969009" lon="114.2866560175"><ele>25.000</ele></trkpt>
      <trkpt lat="22.3629942609" lon="114.2866566713"><ele>25.000</ele></trkpt>
      <trkpt lat="22.3629916300" lon="114.2866573666"><ele>25.000</ele></trkpt>
      <trkpt lat="22.3629889915" lon="114.2866580272"><ele>25.000</ele></trkpt>
      <trkpt lat="22.3629863456" lon="114.2866586528"><ele>25.000</ele></trkpt>
      <trkpt lat="22.3629836651" lon="114.2866590633"><ele>25.000</ele></trkpt>
      <trkpt lat="22.3629810507" lon="114.2866598198"><ele>25.000</ele></trkpt>
      <trkpt lat="22.3629785412" lon="114.2866609132"><ele>25.000</ele></trkpt>
      <trkpt lat="22.3629761705" lon="114.2866623192"><ele>25.000</ele></trkpt>
      <trkpt lat="22.3629739715" lon="114.2866640175"><ele>25.000</ele></trkpt>
      <trkpt lat="22.3629719753" lon="114.2866659839"><ele>25.000</ele></trkpt>
      <trkpt lat="22.3629702102" lon="114.2866681913"><ele>24.000</ele></trkpt>
      <trkpt lat="22.3629687009" lon="114.2866706082"><ele>24.000</ele></trkpt>
      <trkpt lat="22.3629674692" lon="114.2866732005"><ele>24.000</ele></trkpt>
      <trkpt lat="22.3629665320" lon="114.2866759316"><ele>24.000</ele></trkpt>
      <trkpt lat="22.3629660543" lon="114.2866787985"><ele>24.000</ele></trkpt>
      <trkpt lat="22.3629654796" lon="114.2866816447"><ele>24.000</ele></trkpt>
      <trkpt lat="22.3629648088" lon="114.2866844666"><ele>24.000</ele></trkpt>
      <trkpt lat="22.3629640427" lon="114.2866872603"><ele>24.000</ele></trkpt>
      <trkpt lat="22.3629631822" lon="114.2866900218"><ele>24.000</ele></trkpt>
      <trkpt lat="22.3629622286" lon="114.2866927480"><ele>24.000</ele></trkpt>
      <trkpt lat="22.3629611833" lon="114.2866954349"><ele>24.000</ele></trkpt>
      <trkpt lat="22.3629600472" lon="114.2866980790"><ele>24.000</ele></trkpt>
      <trkpt lat="22.3629588223" lon="114.2867006766"><ele>24.000</ele></trkpt>
      <trkpt lat="22.3629575098" lon="114.2867032247"><ele>24.000</ele></trkpt>
      <trkpt lat="22.3629561120" lon="114.2867057195"><ele>24.000</ele></trkpt>
      <trkpt lat="22.3629546302" lon="114.2867081577"><ele>24.000</ele></trkpt>
      <trkpt lat="22.3629530668" lon="114.2867105362"><ele>23.000</ele></trkpt>
      <trkpt lat="22.3629514237" lon="114.2867128517"><ele>23.000</ele></trkpt>
      <trkpt lat="22.3629497029" lon="114.2867151014"><ele>23.000</ele></trkpt>
      <trkpt lat="22.3629479071" lon="114.2867172821"><ele>23.000</ele></trkpt>
      <trkpt lat="22.3629460384" lon="114.2867193906"><ele>23.000</ele></trkpt>
      <trkpt lat="22.3629440995" lon="114.2867214246"><ele>23.000</ele></trkpt>
      <trkpt lat="22.3629420927" lon="114.2867233813"><ele>23.000</ele></trkpt>
      <trkpt lat="22.3629400210" lon="114.2867252576"><ele>23.000</ele></trkpt>
      <trkpt lat="22.3629378870" lon="114.2867270516"><ele>23.000</ele></trkpt>
      <trkpt lat="22.3629356932" lon="114.2867287609"><ele>23.000</ele></trkpt>
      <trkpt lat="22.3629310753" lon="114.2867321971"><ele>23.000</ele></trkpt>
      <trkpt lat="22.3629266640" lon="114.2867334685"><ele>23.000</ele></trkpt>
      <trkpt lat="22.3629240464" lon="114.2867342198"><ele>22.000</ele></trkpt>
      <trkpt lat="22.3629214279" lon="114.2867349683"><ele>22.000</ele></trkpt>
      <trkpt lat="22.3629188095" lon="114.2867357167"><ele>22.000</ele></trkpt>
      <trkpt lat="22.3629161910" lon="114.2867364642"><ele>22.000</ele></trkpt>
      <trkpt lat="22.3629135735" lon="114.2867372126"><ele>22.000</ele></trkpt>
      <trkpt lat="22.3629109550" lon="114.2867379630"><ele>22.000</ele></trkpt>
      <trkpt lat="22.3629083384" lon="114.2867387163"><ele>22.000</ele></trkpt>
      <trkpt lat="22.3629057226" lon="114.2867394735"><ele>22.000</ele></trkpt>
      <trkpt lat="22.3629031077" lon="114.2867402356"><ele>22.000</ele></trkpt>
      <trkpt lat="22.3629004703" lon="114.2867409403"><ele>22.000</ele></trkpt>
      <trkpt lat="22.3628978591" lon="114.2867417150"><ele>22.000</ele></trkpt>
      <trkpt lat="22.3628953894" lon="114.2867428791"><ele>22.000</ele></trkpt>
      <trkpt lat="22.3628930314" lon="114.2867443365"><ele>22.000</ele></trkpt>
      <trkpt lat="22.3628907537" lon="114.2867459153"><ele>22.000</ele></trkpt>
      <trkpt lat="22.3628885464" lon="114.2867476146"><ele>22.000</ele></trkpt>
      <trkpt lat="22.3628862173" lon="114.2867490895"><ele>22.000</ele></trkpt>
      <trkpt lat="22.3628837665" lon="114.2867503468"><ele>22.000</ele></trkpt>
      <trkpt lat="22.3628812427" lon="114.2867514012"><ele>22.000</ele></trkpt>
      <trkpt lat="22.3628786467" lon="114.2867522526"><ele>22.000</ele></trkpt>
      <trkpt lat="22.3628760039" lon="114.2867528932"><ele>22.000</ele></trkpt>
      <trkpt lat="22.3628733198" lon="114.2867533212"><ele>22.000</ele></trkpt>
      <trkpt lat="22.3628706159" lon="114.2867535347"><ele>22.000</ele></trkpt>
      <trkpt lat="22.3628679058" lon="114.2867535296"><ele>22.000</ele></trkpt>
      <trkpt lat="22.3628651995" lon="114.2867533090"><ele>22.000</ele></trkpt>
      <trkpt lat="22.3628625214" lon="114.2867528729"><ele>22.000</ele></trkpt>
      <trkpt lat="22.3628598749" lon="114.2867522223"><ele>22.000</ele></trkpt>
      <trkpt lat="22.3628572883" lon="114.2867513649"><ele>22.000</ele></trkpt>
      <trkpt lat="22.3628547595" lon="114.2867502998"><ele>22.000</ele></trkpt>
      <trkpt lat="22.3628523195" lon="114.2867490396"><ele>22.000</ele></trkpt>
      <trkpt lat="22.3628499662" lon="114.2867475824"><ele>22.000</ele></trkpt>
      <trkpt lat="22.3628477268" lon="114.2867459476"><ele>22.000</ele></trkpt>
      <trkpt lat="22.3628456005" lon="114.2867441313"><ele>22.000</ele></trkpt>
      <trkpt lat="22.3628436106" lon="114.2867421569"><ele>22.000</ele></trkpt>
      <trkpt lat="22.3628417589" lon="114.2867400233"><ele>22.000</ele></trkpt>
      <trkpt lat="22.3628400627" lon="114.2867377511"><ele>22.000</ele></trkpt>
      <trkpt lat="22.3628385274" lon="114.2867353479"><ele>22.000</ele></trkpt>
      <trkpt lat="22.3628371610" lon="114.2867328283"><ele>22.000</ele></trkpt>
      <trkpt lat="22.3628359752" lon="114.2867302089"><ele>21.000</ele></trkpt>
      <trkpt lat="22.3628349711" lon="114.2867274973"><ele>22.000</ele></trkpt>
      <trkpt lat="22.3628341602" lon="114.2867247199"><ele>21.000</ele></trkpt>
      <trkpt lat="22.3628335408" lon="114.2867218776"><ele>21.000</ele></trkpt>
      <trkpt lat="22.3628331310" lon="114.2867190035"><ele>21.000</ele></trkpt>
      <trkpt lat="22.3628329289" lon="114.2867160935"><ele>21.000</ele></trkpt>
      <trkpt lat="22.3628328541" lon="114.2867131818"><ele>21.000</ele></trkpt>
      <trkpt lat="22.3628329175" lon="114.2867102691"><ele>21.000</ele></trkpt>
      <trkpt lat="22.3628330043" lon="114.2867073565"><ele>21.000</ele></trkpt>
      <trkpt lat="22.3628330840" lon="114.2867044448"><ele>21.000</ele></trkpt>
      <trkpt lat="22.3628331781" lon="114.2867015342"><ele>21.000</ele></trkpt>
      <trkpt lat="22.3628332857" lon="114.2866986235"><ele>21.000</ele></trkpt>
      <trkpt lat="22.3628334078" lon="114.2866957138"><ele>21.000</ele></trkpt>
      <trkpt lat="22.3628335443" lon="114.2866928051"><ele>21.000</ele></trkpt>
      <trkpt lat="22.3628336944" lon="114.2866898964"><ele>20.000</ele></trkpt>
      <trkpt lat="22.3628338589" lon="114.2866869897"><ele>20.000</ele></trkpt>
      <trkpt lat="22.3628340379" lon="114.2866840830"><ele>20.000</ele></trkpt>
      <trkpt lat="22.3628342304" lon="114.2866811782"><ele>20.000</ele></trkpt>
      <trkpt lat="22.3628344374" lon="114.2866782734"><ele>20.000</ele></trkpt>
      <trkpt lat="22.3628346579" lon="114.2866753706"><ele>20.000</ele></trkpt>
      <trkpt lat="22.3628348937" lon="114.2866724688"><ele>19.000</ele></trkpt>
      <trkpt lat="22.3628351422" lon="114.2866695689"><ele>19.000</ele></trkpt>
      <trkpt lat="22.3628354061" lon="114.2866666701"><ele>19.000</ele></trkpt>
      <trkpt lat="22.3628356835" lon="114.2866637721"><ele>19.000</ele></trkpt>
      <trkpt lat="22.3628359753" lon="114.2866608762"><ele>19.000</ele></trkpt>
      <trkpt lat="22.3628362807" lon="114.2866579822"><ele>19.000</ele></trkpt>
      <trkpt lat="22.3628366005" lon="114.2866550901"><ele>19.000</ele></trkpt>
      <trkpt lat="22.3628369339" lon="114.2866522000"><ele>18.000</ele></trkpt>
      <trkpt lat="22.3628372818" lon="114.2866493109"><ele>18.000</ele></trkpt>
      <trkpt lat="22.3628376440" lon="114.2866464247"><ele>18.000</ele></trkpt>
      <trkpt lat="22.3628380397" lon="114.2866435425"><ele>18.000</ele></trkpt>
      <trkpt lat="22.3628384544" lon="114.2866406621"><ele>18.000</ele></trkpt>
      <trkpt lat="22.3628387164" lon="114.2866377671"><ele>18.000</ele></trkpt>
      <trkpt lat="22.3628388258" lon="114.2866348555"><ele>18.000</ele></trkpt>
      <trkpt lat="22.3628388919" lon="114.2866319419"><ele>17.000</ele></trkpt>
      <trkpt lat="22.3628389147" lon="114.2866290292"><ele>17.000</ele></trkpt>
      <trkpt lat="22.3628389510" lon="114.2866261175"><ele>17.000</ele></trkpt>
      <trkpt lat="22.3628390270" lon="114.2866232059"><ele>17.000</ele></trkpt>
      <trkpt lat="22.3628391274" lon="114.2866202952"><ele>17.000</ele></trkpt>
      <trkpt lat="22.3628392540" lon="114.2866173855"><ele>16.000</ele></trkpt>
      <trkpt lat="22.3628394050" lon="114.2866144768"><ele>16.000</ele></trkpt>
      <trkpt lat="22.3628395812" lon="114.2866115711"><ele>16.000</ele></trkpt>
      <trkpt lat="22.3628397837" lon="114.2866086663"><ele>16.000</ele></trkpt>
      <trkpt lat="22.3628400105" lon="114.2866057635"><ele>16.000</ele></trkpt>
      <trkpt lat="22.3628402617" lon="114.2866028636"><ele>16.000</ele></trkpt>
      <trkpt lat="22.3628405391" lon="114.2865999657"><ele>16.000</ele></trkpt>
      <trkpt lat="22.3628408418" lon="114.2865970717"><ele>16.000</ele></trkpt>
      <trkpt lat="22.3628411689" lon="114.2865941797"><ele>16.000</ele></trkpt>
      <trkpt lat="22.3628415212" lon="114.2865912915"><ele>16.000</ele></trkpt>
      <trkpt lat="22.3628418988" lon="114.2865884073"><ele>15.000</ele></trkpt>
      <trkpt lat="22.3628423008" lon="114.2865855270"><ele>15.000</ele></trkpt>
      <trkpt lat="22.3628427281" lon="114.2865826505"><ele>15.000</ele></trkpt>
      <trkpt lat="22.3628431807" lon="114.2865797790"><ele>15.000</ele></trkpt>
      <trkpt lat="22.3628436576" lon="114.2865769123"><ele>15.000</ele></trkpt>
      <trkpt lat="22.3628441599" lon="114.2865740495"><ele>15.000</ele></trkpt>
      <trkpt lat="22.3628446865" lon="114.2865711926"><ele>14.000</ele></trkpt>
      <trkpt lat="22.3628452375" lon="114.2865683405"><ele>14.000</ele></trkpt>
      <trkpt lat="22.3628458137" lon="114.2865654943"><ele>14.000</ele></trkpt>
      <trkpt lat="22.3628464144" lon="114.2865626549"><ele>14.000</ele></trkpt>
      <trkpt lat="22.3628470403" lon="114.2865598204"><ele>14.000</ele></trkpt>
      <trkpt lat="22.3628476897" lon="114.2865569927"><ele>14.000</ele></trkpt>
      <trkpt lat="22.3628483644" lon="114.2865541718"><ele>14.000</ele></trkpt>
      <trkpt lat="22.3628490635" lon="114.2865513577"><ele>13.000</ele></trkpt>
      <trkpt lat="22.3628497869" lon="114.2865485504"><ele>14.000</ele></trkpt>
      <trkpt lat="22.3628505338" lon="114.2865457509"><ele>14.000</ele></trkpt>
      <trkpt lat="22.3628513060" lon="114.2865429583"><ele>14.000</ele></trkpt>
      <trkpt lat="22.3628521017" lon="114.2865401744"><ele>13.000</ele></trkpt>
      <trkpt lat="22.3628529218" lon="114.2865373982"><ele>13.000</ele></trkpt>
      <trkpt lat="22.3628537653" lon="114.2865346309"><ele>13.000</ele></trkpt>
      <trkpt lat="22.3628546332" lon="114.2865318713"><ele>13.000</ele></trkpt>
      <trkpt lat="22.3628555254" lon="114.2865291214"><ele>13.000</ele></trkpt>
      <trkpt lat="22.3628564412" lon="114.2865263794"><ele>13.000</ele></trkpt>
      <trkpt lat="22.3628573804" lon="114.2865236480"><ele>13.000</ele></trkpt>
      <trkpt lat="22.3628583431" lon="114.2865209254"><ele>13.000</ele></trkpt>
      <trkpt lat="22.3628593302" lon="114.2865182125"><ele>13.000</ele></trkpt>
      <trkpt lat="22.3628603398" lon="114.2865155094"><ele>13.000</ele></trkpt>
      <trkpt lat="22.3628613738" lon="114.2865128169"><ele>12.000</ele></trkpt>
      <trkpt lat="22.3628624304" lon="114.2865101351"><ele>12.000</ele></trkpt>
      <trkpt lat="22.3628635105" lon="114.2865074641"><ele>12.000</ele></trkpt>
      <trkpt lat="22.3628646131" lon="114.2865048037"><ele>12.000</ele></trkpt>
      <trkpt lat="22.3628657392" lon="114.2865021541"><ele>12.000</ele></trkpt>
      <trkpt lat="22.3628668879" lon="114.2864995161"><ele>12.000</ele></trkpt>
      <trkpt lat="22.3628680600" lon="114.2864968907"><ele>12.000</ele></trkpt>
      <trkpt lat="22.3628692547" lon="114.2864942760"><ele>12.000</ele></trkpt>
      <trkpt lat="22.3628704711" lon="114.2864916740"><ele>12.000</ele></trkpt>
      <trkpt lat="22.3628717109" lon="114.2864890837"><ele>12.000</ele></trkpt>
      <trkpt lat="22.3628729724" lon="114.2864865059"><ele>12.000</ele></trkpt>
      <trkpt lat="22.3628742574" lon="114.2864839418"><ele>12.000</ele></trkpt>
      <trkpt lat="22.3628755631" lon="114.2864813894"><ele>12.000</ele></trkpt>
      <trkpt lat="22.3628768923" lon="114.2864788516"><ele>12.000</ele></trkpt>
      <trkpt lat="22.3628782423" lon="114.2864763263"><ele>12.000</ele></trkpt>
      <trkpt lat="22.3628796148" lon="114.2864738147"><ele>11.000</ele></trkpt>
      <trkpt lat="22.3628810090" lon="114.2864713177"><ele>11.000</ele></trkpt>
      <trkpt lat="22.3628824240" lon="114.2864688333"><ele>12.000</ele></trkpt>
      <trkpt lat="22.3628838615" lon="114.2864663645"><ele>12.000</ele></trkpt>
      <trkpt lat="22.3628853198" lon="114.2864639102"><ele>12.000</ele></trkpt>
      <trkpt lat="22.3628867989" lon="114.2864614696"><ele>12.000</ele></trkpt>
      <trkpt lat="22.3628882996" lon="114.2864590445"><ele>12.000</ele></trkpt>
      <trkpt lat="22.3628898219" lon="114.2864566349"><ele>12.000</ele></trkpt>
      <trkpt lat="22.3628913642" lon="114.2864542400"><ele>11.000</ele></trkpt>
      <trkpt lat="22.3628929272" lon="114.2864518615"><ele>11.000</ele></trkpt>
      <trkpt lat="22.3628945109" lon="114.2864494977"><ele>11.000</ele></trkpt>
      <trkpt lat="22.3628961145" lon="114.2864471503"><ele>12.000</ele></trkpt>
      <trkpt lat="22.3628977389" lon="114.2864448195"><ele>11.000</ele></trkpt>
      <trkpt lat="22.3628993840" lon="114.2864425052"><ele>11.000</ele></trkpt>
      <trkpt lat="22.3629010481" lon="114.2864402064"><ele>11.000</ele></trkpt>
      <trkpt lat="22.3629027329" lon="114.2864379252"><ele>11.000</ele></trkpt>
      <trkpt lat="22.3629044367" lon="114.2864356604"><ele>11.000</ele></trkpt>
      <trkpt lat="22.3629061604" lon="114.2864334142"><ele>11.000</ele></trkpt>
      <trkpt lat="22.3629079030" lon="114.2864311834"><ele>11.000</ele></trkpt>
      <trkpt lat="22.3629096645" lon="114.2864289702"><ele>11.000</ele></trkpt>
      <trkpt lat="22.3629114441" lon="114.2864267745"><ele>11.000</ele></trkpt>
      <trkpt lat="22.3629132977" lon="114.2864246341"><ele>11.000</ele></trkpt>
      <trkpt lat="22.3629152948" lon="114.2864225900"><ele>11.000</ele></trkpt>
      <trkpt lat="22.3629171250" lon="114.2864204428"><ele>11.000</ele></trkpt>
      <trkpt lat="22.3629184722" lon="114.2864179914"><ele>11.000</ele></trkpt>
      <trkpt lat="22.3629194340" lon="114.2864152969"><ele>11.000</ele></trkpt>
      <trkpt lat="22.3629201962" lon="114.2864124771"><ele>11.000</ele></trkpt>
      <trkpt lat="22.3629209098" lon="114.2864096271"><ele>11.000</ele></trkpt>
      <trkpt lat="22.3629217154" lon="114.2864068335"><ele>11.000</ele></trkpt>
      <trkpt lat="22.3629225607" lon="114.2864040671"><ele>11.000</ele></trkpt>
      <trkpt lat="22.3629234286" lon="114.2864013075"><ele>11.000</ele></trkpt>
      <trkpt lat="22.3629243308" lon="114.2863985615"><ele>11.000</ele></trkpt>
      <trkpt lat="22.3629252538" lon="114.2863958224"><ele>11.000</ele></trkpt>
      <trkpt lat="22.3629261975" lon="114.2863930920"><ele>11.000</ele></trkpt>
      <trkpt lat="22.3629271503" lon="114.2863903655"><ele>11.000</ele></trkpt>
      <trkpt lat="22.3629280886" lon="114.2863876331"><ele>11.000</ele></trkpt>
      <trkpt lat="22.3629290206" lon="114.2863848979"><ele>10.000</ele></trkpt>
      <trkpt lat="22.3629299435" lon="114.2863821597"><ele>10.000</ele></trkpt>
      <trkpt lat="22.3629308593" lon="114.2863794186"><ele>10.000</ele></trkpt>
      <trkpt lat="22.3629317660" lon="114.2863766736"><ele>10.000</ele></trkpt>
      <trkpt lat="22.3629326655" lon="114.2863739267"><ele>10.000</ele></trkpt>
      <trkpt lat="22.3629335569" lon="114.2863711759"><ele>10.000</ele></trkpt>
      <trkpt lat="22.3629344401" lon="114.2863684221"><ele>10.000</ele></trkpt>
      <trkpt lat="22.3629353152" lon="114.2863656664"><ele>10.000</ele></trkpt>
      <trkpt lat="22.3629361831" lon="114.2863629068"><ele>10.000</ele></trkpt>
      <trkpt lat="22.3629370420" lon="114.2863601443"><ele>9.000</ele></trkpt>
      <trkpt lat="22.3629378936" lon="114.2863573789"><ele>9.000</ele></trkpt>
      <trkpt lat="22.3629387363" lon="114.2863546106"><ele>9.000</ele></trkpt>
      <trkpt lat="22.3629395716" lon="114.2863518403"><ele>9.000</ele></trkpt>
      <trkpt lat="22.3629403989" lon="114.2863490661"><ele>9.000</ele></trkpt>
      <trkpt lat="22.3629412181" lon="114.2863462900"><ele>9.000</ele></trkpt>
      <trkpt lat="22.3629420291" lon="114.2863435109"><ele>9.000</ele></trkpt>
      <trkpt lat="22.3629428311" lon="114.2863407290"><ele>9.000</ele></trkpt>
      <trkpt lat="22.3629436258" lon="114.2863379441"><ele>8.000</ele></trkpt>
      <trkpt lat="22.3629444125" lon="114.2863351573"><ele>8.000</ele></trkpt>
      <trkpt lat="22.3629451910" lon="114.2863323675"><ele>9.000</ele></trkpt>
      <trkpt lat="22.3629459469" lon="114.2863295651"><ele>9.000</ele></trkpt>
      <trkpt lat="22.3629464880" lon="114.2863266179"><ele>8.000</ele></trkpt>
      <trkpt lat="22.3629475193" lon="114.2863240109"><ele>8.000</ele></trkpt>
      <trkpt lat="22.3629493647" lon="114.2863219744"><ele>8.000</ele></trkpt>
      <trkpt lat="22.3629515396" lon="114.2863201673"><ele>8.000</ele></trkpt>
      <trkpt lat="22.3629537226" lon="114.2863183535"><ele>8.000</ele></trkpt>
      <trkpt lat="22.3629557151" lon="114.2863163773"><ele>8.000</ele></trkpt>
      <trkpt lat="22.3629576337" lon="114.2863143195"><ele>8.000</ele></trkpt>
      <trkpt lat="22.3629594972" lon="114.2863122054"><ele>8.000</ele></trkpt>
      <trkpt lat="22.3629613039" lon="114.2863100339"><ele>8.000</ele></trkpt>
      <trkpt lat="22.3629630474" lon="114.2863078042"><ele>8.000</ele></trkpt>
      <trkpt lat="22.3629647259" lon="114.2863055181"><ele>8.000</ele></trkpt>
      <trkpt lat="22.3629663512" lon="114.2863031872"><ele>8.000</ele></trkpt>
      <trkpt lat="22.3629678979" lon="114.2863007942"><ele>8.000</ele></trkpt>
      <trkpt lat="22.3629695060" lon="114.2862984517"><ele>8.000</ele></trkpt>
      <trkpt lat="22.3629712252" lon="114.2862961977"><ele>8.000</ele></trkpt>
      <trkpt lat="22.3629730418" lon="114.2862940369"><ele>8.000</ele></trkpt>
      <trkpt lat="22.3629749712" lon="114.2862919898"><ele>8.000</ele></trkpt>
      <trkpt lat="22.3629769998" lon="114.2862900564"><ele>8.000</ele></trkpt>
      <trkpt lat="22.3629791205" lon="114.2862882444"><ele>7.000</ele></trkpt>
      <trkpt lat="22.3629813315" lon="114.2862865558"><ele>7.000</ele></trkpt>
      <trkpt lat="22.3629836199" lon="114.2862849983"><ele>7.000</ele></trkpt>
      <trkpt lat="22.3629859860" lon="114.2862835720"><ele>7.000</ele></trkpt>
      <trkpt lat="22.3629884161" lon="114.2862822875"><ele>7.000</ele></trkpt>
      <trkpt lat="22.3629909102" lon="114.2862811418"><ele>7.000</ele></trkpt>
      <trkpt lat="22.3629934548" lon="114.2862801457"><ele>7.000</ele></trkpt>
      <trkpt lat="22.3629960507" lon="114.2862793040"><ele>7.000</ele></trkpt>
      <trkpt lat="22.3629986782" lon="114.2862785925"><ele>7.000</ele></trkpt>
      <trkpt lat="22.3630013651" lon="114.2862781188"><ele>7.000</ele></trkpt>
      <trkpt lat="22.3630039925" lon="114.2862774626"><ele>7.000</ele></trkpt>
      <trkpt lat="22.3630065281" lon="114.2862763791"><ele>7.000</ele></trkpt>
      <trkpt lat="22.3630088851" lon="114.2862749353"><ele>7.000</ele></trkpt>
      <trkpt lat="22.3630109517" lon="114.2862730515"><ele>7.000</ele></trkpt>
      <trkpt lat="22.3630127196" lon="114.2862708071"><ele>6.000</ele></trkpt>
      <trkpt lat="22.3630140704" lon="114.2862683023"><ele>6.000</ele></trkpt>
      <trkpt lat="22.3630150404" lon="114.2862655486"><ele>6.000</ele></trkpt>
      <trkpt lat="22.3630156248" lon="114.2862627238"><ele>6.000</ele></trkpt>
      <trkpt lat="22.3630158435" lon="114.2862598064"><ele>6.000</ele></trkpt>
      <trkpt lat="22.3630161182" lon="114.2862569027"><ele>6.000</ele></trkpt>
      <trkpt lat="22.3630164515" lon="114.2862540116"><ele>5.000</ele></trkpt>
      <trkpt lat="22.3630168346" lon="114.2862511293"><ele>5.000</ele></trkpt>
      <trkpt lat="22.3630172745" lon="114.2862482548"><ele>5.000</ele></trkpt>
      <trkpt lat="22.3630177650" lon="114.2862453901"><ele>5.000</ele></trkpt>
      <trkpt lat="22.3630183060" lon="114.2862425361"><ele>5.000</ele></trkpt>
      <trkpt lat="22.3630188985" lon="114.2862396928"><ele>4.000</ele></trkpt>
      <trkpt lat="22.3630195407" lon="114.2862368631"><ele>4.000</ele></trkpt>
      <trkpt lat="22.3630202335" lon="114.2862340471"><ele>4.000</ele></trkpt>
      <trkpt lat="22.3630209759" lon="114.2862312466"><ele>4.000</ele></trkpt>
      <trkpt lat="22.3630217688" lon="114.2862284607"><ele>4.000</ele></trkpt>
      <trkpt lat="22.3630226105" lon="114.2862256924"><ele>4.000</ele></trkpt>
      <trkpt lat="22.3630235010" lon="114.2862229406"><ele>4.000</ele></trkpt>
      <trkpt lat="22.3630244411" lon="114.2862202092"><ele>4.000</ele></trkpt>
      <trkpt lat="22.3630254291" lon="114.2862174963"><ele>4.000</ele></trkpt>
      <trkpt lat="22.3630264649" lon="114.2862148058"><ele>4.000</ele></trkpt>
      <trkpt lat="22.3630275485" lon="114.2862121357"><ele>4.000</ele></trkpt>
      <trkpt lat="22.3630286792" lon="114.2862094890"><ele>4.000</ele></trkpt>
      <trkpt lat="22.3630298576" lon="114.2862068656"><ele>4.000</ele></trkpt>
      <trkpt lat="22.3630310821" lon="114.2862042674"><ele>4.000</ele></trkpt>
      <trkpt lat="22.3630323517" lon="114.2862016946"><ele>4.000</ele></trkpt>
      <trkpt lat="22.3630336683" lon="114.2861991480"><ele>4.000</ele></trkpt>
      <trkpt lat="22.3630350291" lon="114.2861966295"><ele>4.000</ele></trkpt>
      <trkpt lat="22.3630364341" lon="114.2861941383"><ele>4.000</ele></trkpt>
      <trkpt lat="22.3630378834" lon="114.2861916782"><ele>4.000</ele></trkpt>
      <trkpt lat="22.3630393769" lon="114.2861892473"><ele>4.000</ele></trkpt>
      <trkpt lat="22.3630409128" lon="114.2861868475"><ele>4.000</ele></trkpt>
      <trkpt lat="22.3630424911" lon="114.2861844797"><ele>4.000</ele></trkpt>
      <trkpt lat="22.3630441109" lon="114.2861821460"><ele>3.000</ele></trkpt>
      <trkpt lat="22.3630457723" lon="114.2861798443"><ele>3.000</ele></trkpt>
      <trkpt lat="22.3630474743" lon="114.2861775786"><ele>3.000</ele></trkpt>
      <trkpt lat="22.3630492160" lon="114.2861753469"><ele>3.000</ele></trkpt>
      <trkpt lat="22.3630509974" lon="114.2861731521"><ele>3.000</ele></trkpt>
      <trkpt lat="22.3630528176" lon="114.2861709943"><ele>3.000</ele></trkpt>
      <trkpt lat="22.3630546757" lon="114.2861688743"><ele>3.000</ele></trkpt>
      <trkpt lat="22.3630565708" lon="114.2861667932"><ele>3.000</ele></trkpt>
      <trkpt lat="22.3630585029" lon="114.2861647510"><ele>3.000</ele></trkpt>
      <trkpt lat="22.3630604603" lon="114.2861627340"><ele>3.000</ele></trkpt>
      <trkpt lat="22.3630624538" lon="114.2861607598"><ele>3.000</ele></trkpt>
      <trkpt lat="22.3630645663" lon="114.2861589449"><ele>3.000</ele></trkpt>
      <trkpt lat="22.3630667908" lon="114.2861572776"><ele>3.000</ele></trkpt>
      <trkpt lat="22.3630689665" lon="114.2861555414"><ele>3.000</ele></trkpt>
      <trkpt lat="22.3630710872" lon="114.2861537275"><ele>3.000</ele></trkpt>
      <trkpt lat="22.3630731601" lon="114.2861518524"><ele>3.000</ele></trkpt>
      <trkpt lat="22.3630751824" lon="114.2861499131"><ele>3.000</ele></trkpt>
      <trkpt lat="22.3630771533" lon="114.2861479146"><ele>3.000</ele></trkpt>
      <trkpt lat="22.3630790719" lon="114.2861458578"><ele>3.000</ele></trkpt>
      <trkpt lat="22.3630809372" lon="114.2861437446"><ele>4.000</ele></trkpt>
      <trkpt lat="22.3630827457" lon="114.2861415761"><ele>4.000</ele></trkpt>
      <trkpt lat="22.3630844973" lon="114.2861393531"><ele>4.000</ele></trkpt>
      <trkpt lat="22.3630861912" lon="114.2861370796"><ele>3.000</ele></trkpt>
      <trkpt lat="22.3630878254" lon="114.2861347556"><ele>3.000</ele></trkpt>
      <trkpt lat="22.3630893975" lon="114.2861323840"><ele>3.000</ele></trkpt>
      <trkpt lat="22.3630909090" lon="114.2861299647"><ele>3.000</ele></trkpt>
      <trkpt lat="22.3630923555" lon="114.2861275036"><ele>3.000</ele></trkpt>
      <trkpt lat="22.3630937389" lon="114.2861249979"><ele>3.000</ele></trkpt>
      <trkpt lat="22.3630950564" lon="114.2861224522"><ele>3.000</ele></trkpt>
      <trkpt lat="22.3630963070" lon="114.2861198677"><ele>3.000</ele></trkpt>
      <trkpt lat="22.3630974900" lon="114.2861172482"><ele>3.000</ele></trkpt>
      <trkpt lat="22.3630986053" lon="114.2861145927"><ele>3.000</ele></trkpt>
      <trkpt lat="22.3630996501" lon="114.2861119051"><ele>3.000</ele></trkpt>
      <trkpt lat="22.3631006254" lon="114.2861091873"><ele>3.000</ele></trkpt>
      <trkpt lat="22.3631015303" lon="114.2861064413"><ele>3.000</ele></trkpt>
      <trkpt lat="22.3631023630" lon="114.2861036691"><ele>3.000</ele></trkpt>
      <trkpt lat="22.3631031235" lon="114.2861008735"><ele>3.000</ele></trkpt>
      <trkpt lat="22.3631038108" lon="114.2860980565"><ele>3.000</ele></trkpt>
      <trkpt lat="22.3631044250" lon="114.2860952181"><ele>3.000</ele></trkpt>
      <trkpt lat="22.3631049651" lon="114.2860923640"><ele>3.000</ele></trkpt>
      <trkpt lat="22.3631053161" lon="114.2860902050"><ele>3.000</ele></trkpt>
    </trkseg>
  </trk>
</gpx>
