<?xml version="1.0" encoding="UTF-8"?>
<gpx xmlns:xsi="http://www.w3.org/2001/XMLSchema-instance"
     xsi:schemaLocation="http://www.topografix.com/GPX/1/1 http://www.topografix.com/GPX/1/1/gpx.xsd"
     version="1.1" creator="json3d_batch_to_gpx"
     xmlns="http://www.topografix.com/GPX/1/1">
  <metadata>
    <name>TaiTamTreeWalk</name>
  </metadata>
  <trk>
    <name>TaiTamTreeWalk</name>
    <type>hike</type>
    <trkseg>
      <trkpt lat="22.2592654160" lon="114.2047770634"><ele>248.000</ele></trkpt>
      <trkpt lat="22.2592654174" lon="114.2047691176"><ele>248.000</ele></trkpt>
      <trkpt lat="22.2592648030" lon="114.2047605090"><ele>246.000</ele></trkpt>
      <trkpt lat="22.2592648047" lon="114.2047505763"><ele>246.000</ele></trkpt>
      <trkpt lat="22.2592641900" lon="114.2047432921"><ele>246.000</ele></trkpt>
      <trkpt lat="22.2592641911" lon="114.2047373332"><ele>246.000</ele></trkpt>
      <trkpt lat="22.2592654241" lon="114.2047300493"><ele>246.000</ele></trkpt>
      <trkpt lat="22.2592654248" lon="114.2047260764"><ele>246.000</ele></trkpt>
      <trkpt lat="22.2592660429" lon="114.2047181308"><ele>246.000</ele></trkpt>
      <trkpt lat="22.2592666610" lon="114.2047108468"><ele>247.000</ele></trkpt>
      <trkpt lat="22.2592666625" lon="114.2047022384"><ele>247.000</ele></trkpt>
      <trkpt lat="22.2592592670" lon="114.2046982640"><ele>247.000</ele></trkpt>
      <trkpt lat="22.2592524877" lon="114.2046929655"><ele>247.000</ele></trkpt>
      <trkpt lat="22.2592457081" lon="114.2046896529"><ele>247.000</ele></trkpt>
      <trkpt lat="22.2592389284" lon="114.2046863413"><ele>248.000</ele></trkpt>
      <trkpt lat="22.2592327657" lon="114.2046823672"><ele>248.000</ele></trkpt>
      <trkpt lat="22.2592272201" lon="114.2046764063"><ele>248.000</ele></trkpt>
      <trkpt lat="22.2592229060" lon="114.2046717699"><ele>248.000</ele></trkpt>
      <trkpt lat="22.2592210582" lon="114.2046618368"><ele>248.000</ele></trkpt>
      <trkpt lat="22.2592192111" lon="114.2046532280"><ele>248.000</ele></trkpt>
      <trkpt lat="22.2592167469" lon="114.2046466060"><ele>248.000</ele></trkpt>
      <trkpt lat="22.2592118174" lon="114.2046393219"><ele>248.000</ele></trkpt>
      <trkpt lat="22.2592105860" lon="114.2046320375"><ele>248.000</ele></trkpt>
      <trkpt lat="22.2592007248" lon="114.2046247515"><ele>248.000</ele></trkpt>
      <trkpt lat="22.2591877829" lon="114.2046148172"><ele>248.000</ele></trkpt>
      <trkpt lat="22.2591643643" lon="114.2046002443"><ele>248.000</ele></trkpt>
      <trkpt lat="22.2591569683" lon="114.2045942830"><ele>248.000</ele></trkpt>
      <trkpt lat="22.2591501891" lon="114.2045936200"><ele>248.000</ele></trkpt>
      <trkpt lat="22.2591446425" lon="114.2045883218"><ele>248.000</ele></trkpt>
      <trkpt lat="22.2591132112" lon="114.2045677885"><ele>250.000</ele></trkpt>
      <trkpt lat="22.2591045832" lon="114.2045631512"><ele>250.000</ele></trkpt>
      <trkpt lat="22.2590978033" lon="114.2045611630"><ele>250.000</ele></trkpt>
      <trkpt lat="22.2590743834" lon="114.2045545369"><ele>250.000</ele></trkpt>
      <trkpt lat="22.2590589749" lon="114.2045518853"><ele>250.000</ele></trkpt>
      <trkpt lat="22.2590509627" lon="114.2045472491"><ele>250.000</ele></trkpt>
      <trkpt lat="22.2590423347" lon="114.2045426119"><ele>250.000</ele></trkpt>
      <trkpt lat="22.2590392529" lon="114.2045406244"><ele>250.000</ele></trkpt>
      <trkpt lat="22.2590337033" lon="114.2045525429"><ele>250.000</ele></trkpt>
      <trkpt lat="22.2590244538" lon="114.2045810139"><ele>248.000</ele></trkpt>
      <trkpt lat="22.2589979464" lon="114.2046002115"><ele>245.000</ele></trkpt>
      <trkpt lat="22.2589788363" lon="114.2046180862"><ele>248.000</ele></trkpt>
      <trkpt lat="22.2589714385" lon="114.2046280174"><ele>248.000</ele></trkpt>
      <trkpt lat="22.2589658894" lon="114.2046372864"><ele>246.000</ele></trkpt>
      <trkpt lat="22.2589517127" lon="114.2046392705"><ele>246.000</ele></trkpt>
      <trkpt lat="22.2589264440" lon="114.2046286702"><ele>246.000</ele></trkpt>
      <trkpt lat="22.2589221310" lon="114.2046180750"><ele>246.000</ele></trkpt>
      <trkpt lat="22.2589239831" lon="114.2046028455"><ele>242.000</ele></trkpt>
      <trkpt lat="22.2589252185" lon="114.2045869542"><ele>242.000</ele></trkpt>
      <trkpt lat="22.2589252203" lon="114.2045763589"><ele>242.000</ele></trkpt>
      <trkpt lat="22.2589215235" lon="114.2045690750"><ele>242.000</ele></trkpt>
      <trkpt lat="22.2589172097" lon="114.2045624527"><ele>242.000</ele></trkpt>
      <trkpt lat="22.2589104311" lon="114.2045584775"><ele>242.000</ele></trkpt>
      <trkpt lat="22.2589042676" lon="114.2045538417"><ele>242.000</ele></trkpt>
      <trkpt lat="22.2588987218" lon="114.2045485434"><ele>242.000</ele></trkpt>
      <trkpt lat="22.2588913274" lon="114.2045386093"><ele>242.000</ele></trkpt>
      <trkpt lat="22.2588870137" lon="114.2045319870"><ele>242.000</ele></trkpt>
      <trkpt lat="22.2588876326" lon="114.2045141086"><ele>246.000</ele></trkpt>
      <trkpt lat="22.2588882518" lon="114.2045002032"><ele>246.000</ele></trkpt>
      <trkpt lat="22.2588827063" lon="114.2044882825"><ele>246.000</ele></trkpt>
      <trkpt lat="22.2588716144" lon="114.2044750374"><ele>246.000</ele></trkpt>
      <trkpt lat="22.2588586725" lon="114.2044644405"><ele>252.000</ele></trkpt>
      <trkpt lat="22.2588525081" lon="114.2044703981"><ele>252.000</ele></trkpt>
      <trkpt lat="22.2588426438" lon="114.2044869503"><ele>246.000</ele></trkpt>
      <trkpt lat="22.2588389419" lon="114.2045041664"><ele>246.000</ele></trkpt>
      <trkpt lat="22.2588370914" lon="114.2045154230"><ele>246.000</ele></trkpt>
      <trkpt lat="22.2588358569" lon="114.2045260171"><ele>242.000</ele></trkpt>
      <trkpt lat="22.2588413894" lon="114.2046087890"><ele>243.000</ele></trkpt>
      <trkpt lat="22.2588426205" lon="114.2046233565"><ele>248.000</ele></trkpt>
      <trkpt lat="22.2588389202" lon="114.2046313025"><ele>248.000</ele></trkpt>
      <trkpt lat="22.2588302912" lon="114.2046326251"><ele>250.000</ele></trkpt>
      <trkpt lat="22.2588265939" lon="114.2046279888"><ele>250.000</ele></trkpt>
      <trkpt lat="22.2588142709" lon="114.2046054724"><ele>245.000</ele></trkpt>
      <trkpt lat="22.2588074941" lon="114.2045856067"><ele>245.000</ele></trkpt>
      <trkpt lat="22.2588050308" lon="114.2045736866"><ele>245.000</ele></trkpt>
      <trkpt lat="22.2587982516" lon="114.2045677264"><ele>242.000</ele></trkpt>
      <trkpt lat="22.2587951717" lon="114.2045597791"><ele>242.000</ele></trkpt>
      <trkpt lat="22.2587822296" lon="114.2045505065"><ele>242.000</ele></trkpt>
      <trkpt lat="22.2587680544" lon="114.2045438822"><ele>242.000</ele></trkpt>
      <trkpt lat="22.2587618905" lon="114.2045412324"><ele>242.000</ele></trkpt>
      <trkpt lat="22.2587544938" lon="114.2045445412"><ele>242.000</ele></trkpt>
      <trkpt lat="22.2587464796" lon="114.2045524864"><ele>242.000</ele></trkpt>
      <trkpt lat="22.2587390828" lon="114.2045564578"><ele>244.000</ele></trkpt>
      <trkpt lat="22.2587341498" lon="114.2045696997"><ele>248.000</ele></trkpt>
      <trkpt lat="22.2587316814" lon="114.2045875777"><ele>248.000</ele></trkpt>
      <trkpt lat="22.2587298296" lon="114.2046008212"><ele>248.000</ele></trkpt>
      <trkpt lat="22.2587230495" lon="114.2046054544"><ele>248.000</ele></trkpt>
      <trkpt lat="22.2586293686" lon="114.2045710034"><ele>252.000</ele></trkpt>
      <trkpt lat="22.2586293704" lon="114.2045604090"><ele>251.000</ele></trkpt>
      <trkpt lat="22.2586299879" lon="114.2045511391"><ele>251.000</ele></trkpt>
      <trkpt lat="22.2586299891" lon="114.2045438550"><ele>251.000</ele></trkpt>
      <trkpt lat="22.2586343053" lon="114.2045359092"><ele>251.000</ele></trkpt>
      <trkpt lat="22.2586361557" lon="114.2045306133"><ele>251.000</ele></trkpt>
      <trkpt lat="22.2586404706" lon="114.2045253160"><ele>251.000</ele></trkpt>
      <trkpt lat="22.2586688342" lon="114.2044610920"><ele>250.000</ele></trkpt>
    </trkseg>
  </trk>
</gpx>
