<?xml version="1.0" encoding="UTF-8"?>
<gpx xmlns:xsi="http://www.w3.org/2001/XMLSchema-instance"
     xsi:schemaLocation="http://www.topografix.com/GPX/1/1 http://www.topografix.com/GPX/1/1/gpx.xsd"
     version="1.1" creator="json3d_batch_to_gpx"
     xmlns="http://www.topografix.com/GPX/1/1">
  <metadata>
    <name>PakTamChungTreeWalk</name>
  </metadata>
  <trk>
    <name>PakTamChungTreeWalk</name>
    <type>hike</type>
    <trkseg>
      <trkpt lat="22.3973649787" lon="114.3202511913"><ele>32.000</ele></trkpt>
      <trkpt lat="22.3973172594" lon="114.3203066204"><ele>28.000</ele></trkpt>
      <trkpt lat="22.3972786922" lon="114.3203501206"><ele>18.000</ele></trkpt>
      <trkpt lat="22.3972460117" lon="114.3203837952"><ele>17.000</ele></trkpt>
      <trkpt lat="22.3972087659" lon="114.3204097406"><ele>30.000</ele></trkpt>
      <trkpt lat="22.3971695723" lon="114.3204244470"><ele>30.000</ele></trkpt>
      <trkpt lat="22.3971310394" lon="114.3204293233"><ele>32.000</ele></trkpt>
      <trkpt lat="22.3970990320" lon="114.3204391222"><ele>32.000</ele></trkpt>
      <trkpt lat="22.3970644090" lon="114.3204545364"><ele>30.000</ele></trkpt>
      <trkpt lat="22.3970134529" lon="114.3204776582"><ele>32.000</ele></trkpt>
      <trkpt lat="22.3969370284" lon="114.3205014559"><ele>31.000</ele></trkpt>
      <trkpt lat="22.3969017497" lon="114.3205189768"><ele>31.000</ele></trkpt>
      <trkpt lat="22.3968625533" lon="114.3205357905"><ele>32.000</ele></trkpt>
      <trkpt lat="22.3968383769" lon="114.3205519175"><ele>33.000</ele></trkpt>
      <trkpt lat="22.3968240006" lon="114.3205638408"><ele>33.000</ele></trkpt>
      <trkpt lat="22.3968070009" lon="114.3205869975"><ele>33.000</ele></trkpt>
      <trkpt lat="22.3967939236" lon="114.3206066475"><ele>32.000</ele></trkpt>
      <trkpt lat="22.3967775686" lon="114.3206389344"><ele>32.000</ele></trkpt>
      <trkpt lat="22.3967631767" lon="114.3206684138"><ele>24.000</ele></trkpt>
      <trkpt lat="22.3967455054" lon="114.3207126374"><ele>32.000</ele></trkpt>
      <trkpt lat="22.3966931459" lon="114.3208453089"><ele>30.000</ele></trkpt>
      <trkpt lat="22.3966967460" lon="114.3208506937"><ele>30.000</ele></trkpt>
      <trkpt lat="22.3967070020" lon="114.3208537147"><ele>30.000</ele></trkpt>
      <trkpt lat="22.3967160898" lon="114.3208602986"><ele>30.000</ele></trkpt>
      <trkpt lat="22.3967205429" lon="114.3208692668"><ele>30.000</ele></trkpt>
      <trkpt lat="22.3967227409" lon="114.3208743927"><ele>30.000</ele></trkpt>
      <trkpt lat="22.3967279083" lon="114.3208883959"><ele>30.000</ele></trkpt>
      <trkpt lat="22.3967331303" lon="114.3209050251"><ele>30.000</ele></trkpt>
      <trkpt lat="22.3967368284" lon="114.3209160143"><ele>30.000</ele></trkpt>
      <trkpt lat="22.3967473041" lon="114.3209287508"><ele>30.000</ele></trkpt>
      <trkpt lat="22.3967737557" lon="114.3209486222"><ele>28.000</ele></trkpt>
      <trkpt lat="22.3967980561" lon="114.3209655274"><ele>28.000</ele></trkpt>
      <trkpt lat="22.3968255822" lon="114.3209824477"><ele>28.000</ele></trkpt>
      <trkpt lat="22.3968408199" lon="114.3209909860"><ele>28.000</ele></trkpt>
      <trkpt lat="22.3968572688" lon="114.3209962082"><ele>30.000</ele></trkpt>
      <trkpt lat="22.3968691880" lon="114.3209974053"><ele>30.000</ele></trkpt>
      <trkpt lat="22.3968834685" lon="114.3209937006"><ele>30.000</ele></trkpt>
      <trkpt lat="22.3968925081" lon="114.3209904994"><ele>30.000</ele></trkpt>
      <trkpt lat="22.3969060789" lon="114.3209856927"><ele>30.000</ele></trkpt>
      <trkpt lat="22.3969157531" lon="114.3209828961"><ele>30.000</ele></trkpt>
      <trkpt lat="22.3969309159" lon="114.3209821736"><ele>30.000</ele></trkpt>
      <trkpt lat="22.3969403537" lon="114.3209830855"><ele>30.000</ele></trkpt>
      <trkpt lat="22.3969561178" lon="114.3209846080"><ele>30.000</ele></trkpt>
      <trkpt lat="22.3969680716" lon="114.3209874949"><ele>30.000</ele></trkpt>
      <trkpt lat="22.3969808319" lon="114.3209974301"><ele>30.000</ele></trkpt>
      <trkpt lat="22.3969860558" lon="114.3210027117"><ele>32.000</ele></trkpt>
      <trkpt lat="22.3969911507" lon="114.3210119640"><ele>32.000</ele></trkpt>
      <trkpt lat="22.3969964589" lon="114.3210260092"><ele>32.000</ele></trkpt>
      <trkpt lat="22.3969991924" lon="114.3210391951"><ele>32.000</ele></trkpt>
      <trkpt lat="22.3970003930" lon="114.3210549277"><ele>32.000</ele></trkpt>
      <trkpt lat="22.3970020833" lon="114.3210774811"><ele>32.000</ele></trkpt>
      <trkpt lat="22.3970039951" lon="114.3210986198"><ele>32.000</ele></trkpt>
      <trkpt lat="22.3970083999" lon="114.3211110451"><ele>32.000</ele></trkpt>
      <trkpt lat="22.3970131543" lon="114.3211193367"><ele>32.000</ele></trkpt>
      <trkpt lat="22.3970207630" lon="114.3211278789"><ele>32.000</ele></trkpt>
      <trkpt lat="22.3970264417" lon="114.3211326229"><ele>32.000</ele></trkpt>
      <trkpt lat="22.3970382941" lon="114.3211377724"><ele>32.000</ele></trkpt>
      <trkpt lat="22.3970449271" lon="114.3211386280"><ele>32.000</ele></trkpt>
      <trkpt lat="22.3970591734" lon="114.3211398518"><ele>32.000</ele></trkpt>
      <trkpt lat="22.3970676319" lon="114.3211402596"><ele>32.000</ele></trkpt>
      <trkpt lat="22.3970767680" lon="114.3211433864"><ele>32.000</ele></trkpt>
      <trkpt lat="22.3970854147" lon="114.3211484744"><ele>32.000</ele></trkpt>
      <trkpt lat="22.3970909157" lon="114.3211549439"><ele>32.000</ele></trkpt>
      <trkpt lat="22.3971012015" lon="114.3211670393"><ele>32.000</ele></trkpt>
      <trkpt lat="22.3971101165" lon="114.3211799956"><ele>32.000</ele></trkpt>
      <trkpt lat="22.3971181965" lon="114.3211917401"><ele>32.000</ele></trkpt>
      <trkpt lat="22.3971509187" lon="114.3212298725"><ele>32.000</ele></trkpt>
      <trkpt lat="22.3971878180" lon="114.3212715081"><ele>32.000</ele></trkpt>
      <trkpt lat="22.3971999869" lon="114.3212813418"><ele>32.000</ele></trkpt>
      <trkpt lat="22.3972121545" lon="114.3212924855"><ele>32.000</ele></trkpt>
      <trkpt lat="22.3972334453" lon="114.3213141152"><ele>32.000</ele></trkpt>
      <trkpt lat="22.3972498710" lon="114.3213291925"><ele>32.000</ele></trkpt>
      <trkpt lat="22.3972742080" lon="114.3213495153"><ele>30.000</ele></trkpt>
      <trkpt lat="22.3973003702" lon="114.3213718057"><ele>30.000</ele></trkpt>
      <trkpt lat="22.3973131459" lon="114.3213836045"><ele>30.000</ele></trkpt>
      <trkpt lat="22.3973289682" lon="114.3213927874"><ele>30.000</ele></trkpt>
      <trkpt lat="22.3973429676" lon="114.3213973857"><ele>30.000</ele></trkpt>
      <trkpt lat="22.3973587972" lon="114.3213993666"><ele>30.000</ele></trkpt>
      <trkpt lat="22.3973709754" lon="114.3213987247"><ele>30.000</ele></trkpt>
      <trkpt lat="22.3973819400" lon="114.3213928422"><ele>30.000</ele></trkpt>
      <trkpt lat="22.3973929088" lon="114.3213823779"><ele>30.000</ele></trkpt>
      <trkpt lat="22.3974069279" lon="114.3213660220"><ele>30.000</ele></trkpt>
      <trkpt lat="22.3974223698" lon="114.3213420499"><ele>30.000</ele></trkpt>
      <trkpt lat="22.3974352168" lon="114.3213225677"><ele>30.000</ele></trkpt>
      <trkpt lat="22.3974394035" lon="114.3213183728"><ele>30.000</ele></trkpt>
      <trkpt lat="22.3974500062" lon="114.3213132853"><ele>30.000</ele></trkpt>
      <trkpt lat="22.3974714956" lon="114.3212986103"><ele>30.000</ele></trkpt>
      <trkpt lat="22.3975047020" lon="114.3212800493"><ele>30.000</ele></trkpt>
      <trkpt lat="22.3975183729" lon="114.3212743638"><ele>29.000</ele></trkpt>
      <trkpt lat="22.3975264644" lon="114.3212710733"><ele>29.000</ele></trkpt>
      <trkpt lat="22.3975384585" lon="114.3212692861"><ele>28.000</ele></trkpt>
      <trkpt lat="22.3975540792" lon="114.3212675028"><ele>28.000</ele></trkpt>
      <trkpt lat="22.3975671854" lon="114.3212693158"><ele>28.000</ele></trkpt>
      <trkpt lat="22.3975794524" lon="114.3212753272"><ele>28.000</ele></trkpt>
      <trkpt lat="22.3975903221" lon="114.3212837368"><ele>28.000</ele></trkpt>
      <trkpt lat="22.3976023060" lon="114.3212933469"><ele>28.000</ele></trkpt>
      <trkpt lat="22.3976168026" lon="114.3213005600"><ele>28.000</ele></trkpt>
      <trkpt lat="22.3976326962" lon="114.3213056758"><ele>26.000</ele></trkpt>
      <trkpt lat="22.3976491485" lon="114.3213089918"><ele>26.000</ele></trkpt>
      <trkpt lat="22.3976633652" lon="114.3213171048"><ele>26.000</ele></trkpt>
      <trkpt lat="22.3976759091" lon="114.3213246159"><ele>26.000</ele></trkpt>
      <trkpt lat="22.3976948631" lon="114.3213378323"><ele>26.000</ele></trkpt>
      <trkpt lat="22.3977160487" lon="114.3213498516"><ele>24.000</ele></trkpt>
      <trkpt lat="22.3977252510" lon="114.3213516606"><ele>24.000</ele></trkpt>
      <trkpt lat="22.3977364045" lon="114.3213546720"><ele>24.000</ele></trkpt>
      <trkpt lat="22.3977517384" lon="114.3213606866"><ele>24.000</ele></trkpt>
      <trkpt lat="22.3977698619" lon="114.3213664039"><ele>24.000</ele></trkpt>
      <trkpt lat="22.3977888211" lon="114.3213739217"><ele>24.000</ele></trkpt>
      <trkpt lat="22.3978039354" lon="114.3213799778"><ele>24.000</ele></trkpt>
      <trkpt lat="22.3978140318" lon="114.3213796581"><ele>24.000</ele></trkpt>
      <trkpt lat="22.3978232733" lon="114.3213758705"><ele>24.000</ele></trkpt>
      <trkpt lat="22.3978293677" lon="114.3213670782"><ele>24.000</ele></trkpt>
      <trkpt lat="22.3978313452" lon="114.3213572232"><ele>24.000</ele></trkpt>
      <trkpt lat="22.3978303653" lon="114.3213512575"><ele>24.000</ele></trkpt>
      <trkpt lat="22.3978288214" lon="114.3213418572"><ele>24.000</ele></trkpt>
      <trkpt lat="22.3978253187" lon="114.3213304330"><ele>24.000</ele></trkpt>
      <trkpt lat="22.3978217333" lon="114.3213206519"><ele>24.000</ele></trkpt>
      <trkpt lat="22.3978183134" lon="114.3213075749"><ele>24.000</ele></trkpt>
      <trkpt lat="22.3978170851" lon="114.3212976680"><ele>24.000</ele></trkpt>
      <trkpt lat="22.3978186687" lon="114.3212838503"><ele>24.000</ele></trkpt>
      <trkpt lat="22.3978211067" lon="114.3212740055"><ele>26.000</ele></trkpt>
      <trkpt lat="22.3978230166" lon="114.3212691033"><ele>26.000</ele></trkpt>
      <trkpt lat="22.3978295426" lon="114.3212622926"><ele>26.000</ele></trkpt>
      <trkpt lat="22.3978424411" lon="114.3212590623"><ele>26.000</ele></trkpt>
      <trkpt lat="22.3978512043" lon="114.3212589529"><ele>26.000</ele></trkpt>
      <trkpt lat="22.3978589670" lon="114.3212588560"><ele>26.000</ele></trkpt>
      <trkpt lat="22.3978681176" lon="114.3212568339"><ele>26.000</ele></trkpt>
      <trkpt lat="22.3978796961" lon="114.3212542742"><ele>26.000</ele></trkpt>
      <trkpt lat="22.3978866733" lon="114.3212479691"><ele>26.000</ele></trkpt>
      <trkpt lat="22.3978918849" lon="114.3212366898"><ele>27.000</ele></trkpt>
      <trkpt lat="22.3978920382" lon="114.3212268135"><ele>30.000</ele></trkpt>
      <trkpt lat="22.3978898241" lon="114.3212205658"><ele>30.000</ele></trkpt>
      <trkpt lat="22.3978867506" lon="114.3212118913"><ele>28.000</ele></trkpt>
      <trkpt lat="22.3978792299" lon="114.3212019187"><ele>28.000</ele></trkpt>
      <trkpt lat="22.3978696012" lon="114.3211923149"><ele>28.000</ele></trkpt>
      <trkpt lat="22.3978551392" lon="114.3211767423"><ele>30.000</ele></trkpt>
      <trkpt lat="22.3978511467" lon="114.3211677746"><ele>30.000</ele></trkpt>
      <trkpt lat="22.3978505408" lon="114.3211626240"><ele>30.000</ele></trkpt>
      <trkpt lat="22.3978495155" lon="114.3211539051"><ele>30.000</ele></trkpt>
      <trkpt lat="22.3978487960" lon="114.3211405414"><ele>30.000</ele></trkpt>
      <trkpt lat="22.3978477142" lon="114.3211343658"><ele>30.000</ele></trkpt>
      <trkpt lat="22.3978454087" lon="114.3211212123"><ele>30.000</ele></trkpt>
      <trkpt lat="22.3978400634" lon="114.3211102426"><ele>30.000</ele></trkpt>
      <trkpt lat="22.3978243230" lon="114.3210984766"><ele>30.000</ele></trkpt>
      <trkpt lat="22.3977824021" lon="114.3210685805"><ele>27.000</ele></trkpt>
      <trkpt lat="22.3977349317" lon="114.3210360257"><ele>26.000</ele></trkpt>
      <trkpt lat="22.3976837617" lon="114.3210001496"><ele>26.000</ele></trkpt>
      <trkpt lat="22.3976510879" lon="114.3209775603"><ele>26.000</ele></trkpt>
      <trkpt lat="22.3976301267" lon="114.3209629444"><ele>26.000</ele></trkpt>
      <trkpt lat="22.3975580328" lon="114.3208726486"><ele>16.000</ele></trkpt>
      <trkpt lat="22.3975420103" lon="114.3208540572"><ele>16.000</ele></trkpt>
      <trkpt lat="22.3975401718" lon="114.3208407876"><ele>16.000</ele></trkpt>
      <trkpt lat="22.3975525204" lon="114.3208281960"><ele>15.000</ele></trkpt>
      <trkpt lat="22.3976308014" lon="114.3208979323"><ele>22.000</ele></trkpt>
      <trkpt lat="22.3977312798" lon="114.3209802970"><ele>27.000</ele></trkpt>
      <trkpt lat="22.3978274492" lon="114.3210520419"><ele>28.000</ele></trkpt>
      <trkpt lat="22.3979023131" lon="114.3210993670"><ele>30.000</ele></trkpt>
      <trkpt lat="22.3979486483" lon="114.3211310166"><ele>30.000</ele></trkpt>
      <trkpt lat="22.3979597585" lon="114.3211218994"><ele>30.000</ele></trkpt>
      <trkpt lat="22.3979708803" lon="114.3210987356"><ele>30.000</ele></trkpt>
      <trkpt lat="22.3979793805" lon="114.3210868061"><ele>30.000</ele></trkpt>
      <trkpt lat="22.3979937559" lon="114.3210769892"><ele>30.000</ele></trkpt>
      <trkpt lat="22.3980029031" lon="114.3210706784"><ele>30.000</ele></trkpt>
      <trkpt lat="22.3980172753" lon="114.3210643731"><ele>30.000</ele></trkpt>
      <trkpt lat="22.3980466702" lon="114.3210545716"><ele>31.000</ele></trkpt>
      <trkpt lat="22.3980603920" lon="114.3210454570"><ele>31.000</ele></trkpt>
      <trkpt lat="22.3980728102" lon="114.3210328285"><ele>18.000</ele></trkpt>
      <trkpt lat="22.3980773915" lon="114.3210215971"><ele>18.000</ele></trkpt>
      <trkpt lat="22.3980754409" lon="114.3210124654"><ele>18.000</ele></trkpt>
      <trkpt lat="22.3980663085" lon="114.3210012199"><ele>20.000</ele></trkpt>
      <trkpt lat="22.3980539106" lon="114.3209899711"><ele>20.000</ele></trkpt>
      <trkpt lat="22.3980460836" lon="114.3209801321"><ele>12.000</ele></trkpt>
      <trkpt lat="22.3980330448" lon="114.3209555391"><ele>12.000</ele></trkpt>
      <trkpt lat="22.3980108712" lon="114.3209232123"><ele>16.000</ele></trkpt>
      <trkpt lat="22.3980017375" lon="114.3209133711"><ele>16.000</ele></trkpt>
      <trkpt lat="22.3979899891" lon="114.3209070388"><ele>16.000</ele></trkpt>
      <trkpt lat="22.3979788892" lon="114.3209056231"><ele>16.000</ele></trkpt>
      <trkpt lat="22.3979684378" lon="114.3209091240"><ele>18.000</ele></trkpt>
      <trkpt lat="22.3979605961" lon="114.3209147339"><ele>18.000</ele></trkpt>
      <trkpt lat="22.3979540562" lon="114.3209259633"><ele>18.000</ele></trkpt>
      <trkpt lat="22.3979403187" lon="114.3209526350"><ele>14.000</ele></trkpt>
      <trkpt lat="22.3979318185" lon="114.3209645645"><ele>17.000</ele></trkpt>
      <trkpt lat="22.3979220200" lon="114.3209680651"><ele>17.000</ele></trkpt>
      <trkpt lat="22.3979122268" lon="114.3209666507"><ele>17.000</ele></trkpt>
      <trkpt lat="22.3978900342" lon="114.3209546896"><ele>17.000</ele></trkpt>
      <trkpt lat="22.3978743743" lon="114.3209406279"><ele>21.000</ele></trkpt>
      <trkpt lat="22.3978658979" lon="114.3209258724"><ele>16.000</ele></trkpt>
      <trkpt lat="22.3978626509" lon="114.3209062055"><ele>16.000</ele></trkpt>
      <trkpt lat="22.3978672440" lon="114.3208816316"><ele>15.000</ele></trkpt>
      <trkpt lat="22.3978764150" lon="114.3208486350"><ele>15.000</ele></trkpt>
      <trkpt lat="22.3978862304" lon="114.3208261730"><ele>24.000</ele></trkpt>
      <trkpt lat="22.3978751455" lon="114.3208079022"><ele>24.000</ele></trkpt>
      <trkpt lat="22.3978895245" lon="114.3207938724"><ele>27.000</ele></trkpt>
      <trkpt lat="22.3978706055" lon="114.3207727850"><ele>28.000</ele></trkpt>
      <trkpt lat="22.3978425517" lon="114.3207439638"><ele>21.000</ele></trkpt>
      <trkpt lat="22.3978321328" lon="114.3207109461"><ele>15.000</ele></trkpt>
      <trkpt lat="22.3978249710" lon="114.3206863602"><ele>16.000</ele></trkpt>
      <trkpt lat="22.3978138892" lon="114.3206645788"><ele>16.000</ele></trkpt>
      <trkpt lat="22.3977962774" lon="114.3206427906"><ele>14.000</ele></trkpt>
      <trkpt lat="22.3977773540" lon="114.3206266192"><ele>14.000</ele></trkpt>
      <trkpt lat="22.3977368867" lon="114.3206041055"><ele>14.000</ele></trkpt>
      <trkpt lat="22.3976898970" lon="114.3205731575"><ele>14.000</ele></trkpt>
      <trkpt lat="22.3976102851" lon="114.3205091710"><ele>26.000</ele></trkpt>
      <trkpt lat="22.3975045830" lon="114.3204107465"><ele>16.000</ele></trkpt>
      <trkpt lat="22.3973812205" lon="114.3202688857"><ele>33.000</ele></trkpt>
      <trkpt lat="22.3973661181" lon="114.3202515188"><ele>32.000</ele></trkpt>
    </trkseg>
  </trk>
</gpx>
