<?xml version="1.0" encoding="UTF-8"?>
<gpx xmlns:xsi="http://www.w3.org/2001/XMLSchema-instance"
     xsi:schemaLocation="http://www.topografix.com/GPX/1/1 http://www.topografix.com/GPX/1/1/gpx.xsd"
     version="1.1" creator="json3d_batch_to_gpx"
     xmlns="http://www.topografix.com/GPX/1/1">
  <metadata>
    <name>NaiChungTreeWalk</name>
  </metadata>
  <trk>
    <name>NaiChungTreeWalk</name>
    <type>hike</type>
    <trkseg>
      <trkpt lat="22.4298366748" lon="114.2585249063"><ele>15.000</ele></trkpt>
      <trkpt lat="22.4298163658" lon="114.2585242519"><ele>14.000</ele></trkpt>
      <trkpt lat="22.4297942702" lon="114.2585133162"><ele>15.000</ele></trkpt>
      <trkpt lat="22.4297570814" lon="114.2584857719"><ele>15.000</ele></trkpt>
      <trkpt lat="22.4297198926" lon="114.2584582276"><ele>16.000</ele></trkpt>
      <trkpt lat="22.4296971083" lon="114.2584413522"><ele>15.000</ele></trkpt>
      <trkpt lat="22.4296651980" lon="114.2584069908"><ele>16.000</ele></trkpt>
      <trkpt lat="22.4296487584" lon="114.2583892883"><ele>17.000</ele></trkpt>
      <trkpt lat="22.4296137305" lon="114.2583586412"><ele>17.000</ele></trkpt>
      <trkpt lat="22.4296110180" lon="114.2583562680"><ele>17.000</ele></trkpt>
      <trkpt lat="22.4295874290" lon="114.2583384858"><ele>16.000</ele></trkpt>
      <trkpt lat="22.4295732733" lon="114.2583321319"><ele>16.000</ele></trkpt>
      <trkpt lat="22.4295638327" lon="114.2583346645"><ele>16.000</ele></trkpt>
      <trkpt lat="22.4295602847" lon="114.2583511618"><ele>16.000</ele></trkpt>
      <trkpt lat="22.4295591318" lon="114.2583997139"><ele>16.000</ele></trkpt>
      <trkpt lat="22.4295590792" lon="114.2584019275"><ele>16.000</ele></trkpt>
      <trkpt lat="22.4295578936" lon="114.2584133493"><ele>16.000</ele></trkpt>
      <trkpt lat="22.4295555292" lon="114.2584222320"><ele>16.000</ele></trkpt>
      <trkpt lat="22.4295519870" lon="114.2584273067"><ele>16.000</ele></trkpt>
      <trkpt lat="22.4295437277" lon="114.2584273019"><ele>16.000</ele></trkpt>
      <trkpt lat="22.4295295818" lon="114.2584187114"><ele>16.000</ele></trkpt>
      <trkpt lat="22.4294902773" lon="114.2583948066"><ele>16.000</ele></trkpt>
      <trkpt lat="22.4294509728" lon="114.2583709019"><ele>17.000</ele></trkpt>
      <trkpt lat="22.4294116683" lon="114.2583469971"><ele>17.000</ele></trkpt>
      <trkpt lat="22.4294077641" lon="114.2583446226"><ele>17.000</ele></trkpt>
      <trkpt lat="22.4294078346" lon="114.2583637643"><ele>17.000</ele></trkpt>
      <trkpt lat="22.4294101810" lon="114.2583904180"><ele>17.000</ele></trkpt>
      <trkpt lat="22.4294089888" lon="114.2584145313"><ele>17.000</ele></trkpt>
      <trkpt lat="22.4294030981" lon="114.2584626842"><ele>16.000</ele></trkpt>
      <trkpt lat="22.4293972074" lon="114.2585108371"><ele>16.000</ele></trkpt>
      <trkpt lat="22.4293913167" lon="114.2585589899"><ele>16.000</ele></trkpt>
      <trkpt lat="22.4293864776" lon="114.2585985468"><ele>16.000</ele></trkpt>
      <trkpt lat="22.4293841036" lon="114.2586264669"><ele>16.000</ele></trkpt>
      <trkpt lat="22.4293840914" lon="114.2586505809"><ele>16.000</ele></trkpt>
      <trkpt lat="22.4293840798" lon="114.2586734258"><ele>16.000</ele></trkpt>
      <trkpt lat="22.4293899646" lon="114.2587026200"><ele>16.000</ele></trkpt>
      <trkpt lat="22.4293993853" lon="114.2587394311"><ele>16.000</ele></trkpt>
      <trkpt lat="22.4294052711" lon="114.2587660869"><ele>16.000</ele></trkpt>
      <trkpt lat="22.4294076181" lon="114.2587914716"><ele>16.000</ele></trkpt>
      <trkpt lat="22.4294087838" lon="114.2588193938"><ele>16.000</ele></trkpt>
      <trkpt lat="22.4294064112" lon="114.2588447757"><ele>16.000</ele></trkpt>
      <trkpt lat="22.4294000013" lon="114.2588928518"><ele>16.000</ele></trkpt>
      <trkpt lat="22.4293993047" lon="114.2588980763"><ele>16.000</ele></trkpt>
      <trkpt lat="22.4293939425" lon="114.2589463006"><ele>16.000</ele></trkpt>
      <trkpt lat="22.4293910073" lon="114.2589726981"><ele>17.000</ele></trkpt>
      <trkpt lat="22.4293862697" lon="114.2590082320"><ele>17.000</ele></trkpt>
      <trkpt lat="22.4293827158" lon="114.2590361513"><ele>18.000</ele></trkpt>
      <trkpt lat="22.4293815224" lon="114.2590628030"><ele>18.000</ele></trkpt>
      <trkpt lat="22.4293826912" lon="114.2590843795"><ele>17.000</ele></trkpt>
      <trkpt lat="22.4293838594" lon="114.2591072251"><ele>17.000</ele></trkpt>
      <trkpt lat="22.4293897454" lon="114.2591338810"><ele>16.000</ele></trkpt>
      <trkpt lat="22.4293991712" lon="114.2591605390"><ele>15.000</ele></trkpt>
      <trkpt lat="22.4294156716" lon="114.2591960851"><ele>14.000</ele></trkpt>
      <trkpt lat="22.4294416102" lon="114.2592341753"><ele>14.000</ele></trkpt>
      <trkpt lat="22.4294604776" lon="114.2592557623"><ele>14.000</ele></trkpt>
      <trkpt lat="22.4294769912" lon="114.2592659252"><ele>13.000</ele></trkpt>
      <trkpt lat="22.4294864303" lon="114.2592659308"><ele>13.000</ele></trkpt>
      <trkpt lat="22.4294970514" lon="114.2592621295"><ele>13.000</ele></trkpt>
      <trkpt lat="22.4295064946" lon="114.2592545201"><ele>13.000</ele></trkpt>
      <trkpt lat="22.4295183033" lon="114.2592354897"><ele>13.000</ele></trkpt>
      <trkpt lat="22.4295407404" lon="114.2591986973"><ele>13.000</ele></trkpt>
      <trkpt lat="22.4295478250" lon="114.2591885481"><ele>13.000</ele></trkpt>
      <trkpt lat="22.4295572667" lon="114.2591834771"><ele>13.000</ele></trkpt>
      <trkpt lat="22.4295619910" lon="114.2591745956"><ele>13.000</ele></trkpt>
      <trkpt lat="22.4295808229" lon="114.2591445273"><ele>13.000</ele></trkpt>
      <trkpt lat="22.4295816721" lon="114.2590959679"><ele>13.000</ele></trkpt>
      <trkpt lat="22.4295825214" lon="114.2590474085"><ele>13.000</ele></trkpt>
      <trkpt lat="22.4295833707" lon="114.2589988491"><ele>13.000</ele></trkpt>
      <trkpt lat="22.4295842199" lon="114.2589502896"><ele>13.000</ele></trkpt>
      <trkpt lat="22.4295847603" lon="114.2589193921"><ele>13.000</ele></trkpt>
      <trkpt lat="22.4295555605" lon="114.2589564373"><ele>13.000</ele></trkpt>
      <trkpt lat="22.4295396734" lon="114.2589765930"><ele>13.000</ele></trkpt>
      <trkpt lat="22.4295302318" lon="114.2589816643"><ele>14.000</ele></trkpt>
      <trkpt lat="22.4295243322" lon="114.2589816608"><ele>14.000</ele></trkpt>
      <trkpt lat="22.4295243354" lon="114.2589753149"><ele>14.000</ele></trkpt>
      <trkpt lat="22.4295266985" lon="114.2589689704"><ele>14.000</ele></trkpt>
      <trkpt lat="22.4295450592" lon="114.2589245992"><ele>14.000</ele></trkpt>
      <trkpt lat="22.4295634198" lon="114.2588802280"><ele>14.000</ele></trkpt>
      <trkpt lat="22.4295692273" lon="114.2588661932"><ele>14.000</ele></trkpt>
      <trkpt lat="22.4295704130" lon="114.2588547714"><ele>14.000</ele></trkpt>
      <trkpt lat="22.4295704181" lon="114.2588446183"><ele>14.000</ele></trkpt>
      <trkpt lat="22.4295657037" lon="114.2588344621"><ele>14.000</ele></trkpt>
      <trkpt lat="22.4295574468" lon="114.2588293807"><ele>14.000</ele></trkpt>
      <trkpt lat="22.4295515481" lon="114.2588281079"><ele>14.000</ele></trkpt>
      <trkpt lat="22.4295480109" lon="114.2588230293"><ele>14.000</ele></trkpt>
      <trkpt lat="22.4295480129" lon="114.2588192218"><ele>14.000</ele></trkpt>
      <trkpt lat="22.4295515539" lon="114.2588166854"><ele>14.000</ele></trkpt>
      <trkpt lat="22.4295586365" lon="114.2588103440"><ele>14.000</ele></trkpt>
      <trkpt lat="22.4295657192" lon="114.2588040022"><ele>14.000</ele></trkpt>
      <trkpt lat="22.4295704432" lon="114.2587951209"><ele>14.000</ele></trkpt>
      <trkpt lat="22.4295728076" lon="114.2587862380"><ele>14.000</ele></trkpt>
      <trkpt lat="22.4295763551" lon="114.2587710101"><ele>14.000</ele></trkpt>
      <trkpt lat="22.4295849458" lon="114.2587233293"><ele>15.000</ele></trkpt>
      <trkpt lat="22.4295935366" lon="114.2586756484"><ele>15.000</ele></trkpt>
      <trkpt lat="22.4295952868" lon="114.2586659346"><ele>15.000</ele></trkpt>
    </trkseg>
  </trk>
</gpx>
