<?xml version="1.0" encoding="UTF-8"?>
<gpx xmlns:xsi="http://www.w3.org/2001/XMLSchema-instance"
     xsi:schemaLocation="http://www.topografix.com/GPX/1/1 http://www.topografix.com/GPX/1/1/gpx.xsd"
     version="1.1" creator="json3d_batch_to_gpx"
     xmlns="http://www.topografix.com/GPX/1/1">
  <metadata>
    <name>TaiTongTreeWalk</name>
  </metadata>
  <trk>
    <name>TaiTongTreeWalk</name>
    <type>hike</type>
    <trkseg>
      <trkpt lat="22.4094316638" lon="114.0323795748"><ele>116.000</ele></trkpt>
      <trkpt lat="22.4094609681" lon="114.0323952277"><ele>115.000</ele></trkpt>
      <trkpt lat="22.4094830555" lon="114.0324202118"><ele>116.000</ele></trkpt>
      <trkpt lat="22.4095011259" lon="114.0324762791"><ele>114.000</ele></trkpt>
      <trkpt lat="22.4095541766" lon="114.0325687223"><ele>114.000</ele></trkpt>
      <trkpt lat="22.4095968748" lon="114.0327574599"><ele>114.000</ele></trkpt>
      <trkpt lat="22.4096044098" lon="114.0327907671"><ele>114.000</ele></trkpt>
      <trkpt lat="22.4096738122" lon="114.0328855546"><ele>114.000</ele></trkpt>
      <trkpt lat="22.4097203628" lon="114.0329244138"><ele>114.000</ele></trkpt>
      <trkpt lat="22.4097385793" lon="114.0329368461"><ele>114.000</ele></trkpt>
      <trkpt lat="22.4097634088" lon="114.0329421525"><ele>114.000</ele></trkpt>
      <trkpt lat="22.4097948470" lon="114.0329456748"><ele>114.000</ele></trkpt>
      <trkpt lat="22.4098262847" lon="114.0329385331"><ele>114.000</ele></trkpt>
      <trkpt lat="22.4099040060" lon="114.0328833071"><ele>114.000</ele></trkpt>
      <trkpt lat="22.4099321211" lon="114.0328565986"><ele>114.000</ele></trkpt>
      <trkpt lat="22.4099469950" lon="114.0328370229"><ele>114.000</ele></trkpt>
      <trkpt lat="22.4099502732" lon="114.0328067756"><ele>114.000</ele></trkpt>
      <trkpt lat="22.4099502367" lon="114.0327658678"><ele>114.000</ele></trkpt>
      <trkpt lat="22.4099419045" lon="114.0326982890"><ele>114.000</ele></trkpt>
      <trkpt lat="22.4099253004" lon="114.0326307091"><ele>114.000</ele></trkpt>
      <trkpt lat="22.4098755242" lon="114.0324888261"><ele>114.000</ele></trkpt>
      <trkpt lat="22.4098158987" lon="114.0323054724"><ele>114.000</ele></trkpt>
      <trkpt lat="22.4097991966" lon="114.0322541122"><ele>114.000</ele></trkpt>
      <trkpt lat="22.4097332513" lon="114.0320732791"><ele>114.000</ele></trkpt>
      <trkpt lat="22.4097278704" lon="114.0320585238"><ele>114.000</ele></trkpt>
      <trkpt lat="22.4096827846" lon="114.0318704294"><ele>114.000</ele></trkpt>
      <trkpt lat="22.4096697315" lon="114.0318159732"><ele>113.000</ele></trkpt>
      <trkpt lat="22.4096268510" lon="114.0316272833"><ele>111.000</ele></trkpt>
      <trkpt lat="22.4096099211" lon="114.0315527861"><ele>112.000</ele></trkpt>
      <trkpt lat="22.4095916480" lon="114.0314674252"><ele>112.000</ele></trkpt>
      <trkpt lat="22.4095684166" lon="114.0314016395"><ele>112.000</ele></trkpt>
      <trkpt lat="22.4095335745" lon="114.0312985128"><ele>114.000</ele></trkpt>
      <trkpt lat="22.4095037347" lon="114.0312348611"><ele>112.000</ele></trkpt>
      <trkpt lat="22.4094772221" lon="114.0311957583"><ele>114.000</ele></trkpt>
      <trkpt lat="22.4094507176" lon="114.0311655518"><ele>113.000</ele></trkpt>
      <trkpt lat="22.4093629447" lon="114.0310891599"><ele>114.000</ele></trkpt>
      <trkpt lat="22.4093182357" lon="114.0310500762"><ele>114.000</ele></trkpt>
      <trkpt lat="22.4093033210" lon="114.0310340763"><ele>114.000</ele></trkpt>
      <trkpt lat="22.4092900583" lon="114.0310074108"><ele>114.000</ele></trkpt>
      <trkpt lat="22.4092917071" lon="114.0309931808"><ele>114.000</ele></trkpt>
      <trkpt lat="22.4092999613" lon="114.0309736118"><ele>114.000</ele></trkpt>
      <trkpt lat="22.4093181443" lon="114.0309486908"><ele>114.000</ele></trkpt>
      <trkpt lat="22.4093379643" lon="114.0309166491"><ele>114.000</ele></trkpt>
      <trkpt lat="22.4093809431" lon="114.0308596908"><ele>114.000</ele></trkpt>
      <trkpt lat="22.4094222586" lon="114.0308009472"><ele>114.000</ele></trkpt>
      <trkpt lat="22.4094949860" lon="114.0307065949"><ele>112.000</ele></trkpt>
      <trkpt lat="22.4095313315" lon="114.0306443018"><ele>114.000</ele></trkpt>
      <trkpt lat="22.4095577590" lon="114.0305891380"><ele>113.000</ele></trkpt>
      <trkpt lat="22.4095690637" lon="114.0305376515"><ele>114.000</ele></trkpt>
      <trkpt lat="22.4095623480" lon="114.0304910594"><ele>114.000</ele></trkpt>
      <trkpt lat="22.4095545414" lon="114.0304564145"><ele>114.000</ele></trkpt>
      <trkpt lat="22.4095367211" lon="114.0304229843"><ele>114.000</ele></trkpt>
      <trkpt lat="22.4093719911" lon="114.0303433415"><ele>114.000</ele></trkpt>
      <trkpt lat="22.4093715717" lon="114.0303431387"><ele>114.000</ele></trkpt>
      <trkpt lat="22.4093158884" lon="114.0305279200"><ele>114.000</ele></trkpt>
      <trkpt lat="22.4092744698" lon="114.0306653642"><ele>114.000</ele></trkpt>
      <trkpt lat="22.4092580558" lon="114.0307200639"><ele>114.000</ele></trkpt>
      <trkpt lat="22.4092472449" lon="114.0307335489"><ele>114.000</ele></trkpt>
      <trkpt lat="22.4092304136" lon="114.0307452104"><ele>114.000</ele></trkpt>
      <trkpt lat="22.4092183838" lon="114.0307447918"><ele>116.000</ele></trkpt>
      <trkpt lat="22.4092119645" lon="114.0307413487"><ele>116.000</ele></trkpt>
      <trkpt lat="22.4091422383" lon="114.0307931729"><ele>116.000</ele></trkpt>
      <trkpt lat="22.4091049609" lon="114.0308096002"><ele>115.000</ele></trkpt>
      <trkpt lat="22.4090817303" lon="114.0308389503"><ele>116.000</ele></trkpt>
      <trkpt lat="22.4090549078" lon="114.0308877110"><ele>115.000</ele></trkpt>
      <trkpt lat="22.4090256895" lon="114.0309485504"><ele>114.000</ele></trkpt>
      <trkpt lat="22.4090160950" lon="114.0309809048"><ele>114.000</ele></trkpt>
      <trkpt lat="22.4090277558" lon="114.0310166877"><ele>114.000</ele></trkpt>
      <trkpt lat="22.4090430222" lon="114.0310481538"><ele>115.000</ele></trkpt>
      <trkpt lat="22.4090687084" lon="114.0310731406"><ele>115.000</ele></trkpt>
      <trkpt lat="22.4091028035" lon="114.0310847490"><ele>114.000</ele></trkpt>
      <trkpt lat="22.4091260642" lon="114.0310877433"><ele>114.000</ele></trkpt>
      <trkpt lat="22.4091477167" lon="114.0310868583"><ele>114.000</ele></trkpt>
      <trkpt lat="22.4091617429" lon="114.0310769246"><ele>114.000</ele></trkpt>
      <trkpt lat="22.4091706293" lon="114.0310943992"><ele>114.000</ele></trkpt>
      <trkpt lat="22.4091856765" lon="114.0311261763"><ele>114.000</ele></trkpt>
      <trkpt lat="22.4091558640" lon="114.0311690506"><ele>114.000</ele></trkpt>
      <trkpt lat="22.4091478930" lon="114.0312093489"><ele>114.000</ele></trkpt>
      <trkpt lat="22.4091904792" lon="114.0312778919"><ele>114.000</ele></trkpt>
      <trkpt lat="22.4092330770" lon="114.0313693070"><ele>114.000</ele></trkpt>
      <trkpt lat="22.4092427864" lon="114.0314212571"><ele>114.000</ele></trkpt>
      <trkpt lat="22.4092696829" lon="114.0314957992"><ele>114.000</ele></trkpt>
      <trkpt lat="22.4093045360" lon="114.0316863916"><ele>114.000</ele></trkpt>
      <trkpt lat="22.4093393889" lon="114.0318769841"><ele>116.000</ele></trkpt>
      <trkpt lat="22.4093742415" lon="114.0320675766"><ele>116.000</ele></trkpt>
      <trkpt lat="22.4093770766" lon="114.0320830803"><ele>116.000</ele></trkpt>
      <trkpt lat="22.4094045229" lon="114.0322750680"><ele>116.000</ele></trkpt>
      <trkpt lat="22.4094095612" lon="114.0323103109"><ele>116.000</ele></trkpt>
      <trkpt lat="22.4094171360" lon="114.0323608686"><ele>116.000</ele></trkpt>
    </trkseg>
  </trk>
</gpx>
