<?xml version="1.0" encoding="UTF-8"?>
<gpx xmlns:xsi="http://www.w3.org/2001/XMLSchema-instance"
     xsi:schemaLocation="http://www.topografix.com/GPX/1/1 http://www.topografix.com/GPX/1/1/gpx.xsd"
     version="1.1" creator="json3d_batch_to_gpx"
     xmlns="http://www.topografix.com/GPX/1/1">
  <metadata>
    <name>AberdeenTreeWalk</name>
  </metadata>
  <trk>
    <name>AberdeenTreeWalk</name>
    <type>hike</type>
    <trkseg>
      <trkpt lat="22.2540815577" lon="114.1591375229"><ele>102.000</ele></trkpt>
      <trkpt lat="22.2542315037" lon="114.1592456863"><ele>106.000</ele></trkpt>
      <trkpt lat="22.2543814496" lon="114.1593538499"><ele>102.000</ele></trkpt>
      <trkpt lat="22.2543915478" lon="114.1593611342"><ele>101.000</ele></trkpt>
      <trkpt lat="22.2545613658" lon="114.1594272091"><ele>106.000</ele></trkpt>
      <trkpt lat="22.2547107789" lon="114.1594853447"><ele>107.000</ele></trkpt>
      <trkpt lat="22.2548449514" lon="114.1595648485"><ele>106.000</ele></trkpt>
      <trkpt lat="22.2549236058" lon="114.1596244790"><ele>104.000</ele></trkpt>
      <trkpt lat="22.2549698858" lon="114.1597835142"><ele>110.000</ele></trkpt>
      <trkpt lat="22.2550161666" lon="114.1599524888"><ele>114.000</ele></trkpt>
      <trkpt lat="22.2551179580" lon="114.1600618177"><ele>116.000</ele></trkpt>
      <trkpt lat="22.2552151144" lon="114.1600965959"><ele>117.000</ele></trkpt>
      <trkpt lat="22.2553900728" lon="114.1601447683"><ele>109.000</ele></trkpt>
      <trkpt lat="22.2553955468" lon="114.1601462755"><ele>109.000</ele></trkpt>
      <trkpt lat="22.2555713506" lon="114.1601661341"><ele>114.000</ele></trkpt>
      <trkpt lat="22.2557505124" lon="114.1601906835"><ele>114.000</ele></trkpt>
      <trkpt lat="22.2559296742" lon="114.1602152329"><ele>114.000</ele></trkpt>
      <trkpt lat="22.2560062328" lon="114.1602257232"><ele>116.000</ele></trkpt>
      <trkpt lat="22.2561357761" lon="114.1602803794"><ele>110.000</ele></trkpt>
      <trkpt lat="22.2562679793" lon="114.1604125809"><ele>119.000</ele></trkpt>
      <trkpt lat="22.2562699537" lon="114.1604145553"><ele>119.000</ele></trkpt>
      <trkpt lat="22.2564373424" lon="114.1604874350"><ele>116.000</ele></trkpt>
      <trkpt lat="22.2564411357" lon="114.1604890865"><ele>116.000</ele></trkpt>
      <trkpt lat="22.2566215354" lon="114.1604985195"><ele>120.000</ele></trkpt>
      <trkpt lat="22.2566308176" lon="114.1604990048"><ele>122.000</ele></trkpt>
      <trkpt lat="22.2568066342" lon="114.1605434252"><ele>122.000</ele></trkpt>
      <trkpt lat="22.2569454169" lon="114.1605784890"><ele>122.000</ele></trkpt>
      <trkpt lat="22.2570518284" lon="114.1606381186"><ele>125.000</ele></trkpt>
      <trkpt lat="22.2570888461" lon="114.1607027255"><ele>124.000</ele></trkpt>
      <trkpt lat="22.2570796090" lon="114.1608617689"><ele>124.000</ele></trkpt>
      <trkpt lat="22.2570559294" lon="114.1610541274"><ele>124.000</ele></trkpt>
      <trkpt lat="22.2570380042" lon="114.1611997398"><ele>118.000</ele></trkpt>
      <trkpt lat="22.2570657741" lon="114.1613190197"><ele>120.000</ele></trkpt>
      <trkpt lat="22.2571166722" lon="114.1614084761"><ele>118.000</ele></trkpt>
      <trkpt lat="22.2571999495" lon="114.1614382870"><ele>116.000</ele></trkpt>
      <trkpt lat="22.2573387409" lon="114.1614482122"><ele>118.000</ele></trkpt>
      <trkpt lat="22.2575002943" lon="114.1615349695"><ele>121.000</ele></trkpt>
      <trkpt lat="22.2575145506" lon="114.1615426254"><ele>122.000</ele></trkpt>
      <trkpt lat="22.2576070820" lon="114.1615873461"><ele>118.000</ele></trkpt>
      <trkpt lat="22.2577412433" lon="114.1615575104"><ele>124.000</ele></trkpt>
      <trkpt lat="22.2578753998" lon="114.1614779748"><ele>118.000</ele></trkpt>
      <trkpt lat="22.2579725540" lon="114.1614928738"><ele>118.000</ele></trkpt>
      <trkpt lat="22.2581262289" lon="114.1615948211"><ele>118.000</ele></trkpt>
      <trkpt lat="22.2581298599" lon="114.1615972299"><ele>118.000</ele></trkpt>
      <trkpt lat="22.2583100743" lon="114.1616101176"><ele>121.000</ele></trkpt>
      <trkpt lat="22.2584768374" lon="114.1616220434"><ele>125.000</ele></trkpt>
      <trkpt lat="22.2586567732" lon="114.1616388326"><ele>122.000</ele></trkpt>
      <trkpt lat="22.2586896513" lon="114.1616419004"><ele>122.000</ele></trkpt>
      <trkpt lat="22.2588371172" lon="114.1617539333"><ele>118.000</ele></trkpt>
      <trkpt lat="22.2588793447" lon="114.1617860146"><ele>118.000</ele></trkpt>
      <trkpt lat="22.2588886049" lon="114.1618655362"><ele>119.000</ele></trkpt>
      <trkpt lat="22.2588747302" lon="114.1619152390"><ele>120.000</ele></trkpt>
      <trkpt lat="22.2587405730" lon="114.1619898056"><ele>118.000</ele></trkpt>
      <trkpt lat="22.2586156686" lon="114.1620643711"><ele>118.000</ele></trkpt>
      <trkpt lat="22.2585092171" lon="114.1622211224"><ele>118.000</ele></trkpt>
      <trkpt lat="22.2584907740" lon="114.1622482801"><ele>118.000</ele></trkpt>
      <trkpt lat="22.2584445259" lon="114.1624172692"><ele>116.000</ele></trkpt>
      <trkpt lat="22.2584309503" lon="114.1626107555"><ele>117.000</ele></trkpt>
      <trkpt lat="22.2584260434" lon="114.1626806894"><ele>118.000</ele></trkpt>
      <trkpt lat="22.2584445590" lon="114.1627950005"><ele>118.000</ele></trkpt>
      <trkpt lat="22.2585737429" lon="114.1629306053"><ele>116.000</ele></trkpt>
      <trkpt lat="22.2586481365" lon="114.1630086967"><ele>122.000</ele></trkpt>
      <trkpt lat="22.2587129108" lon="114.1630733023"><ele>122.000</ele></trkpt>
      <trkpt lat="22.2587651939" lon="114.1632590303"><ele>116.000</ele></trkpt>
      <trkpt lat="22.2587730711" lon="114.1632870131"><ele>116.000</ele></trkpt>
      <trkpt lat="22.2588008369" lon="114.1633864130"><ele>125.000</ele></trkpt>
      <trkpt lat="22.2589814502" lon="114.1633863958"><ele>126.000</ele></trkpt>
      <trkpt lat="22.2591570658" lon="114.1633863790"><ele>118.000</ele></trkpt>
      <trkpt lat="22.2593371744" lon="114.1634008740"><ele>124.000</ele></trkpt>
      <trkpt lat="22.2593421206" lon="114.1634012721"><ele>124.000</ele></trkpt>
      <trkpt lat="22.2594855436" lon="114.1634758111"><ele>123.000</ele></trkpt>
      <trkpt lat="22.2595503201" lon="114.1635702388"><ele>131.000</ele></trkpt>
      <trkpt lat="22.2596289714" lon="114.1636099925"><ele>130.000</ele></trkpt>
      <trkpt lat="22.2597261242" lon="114.1636099833"><ele>132.000</ele></trkpt>
      <trkpt lat="22.2599033736" lon="114.1635727096"><ele>134.000</ele></trkpt>
      <trkpt lat="22.2599389325" lon="114.1635652319"><ele>135.000</ele></trkpt>
      <trkpt lat="22.2600777274" lon="114.1636198909"><ele>137.000</ele></trkpt>
      <trkpt lat="22.2602118910" lon="114.1636149080"><ele>134.000</ele></trkpt>
      <trkpt lat="22.2603275441" lon="114.1635502845"><ele>134.000</ele></trkpt>
      <trkpt lat="22.2604154469" lon="114.1635751276"><ele>135.000</ele></trkpt>
      <trkpt lat="22.2604339569" lon="114.1636397386"><ele>138.000</ele></trkpt>
      <trkpt lat="22.2604108346" lon="114.1637490850"><ele>136.000</ele></trkpt>
      <trkpt lat="22.2604108386" lon="114.1637987878"><ele>134.000</ele></trkpt>
      <trkpt lat="22.2604293482" lon="114.1638484880"><ele>137.000</ele></trkpt>
      <trkpt lat="22.2604756126" lon="114.1638633945"><ele>138.000</ele></trkpt>
      <trkpt lat="22.2605265029" lon="114.1638733304"><ele>138.000</ele></trkpt>
      <trkpt lat="22.2606190286" lon="114.1638534408"><ele>142.000</ele></trkpt>
      <trkpt lat="22.2607161805" lon="114.1638434912"><ele>141.000</ele></trkpt>
      <trkpt lat="22.2607809529" lon="114.1638882169"><ele>143.000</ele></trkpt>
      <trkpt lat="22.2607902093" lon="114.1639329487"><ele>145.000</ele></trkpt>
      <trkpt lat="22.2607624610" lon="114.1640621770"><ele>142.000</ele></trkpt>
      <trkpt lat="22.2607856024" lon="114.1641814600"><ele>145.000</ele></trkpt>
      <trkpt lat="22.2608967404" lon="114.1643344136"><ele>139.000</ele></trkpt>
      <trkpt lat="22.2609336613" lon="114.1643852261"><ele>138.000</ele></trkpt>
      <trkpt lat="22.2610169390" lon="114.1644398921"><ele>140.000</ele></trkpt>
      <trkpt lat="22.2611048402" lon="114.1644448537"><ele>144.000</ele></trkpt>
      <trkpt lat="22.2611742381" lon="114.1644796397"><ele>143.000</ele></trkpt>
      <trkpt lat="22.2612482713" lon="114.1646337110"><ele>140.000</ele></trkpt>
      <trkpt lat="22.2613130431" lon="114.1646734669"><ele>140.000</ele></trkpt>
      <trkpt lat="22.2614101939" lon="114.1646486079"><ele>144.000</ele></trkpt>
      <trkpt lat="22.2615350963" lon="114.1645193697"><ele>146.000</ele></trkpt>
      <trkpt lat="22.2615906118" lon="114.1645143945"><ele>150.000</ele></trkpt>
      <trkpt lat="22.2616276271" lon="114.1645790055"><ele>148.000</ele></trkpt>
      <trkpt lat="22.2616522016" lon="114.1647712406"><ele>144.000</ele></trkpt>
      <trkpt lat="22.2616600308" lon="114.1648324854"><ele>142.000</ele></trkpt>
      <trkpt lat="22.2617109226" lon="114.1648623030"><ele>142.000</ele></trkpt>
      <trkpt lat="22.2618798425" lon="114.1647936194"><ele>145.000</ele></trkpt>
      <trkpt lat="22.2618820918" lon="114.1647927048"><ele>145.000</ele></trkpt>
      <trkpt lat="22.2620566617" lon="114.1647429307"><ele>148.000</ele></trkpt>
      <trkpt lat="22.2621087782" lon="114.1647280710"><ele>149.000</ele></trkpt>
      <trkpt lat="22.2621365396" lon="114.1647678313"><ele>152.000</ele></trkpt>
      <trkpt lat="22.2621411735" lon="114.1648821469"><ele>152.000</ele></trkpt>
      <trkpt lat="22.2622013269" lon="114.1650213095"><ele>151.000</ele></trkpt>
      <trkpt lat="22.2622938605" lon="114.1651207077"><ele>153.000</ele></trkpt>
      <trkpt lat="22.2623632556" lon="114.1651207019"><ele>155.000</ele></trkpt>
      <trkpt lat="22.2625020428" lon="114.1650759572"><ele>162.000</ele></trkpt>
      <trkpt lat="22.2625991976" lon="114.1651057712"><ele>163.000</ele></trkpt>
      <trkpt lat="22.2626963513" lon="114.1651057632"><ele>164.000</ele></trkpt>
      <trkpt lat="22.2627472430" lon="114.1651355811"><ele>164.000</ele></trkpt>
      <trkpt lat="22.2627472497" lon="114.1652300161"><ele>162.000</ele></trkpt>
      <trkpt lat="22.2627657589" lon="114.1652797182"><ele>162.000</ele></trkpt>
      <trkpt lat="22.2627888923" lon="114.1652995968"><ele>162.000</ele></trkpt>
      <trkpt lat="22.2629602326" lon="114.1652382212"><ele>167.000</ele></trkpt>
      <trkpt lat="22.2629970717" lon="114.1652250251"><ele>170.000</ele></trkpt>
      <trkpt lat="22.2631034767" lon="114.1652051358"><ele>168.000</ele></trkpt>
      <trkpt lat="22.2631589937" lon="114.1652200414"><ele>169.000</ele></trkpt>
      <trkpt lat="22.2632052600" lon="114.1652647710"><ele>168.000</ele></trkpt>
      <trkpt lat="22.2632977967" lon="114.1653989618"><ele>171.000</ele></trkpt>
      <trkpt lat="22.2633903279" lon="114.1654685388"><ele>172.000</ele></trkpt>
      <trkpt lat="22.2634365965" lon="114.1655331491"><ele>171.000</ele></trkpt>
      <trkpt lat="22.2634042182" lon="114.1656275881"><ele>171.000</ele></trkpt>
      <trkpt lat="22.2633949681" lon="114.1656673510"><ele>172.000</ele></trkpt>
      <trkpt lat="22.2634181042" lon="114.1657269928"><ele>172.000</ele></trkpt>
      <trkpt lat="22.2634967556" lon="114.1657766905"><ele>174.000</ele></trkpt>
      <trkpt lat="22.2636401774" lon="114.1658512332"><ele>176.000</ele></trkpt>
      <trkpt lat="22.2637280766" lon="114.1658412866"><ele>178.000</ele></trkpt>
      <trkpt lat="22.2637789685" lon="114.1658760744"><ele>179.000</ele></trkpt>
      <trkpt lat="22.2638530014" lon="114.1660450604"><ele>182.000</ele></trkpt>
      <trkpt lat="22.2639085196" lon="114.1660798480"><ele>180.000</ele></trkpt>
      <trkpt lat="22.2640618636" lon="114.1659773231"><ele>186.000</ele></trkpt>
      <trkpt lat="22.2641166959" lon="114.1659406625"><ele>188.000</ele></trkpt>
      <trkpt lat="22.2642045940" lon="114.1659008934"><ele>188.000</ele></trkpt>
      <trkpt lat="22.2642554839" lon="114.1659058599"><ele>190.000</ele></trkpt>
      <trkpt lat="22.2642739958" lon="114.1660002944"><ele>188.000</ele></trkpt>
      <trkpt lat="22.2643063900" lon="114.1661543730"><ele>184.000</ele></trkpt>
      <trkpt lat="22.2643434044" lon="114.1662040734"><ele>182.000</ele></trkpt>
      <trkpt lat="22.2643989224" lon="114.1662338918"><ele>186.000</ele></trkpt>
      <trkpt lat="22.2644590650" lon="114.1662388577"><ele>186.000</ele></trkpt>
      <trkpt lat="22.2645007001" lon="114.1662140024"><ele>184.000</ele></trkpt>
      <trkpt lat="22.2645469570" lon="114.1661046514"><ele>184.000</ele></trkpt>
      <trkpt lat="22.2646441054" lon="114.1660400294"><ele>180.000</ele></trkpt>
      <trkpt lat="22.2647690205" lon="114.1660996641"><ele>180.000</ele></trkpt>
      <trkpt lat="22.2648011265" lon="114.1662906176"><ele>192.000</ele></trkpt>
      <trkpt lat="22.2648332323" lon="114.1664815713"><ele>190.000</ele></trkpt>
      <trkpt lat="22.2648395635" lon="114.1665192275"><ele>190.000</ele></trkpt>
      <trkpt lat="22.2649479992" lon="114.1666065899"><ele>195.000</ele></trkpt>
      <trkpt lat="22.2649030306" lon="114.1667945235"><ele>194.000</ele></trkpt>
      <trkpt lat="22.2648666974" lon="114.1669463670"><ele>190.000</ele></trkpt>
      <trkpt lat="22.2647130934" lon="114.1670240390"><ele>186.000</ele></trkpt>
      <trkpt lat="22.2647130980" lon="114.1671017021"><ele>186.000</ele></trkpt>
      <trkpt lat="22.2648713599" lon="114.1671952042"><ele>190.000</ele></trkpt>
      <trkpt lat="22.2648938204" lon="114.1672084740"><ele>192.000</ele></trkpt>
      <trkpt lat="22.2650366885" lon="114.1672001320"><ele>193.000</ele></trkpt>
      <trkpt lat="22.2650952091" lon="114.1672485605"><ele>194.000</ele></trkpt>
      <trkpt lat="22.2650538873" lon="114.1673372241"><ele>193.000</ele></trkpt>
      <trkpt lat="22.2650190834" lon="114.1674493918"><ele>190.000</ele></trkpt>
      <trkpt lat="22.2651384912" lon="114.1675949786"><ele>193.000</ele></trkpt>
      <trkpt lat="22.2651558829" lon="114.1676161834"><ele>191.000</ele></trkpt>
      <trkpt lat="22.2652656055" lon="114.1677703167"><ele>184.000</ele></trkpt>
      <trkpt lat="22.2652733584" lon="114.1677812077"><ele>184.000</ele></trkpt>
      <trkpt lat="22.2653345454" lon="114.1679637781"><ele>194.000</ele></trkpt>
      <trkpt lat="22.2653546937" lon="114.1680238972"><ele>193.000</ele></trkpt>
      <trkpt lat="22.2655061336" lon="114.1681296395"><ele>194.000</ele></trkpt>
      <trkpt lat="22.2655354174" lon="114.1681500869"><ele>194.000</ele></trkpt>
      <trkpt lat="22.2656518971" lon="114.1682983871"><ele>196.000</ele></trkpt>
      <trkpt lat="22.2657683766" lon="114.1684466875"><ele>196.000</ele></trkpt>
      <trkpt lat="22.2657794005" lon="114.1684607229"><ele>196.000</ele></trkpt>
      <trkpt lat="22.2657973616" lon="114.1682676395"><ele>210.000</ele></trkpt>
      <trkpt lat="22.2657974616" lon="114.1682665649"><ele>210.000</ele></trkpt>
      <trkpt lat="22.2657161345" lon="114.1681694919"><ele>206.000</ele></trkpt>
      <trkpt lat="22.2657342021" lon="114.1681015362"><ele>208.000</ele></trkpt>
      <trkpt lat="22.2658697343" lon="114.1680044497"><ele>214.000</ele></trkpt>
      <trkpt lat="22.2658697269" lon="114.1678685403"><ele>214.000</ele></trkpt>
      <trkpt lat="22.2657341824" lon="114.1677423467"><ele>218.000</ele></trkpt>
      <trkpt lat="22.2656257532" lon="114.1677423537"><ele>216.000</ele></trkpt>
      <trkpt lat="22.2656076756" lon="114.1676452770"><ele>219.000</ele></trkpt>
      <trkpt lat="22.2656980273" lon="114.1675190700"><ele>218.000</ele></trkpt>
      <trkpt lat="22.2657883831" lon="114.1674802326"><ele>221.000</ele></trkpt>
      <trkpt lat="22.2659609235" lon="114.1675375972"><ele>223.000</ele></trkpt>
      <trkpt lat="22.2661334640" lon="114.1675949618"><ele>234.000</ele></trkpt>
      <trkpt lat="22.2661678945" lon="114.1676064090"><ele>233.000</ele></trkpt>
      <trkpt lat="22.2663427545" lon="114.1676549946"><ele>234.000</ele></trkpt>
      <trkpt lat="22.2663508042" lon="114.1676572313"><ele>234.000</ele></trkpt>
      <trkpt lat="22.2664194472" lon="114.1677383449"><ele>237.000</ele></trkpt>
      <trkpt lat="22.2664297463" lon="114.1677973392"><ele>246.000</ele></trkpt>
      <trkpt lat="22.2664125887" lon="114.1678415867"><ele>240.000</ele></trkpt>
      <trkpt lat="22.2663473856" lon="114.1679079595"><ele>236.000</ele></trkpt>
      <trkpt lat="22.2663165023" lon="114.1679853926"><ele>238.000</ele></trkpt>
      <trkpt lat="22.2663898658" lon="114.1681627096"><ele>241.000</ele></trkpt>
      <trkpt lat="22.2664126091" lon="114.1682176793"><ele>242.000</ele></trkpt>
      <trkpt lat="22.2665777903" lon="114.1682961621"><ele>249.000</ele></trkpt>
      <trkpt lat="22.2665910737" lon="114.1683024735"><ele>249.000</ele></trkpt>
      <trkpt lat="22.2666459880" lon="114.1683688389"><ele>250.000</ele></trkpt>
      <trkpt lat="22.2666854395" lon="114.1685581997"><ele>246.000</ele></trkpt>
      <trkpt lat="22.2667248908" lon="114.1687475606"><ele>236.000</ele></trkpt>
      <trkpt lat="22.2667558373" lon="114.1688961008"><ele>240.000</ele></trkpt>
      <trkpt lat="22.2666956445" lon="114.1690790541"><ele>239.000</ele></trkpt>
      <trkpt lat="22.2666357371" lon="114.1692611391"><ele>248.000</ele></trkpt>
      <trkpt lat="22.2666288779" lon="114.1693680678"><ele>244.000</ele></trkpt>
      <trkpt lat="22.2666529041" lon="114.1694307494"><ele>249.000</ele></trkpt>
      <trkpt lat="22.2667524003" lon="114.1695926976"><ele>249.000</ele></trkpt>
      <trkpt lat="22.2667661658" lon="114.1696151034"><ele>245.000</ele></trkpt>
      <trkpt lat="22.2667936244" lon="114.1696777839"><ele>245.000</ele></trkpt>
    </trkseg>
  </trk>
</gpx>
