<?xml version="1.0" encoding="UTF-8"?>
<gpx xmlns:xsi="http://www.w3.org/2001/XMLSchema-instance"
     xsi:schemaLocation="http://www.topografix.com/GPX/1/1 http://www.topografix.com/GPX/1/1/gpx.xsd"
     version="1.1" creator="json3d_batch_to_gpx"
     xmlns="http://www.topografix.com/GPX/1/1">
  <metadata>
    <name>KeiLingHaTreeWalk</name>
  </metadata>
  <trk>
    <name>KeiLingHaTreeWalk</name>
    <type>hike</type>
    <trkseg>
      <trkpt lat="22.4053837828" lon="114.2771798938"><ele>74.000</ele></trkpt>
      <trkpt lat="22.4053471515" lon="114.2770109773"><ele>86.000</ele></trkpt>
      <trkpt lat="22.4053375240" lon="114.2769980244"><ele>86.000</ele></trkpt>
      <trkpt lat="22.4053006043" lon="114.2769738347"><ele>86.000</ele></trkpt>
      <trkpt lat="22.4052387928" lon="114.2769556680"><ele>88.000</ele></trkpt>
      <trkpt lat="22.4051344132" lon="114.2769495524"><ele>88.000</ele></trkpt>
      <trkpt lat="22.4050077639" lon="114.2768857517"><ele>84.000</ele></trkpt>
      <trkpt lat="22.4049223696" lon="114.2768160175"><ele>88.000</ele></trkpt>
      <trkpt lat="22.4048528372" lon="114.2767537923"><ele>88.000</ele></trkpt>
      <trkpt lat="22.4048217410" lon="114.2767167483"><ele>89.000</ele></trkpt>
      <trkpt lat="22.4048167907" lon="114.2766462754"><ele>89.000</ele></trkpt>
      <trkpt lat="22.4048111460" lon="114.2765740927"><ele>92.000</ele></trkpt>
      <trkpt lat="22.4048218463" lon="114.2765462272"><ele>92.000</ele></trkpt>
      <trkpt lat="22.4048645979" lon="114.2764855973"><ele>88.000</ele></trkpt>
      <trkpt lat="22.4048951215" lon="114.2764700412"><ele>85.000</ele></trkpt>
      <trkpt lat="22.4049309907" lon="114.2764405523"><ele>82.000</ele></trkpt>
      <trkpt lat="22.4049592417" lon="114.2764053280"><ele>82.000</ele></trkpt>
      <trkpt lat="22.4049990098" lon="114.2763355570"><ele>82.000</ele></trkpt>
      <trkpt lat="22.4050585567" lon="114.2761688430"><ele>83.000</ele></trkpt>
      <trkpt lat="22.4051233206" lon="114.2759875224"><ele>86.000</ele></trkpt>
      <trkpt lat="22.4051673353" lon="114.2758253163"><ele>92.000</ele></trkpt>
      <trkpt lat="22.4051858616" lon="114.2757290358"><ele>90.000</ele></trkpt>
      <trkpt lat="22.4052076355" lon="114.2756823661"><ele>88.000</ele></trkpt>
      <trkpt lat="22.4052788060" lon="114.2756214062"><ele>86.000</ele></trkpt>
      <trkpt lat="22.4053500568" lon="114.2755843830"><ele>88.000</ele></trkpt>
      <trkpt lat="22.4055126796" lon="114.2754998811"><ele>90.000</ele></trkpt>
      <trkpt lat="22.4055536297" lon="114.2754818686"><ele>84.000</ele></trkpt>
      <trkpt lat="22.4057207979" lon="114.2754083375"><ele>89.000</ele></trkpt>
      <trkpt lat="22.4058026149" lon="114.2753625548"><ele>84.000</ele></trkpt>
      <trkpt lat="22.4059088079" lon="114.2752235059"><ele>96.000</ele></trkpt>
      <trkpt lat="22.4059251337" lon="114.2751366148"><ele>92.000</ele></trkpt>
      <trkpt lat="22.4059461404" lon="114.2750594195"><ele>90.000</ele></trkpt>
      <trkpt lat="22.4059565114" lon="114.2750379925"><ele>90.000</ele></trkpt>
      <trkpt lat="22.4060406486" lon="114.2749162497"><ele>90.000</ele></trkpt>
      <trkpt lat="22.4061483880" lon="114.2747603552"><ele>94.000</ele></trkpt>
      <trkpt lat="22.4061813417" lon="114.2747282025"><ele>94.000</ele></trkpt>
      <trkpt lat="22.4063091833" lon="114.2747013316"><ele>96.000</ele></trkpt>
      <trkpt lat="22.4064864395" lon="114.2746640743"><ele>98.000</ele></trkpt>
      <trkpt lat="22.4065628004" lon="114.2746206957"><ele>96.000</ele></trkpt>
      <trkpt lat="22.4066317036" lon="114.2745451359"><ele>98.000</ele></trkpt>
      <trkpt lat="22.4067260469" lon="114.2744824623"><ele>97.000</ele></trkpt>
      <trkpt lat="22.4067814444" lon="114.2744599788"><ele>100.000</ele></trkpt>
      <trkpt lat="22.4068139446" lon="114.2744537088"><ele>100.000</ele></trkpt>
      <trkpt lat="22.4069917168" lon="114.2744194128"><ele>102.000</ele></trkpt>
      <trkpt lat="22.4070300065" lon="114.2744145290"><ele>102.000</ele></trkpt>
      <trkpt lat="22.4072093592" lon="114.2743916524"><ele>94.000</ele></trkpt>
      <trkpt lat="22.4073869922" lon="114.2743712160"><ele>89.000</ele></trkpt>
      <trkpt lat="22.4074603024" lon="114.2743252319"><ele>84.000</ele></trkpt>
      <trkpt lat="22.4075709107" lon="114.2742154850"><ele>84.000</ele></trkpt>
      <trkpt lat="22.4076191259" lon="114.2741813832"><ele>84.000</ele></trkpt>
      <trkpt lat="22.4077700275" lon="114.2740746528"><ele>84.000</ele></trkpt>
      <trkpt lat="22.4079344422" lon="114.2740202338"><ele>86.000</ele></trkpt>
      <trkpt lat="22.4080184133" lon="114.2739957691"><ele>80.000</ele></trkpt>
      <trkpt lat="22.4080550640" lon="114.2740024765"><ele>82.000</ele></trkpt>
      <trkpt lat="22.4080715870" lon="114.2740222230"><ele>82.000</ele></trkpt>
      <trkpt lat="22.4081195193" lon="114.2740384497"><ele>80.000</ele></trkpt>
      <trkpt lat="22.4082917957" lon="114.2740967710"><ele>74.000</ele></trkpt>
      <trkpt lat="22.4083314545" lon="114.2741018975"><ele>73.000</ele></trkpt>
    </trkseg>
  </trk>
</gpx>
