<?xml version="1.0" encoding="UTF-8"?>
<gpx xmlns:xsi="http://www.w3.org/2001/XMLSchema-instance"
     xsi:schemaLocation="http://www.topografix.com/GPX/1/1 http://www.topografix.com/GPX/1/1/gpx.xsd"
     version="1.1" creator="json3d_batch_to_gpx"
     xmlns="http://www.topografix.com/GPX/1/1">
  <metadata>
    <name>NamShanTreeWalk</name>
  </metadata>
  <trk>
    <name>NamShanTreeWalk</name>
    <type>hike</type>
    <trkseg>
      <trkpt lat="22.2564448520" lon="113.9882453389"><ele>131.000</ele></trkpt>
      <trkpt lat="22.2564627114" lon="113.9882433960"><ele>131.000</ele></trkpt>
      <trkpt lat="22.2564829531" lon="113.9882414499"><ele>136.000</ele></trkpt>
      <trkpt lat="22.2565022036" lon="113.9882468211"><ele>136.000</ele></trkpt>
      <trkpt lat="22.2566116622" lon="113.9882843167"><ele>138.000</ele></trkpt>
      <trkpt lat="22.2566626778" lon="113.9882934552"><ele>140.000</ele></trkpt>
      <trkpt lat="22.2567134338" lon="113.9882889924"><ele>141.000</ele></trkpt>
      <trkpt lat="22.2567528551" lon="113.9882678774"><ele>140.000</ele></trkpt>
      <trkpt lat="22.2567875309" lon="113.9882429852"><ele>138.000</ele></trkpt>
      <trkpt lat="22.2568230472" lon="113.9882062345"><ele>138.000</ele></trkpt>
      <trkpt lat="22.2568457077" lon="113.9881827864"><ele>138.000</ele></trkpt>
      <trkpt lat="22.2568618864" lon="113.9881783893"><ele>138.000</ele></trkpt>
      <trkpt lat="22.2568765782" lon="113.9881775159"><ele>136.000</ele></trkpt>
      <trkpt lat="22.2568993560" lon="113.9881874877"><ele>136.000</ele></trkpt>
      <trkpt lat="22.2569749845" lon="113.9882479342"><ele>138.000</ele></trkpt>
      <trkpt lat="22.2570233519" lon="113.9882800575"><ele>140.000</ele></trkpt>
      <trkpt lat="22.2570580942" lon="113.9883031319"><ele>141.000</ele></trkpt>
      <trkpt lat="22.2571142852" lon="113.9883052880"><ele>140.000</ele></trkpt>
      <trkpt lat="22.2571517041" lon="113.9882784323"><ele>135.000</ele></trkpt>
      <trkpt lat="22.2571828659" lon="113.9882292421"><ele>138.000</ele></trkpt>
      <trkpt lat="22.2571848781" lon="113.9881733871"><ele>140.000</ele></trkpt>
      <trkpt lat="22.2571688678" lon="113.9881275974"><ele>140.000</ele></trkpt>
      <trkpt lat="22.2571544342" lon="113.9881074179"><ele>140.000</ele></trkpt>
      <trkpt lat="22.2571242381" lon="113.9880798185"><ele>140.000</ele></trkpt>
      <trkpt lat="22.2570120841" lon="113.9880247161"><ele>140.000</ele></trkpt>
      <trkpt lat="22.2569626494" lon="113.9879934986"><ele>138.000</ele></trkpt>
      <trkpt lat="22.2569234726" lon="113.9879739422"><ele>142.000</ele></trkpt>
      <trkpt lat="22.2568892332" lon="113.9879469400"><ele>143.000</ele></trkpt>
      <trkpt lat="22.2568480852" lon="113.9879120403"><ele>144.000</ele></trkpt>
      <trkpt lat="22.2568075186" lon="113.9878645471"><ele>146.000</ele></trkpt>
      <trkpt lat="22.2567718594" lon="113.9878281072"><ele>148.000</ele></trkpt>
      <trkpt lat="22.2567481018" lon="113.9878142658"><ele>148.000</ele></trkpt>
      <trkpt lat="22.2567268966" lon="113.9878085480"><ele>148.000</ele></trkpt>
      <trkpt lat="22.2566938357" lon="113.9878056460"><ele>146.000</ele></trkpt>
      <trkpt lat="22.2566679832" lon="113.9877958239"><ele>146.000</ele></trkpt>
      <trkpt lat="22.2566551308" lon="113.9877904568"><ele>146.000</ele></trkpt>
      <trkpt lat="22.2566276146" lon="113.9877897875"><ele>144.000</ele></trkpt>
      <trkpt lat="22.2566016032" lon="113.9877877443"><ele>146.000</ele></trkpt>
      <trkpt lat="22.2565815654" lon="113.9877810286"><ele>148.000</ele></trkpt>
      <trkpt lat="22.2565593635" lon="113.9877614903"><ele>148.000</ele></trkpt>
      <trkpt lat="22.2565458596" lon="113.9877425437"><ele>148.000</ele></trkpt>
      <trkpt lat="22.2565358405" lon="113.9877242678"><ele>150.000</ele></trkpt>
      <trkpt lat="22.2565293579" lon="113.9877021762"><ele>150.000</ele></trkpt>
      <trkpt lat="22.2565297899" lon="113.9876854016"><ele>150.000</ele></trkpt>
      <trkpt lat="22.2565419111" lon="113.9876507283"><ele>150.000</ele></trkpt>
      <trkpt lat="22.2565531949" lon="113.9876019171"><ele>151.000</ele></trkpt>
      <trkpt lat="22.2565605156" lon="113.9875448929"><ele>152.000</ele></trkpt>
      <trkpt lat="22.2565567380" lon="113.9875246508"><ele>152.000</ele></trkpt>
      <trkpt lat="22.2565519216" lon="113.9874964780"><ele>152.000</ele></trkpt>
      <trkpt lat="22.2565492048" lon="113.9874519649"><ele>150.000</ele></trkpt>
      <trkpt lat="22.2565514413" lon="113.9874105167"><ele>151.000</ele></trkpt>
      <trkpt lat="22.2565596703" lon="113.9873813912"><ele>148.000</ele></trkpt>
      <trkpt lat="22.2565751098" lon="113.9873401580"><ele>150.000</ele></trkpt>
      <trkpt lat="22.2565803841" lon="113.9873095133"><ele>150.000</ele></trkpt>
      <trkpt lat="22.2565873204" lon="113.9872869963"><ele>150.000</ele></trkpt>
      <trkpt lat="22.2565982159" lon="113.9872661562"><ele>150.000</ele></trkpt>
      <trkpt lat="22.2566117469" lon="113.9872393965"><ele>150.000</ele></trkpt>
      <trkpt lat="22.2566491833" lon="113.9871813111"><ele>148.000</ele></trkpt>
      <trkpt lat="22.2566595362" lon="113.9871535797"><ele>148.000</ele></trkpt>
      <trkpt lat="22.2566632143" lon="113.9871249259"><ele>148.000</ele></trkpt>
      <trkpt lat="22.2566616148" lon="113.9870961618"><ele>149.000</ele></trkpt>
      <trkpt lat="22.2566564056" lon="113.9870618475"><ele>149.000</ele></trkpt>
      <trkpt lat="22.2566459219" lon="113.9870315985"><ele>157.000</ele></trkpt>
      <trkpt lat="22.2566781595" lon="113.9869234423"><ele>158.000</ele></trkpt>
      <trkpt lat="22.2567158769" lon="113.9868741034"><ele>157.000</ele></trkpt>
      <trkpt lat="22.2567566633" lon="113.9868311712"><ele>156.000</ele></trkpt>
      <trkpt lat="22.2567737041" lon="113.9868080681"><ele>156.000</ele></trkpt>
      <trkpt lat="22.2567765453" lon="113.9867896855"><ele>156.000</ele></trkpt>
      <trkpt lat="22.2567779618" lon="113.9867653365"><ele>156.000</ele></trkpt>
      <trkpt lat="22.2567894190" lon="113.9867321706"><ele>154.000</ele></trkpt>
      <trkpt lat="22.2568060839" lon="113.9867196815"><ele>154.000</ele></trkpt>
      <trkpt lat="22.2568454464" lon="113.9867025341"><ele>154.000</ele></trkpt>
      <trkpt lat="22.2568663111" lon="113.9866981499"><ele>154.000</ele></trkpt>
      <trkpt lat="22.2569370818" lon="113.9866730630"><ele>154.000</ele></trkpt>
      <trkpt lat="22.2569771612" lon="113.9866588736"><ele>152.000</ele></trkpt>
      <trkpt lat="22.2569877749" lon="113.9866519158"><ele>152.000</ele></trkpt>
      <trkpt lat="22.2570004491" lon="113.9866416315"><ele>152.000</ele></trkpt>
      <trkpt lat="22.2570117271" lon="113.9866297628"><ele>150.000</ele></trkpt>
      <trkpt lat="22.2570222593" lon="113.9866118180"><ele>148.000</ele></trkpt>
      <trkpt lat="22.2570267394" lon="113.9865972208"><ele>148.000</ele></trkpt>
      <trkpt lat="22.2570284551" lon="113.9865816570"><ele>148.000</ele></trkpt>
      <trkpt lat="22.2570256400" lon="113.9865451633"><ele>150.000</ele></trkpt>
      <trkpt lat="22.2569889694" lon="113.9864088081"><ele>148.000</ele></trkpt>
      <trkpt lat="22.2569859588" lon="113.9863842932"><ele>148.000</ele></trkpt>
      <trkpt lat="22.2569852009" lon="113.9863678917"><ele>148.000</ele></trkpt>
      <trkpt lat="22.2569877008" lon="113.9863357857"><ele>148.000</ele></trkpt>
      <trkpt lat="22.2570018817" lon="113.9862996280"><ele>146.000</ele></trkpt>
      <trkpt lat="22.2570281187" lon="113.9862483097"><ele>146.000</ele></trkpt>
      <trkpt lat="22.2570430393" lon="113.9861884596"><ele>146.000</ele></trkpt>
      <trkpt lat="22.2570475444" lon="113.9861489387"><ele>146.000</ele></trkpt>
      <trkpt lat="22.2570517508" lon="113.9860704372"><ele>146.000</ele></trkpt>
      <trkpt lat="22.2570546572" lon="113.9860306857"><ele>146.000</ele></trkpt>
      <trkpt lat="22.2570519482" lon="113.9860077644"><ele>146.000</ele></trkpt>
      <trkpt lat="22.2570401627" lon="113.9859688866"><ele>146.000</ele></trkpt>
      <trkpt lat="22.2570276564" lon="113.9859437133"><ele>146.000</ele></trkpt>
      <trkpt lat="22.2570150060" lon="113.9859249529"><ele>148.000</ele></trkpt>
      <trkpt lat="22.2570038627" lon="113.9859039291"><ele>149.000</ele></trkpt>
      <trkpt lat="22.2569821554" lon="113.9858743647"><ele>148.000</ele></trkpt>
    </trkseg>
  </trk>
</gpx>
