<?xml version="1.0" encoding="UTF-8"?>
<gpx xmlns:xsi="http://www.w3.org/2001/XMLSchema-instance"
     xsi:schemaLocation="http://www.topografix.com/GPX/1/1 http://www.topografix.com/GPX/1/1/gpx.xsd"
     version="1.1" creator="json3d_batch_to_gpx"
     xmlns="http://www.topografix.com/GPX/1/1">
  <metadata>
    <name>PokFuLamTreeWalk</name>
  </metadata>
  <trk>
    <name>PokFuLamTreeWalk</name>
    <type>hike</type>
    <trkseg>
      <trkpt lat="22.2712303506" lon="114.1494872110"><ele>398.000</ele></trkpt>
      <trkpt lat="22.2713189084" lon="114.1494689655"><ele>398.000</ele></trkpt>
      <trkpt lat="22.2713926556" lon="114.1494114988"><ele>398.000</ele></trkpt>
      <trkpt lat="22.2714516609" lon="114.1494114873"><ele>402.000</ele></trkpt>
      <trkpt lat="22.2715493948" lon="114.1494471285"><ele>402.000</ele></trkpt>
      <trkpt lat="22.2716759742" lon="114.1493644050"><ele>402.000</ele></trkpt>
      <trkpt lat="22.2718334988" lon="114.1493822369"><ele>406.000</ele></trkpt>
      <trkpt lat="22.2718783123" lon="114.1494560656"><ele>406.000</ele></trkpt>
      <trkpt lat="22.2719987553" lon="114.1495120394"><ele>406.000</ele></trkpt>
      <trkpt lat="22.2721081203" lon="114.1495619259"><ele>408.000</ele></trkpt>
      <trkpt lat="22.2722084690" lon="114.1495412979"><ele>412.000</ele></trkpt>
      <trkpt lat="22.2723714360" lon="114.1494874065"><ele>412.000</ele></trkpt>
      <trkpt lat="22.2724999475" lon="114.1494119525"><ele>408.000</ele></trkpt>
      <trkpt lat="22.2725739324" lon="114.1493401185"><ele>408.000</ele></trkpt>
      <trkpt lat="22.2726729053" lon="114.1491777937"><ele>407.000</ele></trkpt>
      <trkpt lat="22.2726749572" lon="114.1491744283"><ele>407.000</ele></trkpt>
      <trkpt lat="22.2727556505" lon="114.1490420825"><ele>408.000</ele></trkpt>
      <trkpt lat="22.2729258801" lon="114.1489772337"><ele>409.000</ele></trkpt>
      <trkpt lat="22.2729662766" lon="114.1489618447"><ele>412.000</ele></trkpt>
      <trkpt lat="22.2731456335" lon="114.1489389991"><ele>410.000</ele></trkpt>
      <trkpt lat="22.2731606651" lon="114.1489370845"><ele>408.000</ele></trkpt>
      <trkpt lat="22.2733400220" lon="114.1489142388"><ele>413.000</ele></trkpt>
      <trkpt lat="22.2733568227" lon="114.1489120988"><ele>413.000</ele></trkpt>
      <trkpt lat="22.2735361796" lon="114.1488892537"><ele>409.000</ele></trkpt>
      <trkpt lat="22.2735600592" lon="114.1488862121"><ele>409.000</ele></trkpt>
      <trkpt lat="22.2737394161" lon="114.1488633662"><ele>410.000</ele></trkpt>
      <trkpt lat="22.2737861229" lon="114.1488574168"><ele>411.000</ele></trkpt>
      <trkpt lat="22.2739301504" lon="114.1488390712"><ele>412.000</ele></trkpt>
      <trkpt lat="22.2740701148" lon="114.1488986925"><ele>414.000</ele></trkpt>
      <trkpt lat="22.2742083327" lon="114.1489792375"><ele>410.000</ele></trkpt>
      <trkpt lat="22.2743342722" lon="114.1490526282"><ele>408.000</ele></trkpt>
      <trkpt lat="22.2745127374" lon="114.1490227906"><ele>410.000</ele></trkpt>
      <trkpt lat="22.2746116585" lon="114.1490062519"><ele>414.000</ele></trkpt>
      <trkpt lat="22.2747618557" lon="114.1490562697"><ele>414.000</ele></trkpt>
      <trkpt lat="22.2748678720" lon="114.1492133790"><ele>405.000</ele></trkpt>
      <trkpt lat="22.2748822014" lon="114.1492346143"><ele>406.000</ele></trkpt>
      <trkpt lat="22.2749476852" lon="114.1493031233"><ele>410.000</ele></trkpt>
      <trkpt lat="22.2750586965" lon="114.1493422431"><ele>410.000</ele></trkpt>
      <trkpt lat="22.2752387895" lon="114.1493569553"><ele>406.000</ele></trkpt>
      <trkpt lat="22.2752578791" lon="114.1493585148"><ele>406.000</ele></trkpt>
      <trkpt lat="22.2754367720" lon="114.1493852318"><ele>402.000</ele></trkpt>
      <trkpt lat="22.2754542192" lon="114.1493878375"><ele>403.000</ele></trkpt>
      <trkpt lat="22.2755368249" lon="114.1493486409"><ele>407.000</ele></trkpt>
      <trkpt lat="22.2756369844" lon="114.1491871553"><ele>408.000</ele></trkpt>
      <trkpt lat="22.2756457453" lon="114.1491730303"><ele>408.000</ele></trkpt>
      <trkpt lat="22.2757297008" lon="114.1490376692"><ele>406.000</ele></trkpt>
      <trkpt lat="22.2758099177" lon="114.1489083353"><ele>412.000</ele></trkpt>
      <trkpt lat="22.2758326891" lon="114.1488332396"><ele>412.000</ele></trkpt>
      <trkpt lat="22.2756910681" lon="114.1487128032"><ele>420.000</ele></trkpt>
      <trkpt lat="22.2756562225" lon="114.1486831701"><ele>418.000</ele></trkpt>
      <trkpt lat="22.2756277923" lon="114.1485692341"><ele>420.000</ele></trkpt>
      <trkpt lat="22.2757189020" lon="114.1484016754"><ele>420.000</ele></trkpt>
      <trkpt lat="22.2757642646" lon="114.1483182495"><ele>419.000</ele></trkpt>
      <trkpt lat="22.2759230241" lon="114.1482257195"><ele>421.000</ele></trkpt>
      <trkpt lat="22.2759376803" lon="114.1482171773"><ele>421.000</ele></trkpt>
      <trkpt lat="22.2760202294" lon="114.1482171606"><ele>417.000</ele></trkpt>
      <trkpt lat="22.2761496328" lon="114.1480826024"><ele>421.000</ele></trkpt>
      <trkpt lat="22.2762794405" lon="114.1480333400"><ele>417.000</ele></trkpt>
      <trkpt lat="22.2764497425" lon="114.1479687099"><ele>416.000</ele></trkpt>
      <trkpt lat="22.2764973613" lon="114.1479506384"><ele>419.000</ele></trkpt>
      <trkpt lat="22.2766172057" lon="114.1479437150"><ele>421.000</ele></trkpt>
      <trkpt lat="22.2767550175" lon="114.1479672456"><ele>422.000</ele></trkpt>
      <trkpt lat="22.2769249442" lon="114.1480330065"><ele>426.000</ele></trkpt>
      <trkpt lat="22.2769735108" lon="114.1480518016"><ele>422.000</ele></trkpt>
      <trkpt lat="22.2771535028" lon="114.1480678784"><ele>426.000</ele></trkpt>
      <trkpt lat="22.2771655685" lon="114.1480689561"><ele>426.000</ele></trkpt>
      <trkpt lat="22.2773404882" lon="114.1480206164"><ele>424.000</ele></trkpt>
      <trkpt lat="22.2773523220" lon="114.1480173461"><ele>421.000</ele></trkpt>
      <trkpt lat="22.2774918955" lon="114.1478941799"><ele>418.000</ele></trkpt>
      <trkpt lat="22.2775017105" lon="114.1478855187"><ele>418.000</ele></trkpt>
      <trkpt lat="22.2775817245" lon="114.1477479804"><ele>421.000</ele></trkpt>
      <trkpt lat="22.2776137165" lon="114.1476276847"><ele>425.000</ele></trkpt>
      <trkpt lat="22.2776563458" lon="114.1475532532"><ele>425.000</ele></trkpt>
      <trkpt lat="22.2777709847" lon="114.1474032938"><ele>419.000</ele></trkpt>
      <trkpt lat="22.2778063183" lon="114.1473570739"><ele>416.000</ele></trkpt>
      <trkpt lat="22.2778163849" lon="114.1471697613"><ele>420.000</ele></trkpt>
      <trkpt lat="22.2778229414" lon="114.1470477649"><ele>423.000</ele></trkpt>
      <trkpt lat="22.2778747094" lon="114.1469237968"><ele>423.000</ele></trkpt>
      <trkpt lat="22.2779712259" lon="114.1468590468"><ele>418.000</ele></trkpt>
      <trkpt lat="22.2781098844" lon="114.1468209520"><ele>416.000</ele></trkpt>
      <trkpt lat="22.2781353376" lon="114.1467985906"><ele>414.000</ele></trkpt>
      <trkpt lat="22.2782531467" lon="114.1466514945"><ele>412.000</ele></trkpt>
      <trkpt lat="22.2782975896" lon="114.1465960031"><ele>411.000</ele></trkpt>
      <trkpt lat="22.2784399408" lon="114.1465055975"><ele>410.000</ele></trkpt>
      <trkpt lat="22.2784716285" lon="114.1463566086"><ele>414.000</ele></trkpt>
      <trkpt lat="22.2784259928" lon="114.1461688428"><ele>418.000</ele></trkpt>
      <trkpt lat="22.2784079764" lon="114.1460947154"><ele>414.000</ele></trkpt>
      <trkpt lat="22.2784163171" lon="114.1459008597"><ele>410.000</ele></trkpt>
      <trkpt lat="22.2784183249" lon="114.1458541917"><ele>414.000</ele></trkpt>
      <trkpt lat="22.2784080949" lon="114.1457211737"><ele>408.000</ele></trkpt>
      <trkpt lat="22.2784291697" lon="114.1455284366"><ele>407.000</ele></trkpt>
      <trkpt lat="22.2784305417" lon="114.1455158891"><ele>402.000</ele></trkpt>
      <trkpt lat="22.2783763826" lon="114.1454101370"><ele>412.000</ele></trkpt>
      <trkpt lat="22.2783645798" lon="114.1452717536"><ele>410.000</ele></trkpt>
      <trkpt lat="22.2783654204" lon="114.1450900331"><ele>408.000</ele></trkpt>
      <trkpt lat="22.2783242174" lon="114.1450173368"><ele>412.000</ele></trkpt>
      <trkpt lat="22.2782007903" lon="114.1448980843"><ele>411.000</ele></trkpt>
      <trkpt lat="22.2780625034" lon="114.1448485133"><ele>408.000</ele></trkpt>
      <trkpt lat="22.2779323644" lon="114.1448560337"><ele>416.000</ele></trkpt>
      <trkpt lat="22.2778147685" lon="114.1447699455"><ele>416.000</ele></trkpt>
      <trkpt lat="22.2777161902" lon="114.1446247147"><ele>414.000</ele></trkpt>
      <trkpt lat="22.2776465398" lon="114.1445123281"><ele>416.000</ele></trkpt>
      <trkpt lat="22.2775985778" lon="114.1443252339"><ele>410.000</ele></trkpt>
      <trkpt lat="22.2775893403" lon="114.1442891995"><ele>407.000</ele></trkpt>
      <trkpt lat="22.2775683198" lon="114.1442130449"><ele>408.000</ele></trkpt>
      <trkpt lat="22.2775179864" lon="114.1440506271"><ele>409.000</ele></trkpt>
      <trkpt lat="22.2775155976" lon="114.1438934379"><ele>410.000</ele></trkpt>
      <trkpt lat="22.2775201850" lon="114.1436994390"><ele>406.000</ele></trkpt>
      <trkpt lat="22.2775202356" lon="114.1436972988"><ele>406.000</ele></trkpt>
      <trkpt lat="22.2775605744" lon="114.1435594959"><ele>404.000</ele></trkpt>
      <trkpt lat="22.2775851942" lon="114.1433949453"><ele>401.000</ele></trkpt>
      <trkpt lat="22.2776002274" lon="114.1432061877"><ele>400.000</ele></trkpt>
      <trkpt lat="22.2775682635" lon="114.1430539443"><ele>400.000</ele></trkpt>
      <trkpt lat="22.2775291943" lon="114.1428644774"><ele>396.000</ele></trkpt>
      <trkpt lat="22.2775224227" lon="114.1428316385"><ele>397.000</ele></trkpt>
      <trkpt lat="22.2774279621" lon="114.1426662336"><ele>399.000</ele></trkpt>
      <trkpt lat="22.2774036171" lon="114.1426236043"><ele>398.000</ele></trkpt>
      <trkpt lat="22.2773025496" lon="114.1425117041"><ele>396.000</ele></trkpt>
      <trkpt lat="22.2771525032" lon="114.1424036846"><ele>398.000</ele></trkpt>
      <trkpt lat="22.2770024566" lon="114.1422956654"><ele>398.000</ele></trkpt>
      <trkpt lat="22.2769180927" lon="114.1422349315"><ele>400.000</ele></trkpt>
      <trkpt lat="22.2767746661" lon="114.1421169868"><ele>398.000</ele></trkpt>
      <trkpt lat="22.2767103740" lon="114.1420641173"><ele>398.000</ele></trkpt>
      <trkpt lat="22.2765626647" lon="114.1419524416"><ele>398.000</ele></trkpt>
      <trkpt lat="22.2765331777" lon="114.1419301480"><ele>396.000</ele></trkpt>
      <trkpt lat="22.2763531486" lon="114.1419145584"><ele>399.000</ele></trkpt>
      <trkpt lat="22.2762827895" lon="114.1419084657"><ele>399.000</ele></trkpt>
      <trkpt lat="22.2761437803" lon="114.1419059775"><ele>402.000</ele></trkpt>
      <trkpt lat="22.2759700019" lon="114.1418530988"><ele>393.000</ele></trkpt>
      <trkpt lat="22.2759110003" lon="114.1418351454"><ele>394.000</ele></trkpt>
      <trkpt lat="22.2757467389" lon="114.1417792934"><ele>402.000</ele></trkpt>
      <trkpt lat="22.2755815758" lon="114.1417007622"><ele>400.000</ele></trkpt>
      <trkpt lat="22.2755518828" lon="114.1416866439"><ele>398.000</ele></trkpt>
      <trkpt lat="22.2754451399" lon="114.1415582911"><ele>413.000</ele></trkpt>
      <trkpt lat="22.2753937444" lon="114.1413829429"><ele>408.000</ele></trkpt>
      <trkpt lat="22.2753755714" lon="114.1411898692"><ele>390.000</ele></trkpt>
      <trkpt lat="22.2753752699" lon="114.1411866671"><ele>390.000</ele></trkpt>
      <trkpt lat="22.2753061318" lon="114.1410073896"><ele>396.000</ele></trkpt>
      <trkpt lat="22.2752369935" lon="114.1408281123"><ele>397.000</ele></trkpt>
      <trkpt lat="22.2752216340" lon="114.1407882849"><ele>398.000</ele></trkpt>
      <trkpt lat="22.2752216125" lon="114.1406916244"><ele>396.000</ele></trkpt>
      <trkpt lat="22.2752359759" lon="114.1405101180"><ele>396.000</ele></trkpt>
      <trkpt lat="22.2751605829" lon="114.1403337754"><ele>400.000</ele></trkpt>
      <trkpt lat="22.2751248262" lon="114.1402501417"><ele>396.000</ele></trkpt>
      <trkpt lat="22.2750405706" lon="114.1400784930"><ele>393.000</ele></trkpt>
      <trkpt lat="22.2750171278" lon="114.1400307347"><ele>390.000</ele></trkpt>
      <trkpt lat="22.2749903237" lon="114.1399062437"><ele>387.000</ele></trkpt>
      <trkpt lat="22.2749827986" lon="114.1397123543"><ele>393.000</ele></trkpt>
      <trkpt lat="22.2749794955" lon="114.1396272494"><ele>401.000</ele></trkpt>
      <trkpt lat="22.2749655955" lon="114.1394337670"><ele>389.000</ele></trkpt>
      <trkpt lat="22.2749646649" lon="114.1394208145"><ele>389.000</ele></trkpt>
      <trkpt lat="22.2749207870" lon="114.1392325702"><ele>390.000</ele></trkpt>
      <trkpt lat="22.2749202353" lon="114.1392302032"><ele>390.000</ele></trkpt>
      <trkpt lat="22.2748202960" lon="114.1390685610"><ele>390.000</ele></trkpt>
      <trkpt lat="22.2747889437" lon="114.1390178518"><ele>393.000</ele></trkpt>
      <trkpt lat="22.2746956109" lon="114.1388517127"><ele>396.000</ele></trkpt>
      <trkpt lat="22.2746913993" lon="114.1388442159"><ele>396.000</ele></trkpt>
      <trkpt lat="22.2746045901" lon="114.1386740430"><ele>395.000</ele></trkpt>
      <trkpt lat="22.2745952058" lon="114.1386556471"><ele>395.000</ele></trkpt>
      <trkpt lat="22.2744365348" lon="114.1385629430"><ele>400.000</ele></trkpt>
      <trkpt lat="22.2744287121" lon="114.1385583726"><ele>400.000</ele></trkpt>
      <trkpt lat="22.2742491654" lon="114.1385794265"><ele>391.000</ele></trkpt>
      <trkpt lat="22.2742081809" lon="114.1385842324"><ele>390.000</ele></trkpt>
      <trkpt lat="22.2740792588" lon="114.1386432278"><ele>392.000</ele></trkpt>
      <trkpt lat="22.2739112426" lon="114.1387144291"><ele>397.000</ele></trkpt>
      <trkpt lat="22.2738702347" lon="114.1387318072"><ele>397.000</ele></trkpt>
      <trkpt lat="22.2737286288" lon="114.1387859494"><ele>392.000</ele></trkpt>
      <trkpt lat="22.2735712839" lon="114.1388461096"><ele>392.000</ele></trkpt>
      <trkpt lat="22.2734282519" lon="114.1389646034"><ele>392.000</ele></trkpt>
      <trkpt lat="22.2732852197" lon="114.1390830969"><ele>398.000</ele></trkpt>
      <trkpt lat="22.2731421874" lon="114.1392015902"><ele>386.000</ele></trkpt>
      <trkpt lat="22.2729991551" lon="114.1393200833"><ele>396.000</ele></trkpt>
      <trkpt lat="22.2728561226" lon="114.1394385761"><ele>386.000</ele></trkpt>
      <trkpt lat="22.2727622520" lon="114.1395163414"><ele>390.000</ele></trkpt>
      <trkpt lat="22.2726793000" lon="114.1395867073"><ele>386.000</ele></trkpt>
      <trkpt lat="22.2726127195" lon="114.1396758698"><ele>386.000</ele></trkpt>
      <trkpt lat="22.2726132964" lon="114.1397346925"><ele>384.000</ele></trkpt>
      <trkpt lat="22.2726816209" lon="114.1398674808"><ele>390.000</ele></trkpt>
      <trkpt lat="22.2727047757" lon="114.1399238719"><ele>390.000</ele></trkpt>
      <trkpt lat="22.2727482618" lon="114.1400390815"><ele>390.000</ele></trkpt>
      <trkpt lat="22.2728002162" lon="114.1401597440"><ele>392.000</ele></trkpt>
      <trkpt lat="22.2728403143" lon="114.1402688904"><ele>392.000</ele></trkpt>
      <trkpt lat="22.2728223317" lon="114.1404619812"><ele>391.000</ele></trkpt>
      <trkpt lat="22.2728211685" lon="114.1404744715"><ele>391.000</ele></trkpt>
      <trkpt lat="22.2728132759" lon="114.1405114672"><ele>391.000</ele></trkpt>
      <trkpt lat="22.2726987241" lon="114.1406212571"><ele>392.000</ele></trkpt>
      <trkpt lat="22.2726552783" lon="114.1406849435"><ele>390.000</ele></trkpt>
      <trkpt lat="22.2725904090" lon="114.1408583955"><ele>392.000</ele></trkpt>
      <trkpt lat="22.2725740469" lon="114.1408850832"><ele>392.000</ele></trkpt>
      <trkpt lat="22.2724848959" lon="114.1410057837"><ele>396.000</ele></trkpt>
      <trkpt lat="22.2723731594" lon="114.1410858596"><ele>388.000</ele></trkpt>
      <trkpt lat="22.2723314066" lon="114.1411495433"><ele>388.000</ele></trkpt>
      <trkpt lat="22.2723144992" lon="114.1412678014"><ele>392.000</ele></trkpt>
      <trkpt lat="22.2722727581" lon="114.1413769665"><ele>390.000</ele></trkpt>
      <trkpt lat="22.2722180230" lon="114.1414412607"><ele>387.000</ele></trkpt>
      <trkpt lat="22.2722123912" lon="114.1415025105"><ele>386.000</ele></trkpt>
      <trkpt lat="22.2722316047" lon="114.1416055969"><ele>392.000</ele></trkpt>
      <trkpt lat="22.2722124450" lon="114.1417505369"><ele>390.000</ele></trkpt>
      <trkpt lat="22.2721932767" lon="114.1418475678"><ele>390.000</ele></trkpt>
      <trkpt lat="22.2721288587" lon="114.1420127500"><ele>389.000</ele></trkpt>
      <trkpt lat="22.2720770724" lon="114.1421520199"><ele>390.000</ele></trkpt>
      <trkpt lat="22.2720979794" lon="114.1422672333"><ele>391.000</ele></trkpt>
      <trkpt lat="22.2721420346" lon="114.1424079117"><ele>394.000</ele></trkpt>
      <trkpt lat="22.2721550338" lon="114.1424952338"><ele>394.000</ele></trkpt>
      <trkpt lat="22.2721550464" lon="114.1425552683"><ele>394.000</ele></trkpt>
      <trkpt lat="22.2721047432" lon="114.1427416441"><ele>393.000</ele></trkpt>
      <trkpt lat="22.2720930100" lon="114.1427851162"><ele>394.000</ele></trkpt>
      <trkpt lat="22.2719971463" lon="114.1429495801"><ele>394.000</ele></trkpt>
      <trkpt lat="22.2719873938" lon="114.1429663114"><ele>395.000</ele></trkpt>
      <trkpt lat="22.2718654029" lon="114.1431094117"><ele>386.000</ele></trkpt>
      <trkpt lat="22.2718548969" lon="114.1431217357"><ele>386.000</ele></trkpt>
      <trkpt lat="22.2718108862" lon="114.1431878457"><ele>386.000</ele></trkpt>
      <trkpt lat="22.2718165473" lon="114.1432697107"><ele>395.000</ele></trkpt>
      <trkpt lat="22.2718368873" lon="114.1433673391"><ele>395.000</ele></trkpt>
      <trkpt lat="22.2718137559" lon="114.1434182847"><ele>390.000</ele></trkpt>
      <trkpt lat="22.2717509784" lon="114.1435191647"><ele>386.000</ele></trkpt>
      <trkpt lat="22.2716810348" lon="114.1436498734"><ele>388.000</ele></trkpt>
      <trkpt lat="22.2716112001" lon="114.1437615656"><ele>392.000</ele></trkpt>
      <trkpt lat="22.2714495614" lon="114.1438481476"><ele>387.000</ele></trkpt>
      <trkpt lat="22.2714469740" lon="114.1438495336"><ele>387.000</ele></trkpt>
      <trkpt lat="22.2714385199" lon="114.1439095688"><ele>387.000</ele></trkpt>
      <trkpt lat="22.2714797388" lon="114.1439914263"><ele>388.000</ele></trkpt>
      <trkpt lat="22.2714972522" lon="114.1440732894"><ele>388.000</ele></trkpt>
      <trkpt lat="22.2714583434" lon="114.1442558287"><ele>388.000</ele></trkpt>
      <trkpt lat="22.2714436950" lon="114.1443789355"><ele>388.000</ele></trkpt>
      <trkpt lat="22.2714933978" lon="114.1445553902"><ele>388.000</ele></trkpt>
      <trkpt lat="22.2714905917" lon="114.1446402891"><ele>388.000</ele></trkpt>
      <trkpt lat="22.2714996392" lon="114.1447160881"><ele>389.000</ele></trkpt>
      <trkpt lat="22.2715556361" lon="114.1447831624"><ele>396.000</ele></trkpt>
      <trkpt lat="22.2716334309" lon="114.1448488638"><ele>398.000</ele></trkpt>
      <trkpt lat="22.2716639226" lon="114.1449161692"><ele>400.000</ele></trkpt>
      <trkpt lat="22.2716803050" lon="114.1449895419"><ele>398.000</ele></trkpt>
      <trkpt lat="22.2716899283" lon="114.1451338670"><ele>394.000</ele></trkpt>
      <trkpt lat="22.2717503446" lon="114.1452563497"><ele>398.000</ele></trkpt>
      <trkpt lat="22.2717791466" lon="114.1453430609"><ele>398.000</ele></trkpt>
      <trkpt lat="22.2718062617" lon="114.1454625191"><ele>399.000</ele></trkpt>
      <trkpt lat="22.2718085272" lon="114.1455031476"><ele>401.000</ele></trkpt>
      <trkpt lat="22.2717684731" lon="114.1456038228"><ele>400.000</ele></trkpt>
      <trkpt lat="22.2717422929" lon="114.1457669927"><ele>401.000</ele></trkpt>
      <trkpt lat="22.2717442498" lon="114.1458470015"><ele>402.000</ele></trkpt>
      <trkpt lat="22.2717312879" lon="114.1459458504"><ele>401.000</ele></trkpt>
      <trkpt lat="22.2716748444" lon="114.1460259399"><ele>398.000</ele></trkpt>
      <trkpt lat="22.2715969901" lon="114.1461247728"><ele>396.000</ele></trkpt>
      <trkpt lat="22.2715575049" lon="114.1462515234"><ele>395.000</ele></trkpt>
      <trkpt lat="22.2715191496" lon="114.1463794846"><ele>394.000</ele></trkpt>
      <trkpt lat="22.2715033652" lon="114.1464868237"><ele>394.000</ele></trkpt>
      <trkpt lat="22.2714853196" lon="114.1465711194"><ele>397.000</ele></trkpt>
      <trkpt lat="22.2714802514" lon="114.1466329740"><ele>402.000</ele></trkpt>
      <trkpt lat="22.2715045369" lon="114.1467172626"><ele>400.000</ele></trkpt>
      <trkpt lat="22.2715502639" lon="114.1467627331"><ele>399.000</ele></trkpt>
      <trkpt lat="22.2716411532" lon="114.1468676238"><ele>399.000</ele></trkpt>
      <trkpt lat="22.2716857604" lon="114.1469622163"><ele>397.000</ele></trkpt>
      <trkpt lat="22.2717049657" lon="114.1470501418"><ele>395.000</ele></trkpt>
      <trkpt lat="22.2717044085" lon="114.1470895590"><ele>395.000</ele></trkpt>
      <trkpt lat="22.2716699939" lon="114.1471702197"><ele>398.000</ele></trkpt>
      <trkpt lat="22.2715689810" lon="114.1472660548"><ele>408.000</ele></trkpt>
      <trkpt lat="22.2714882876" lon="114.1473649176"><ele>408.000</ele></trkpt>
      <trkpt lat="22.2714471088" lon="114.1474898489"><ele>411.000</ele></trkpt>
      <trkpt lat="22.2714217188" lon="114.1475432178"><ele>409.000</ele></trkpt>
      <trkpt lat="22.2713528205" lon="114.1476139053"><ele>407.000</ele></trkpt>
      <trkpt lat="22.2712913632" lon="114.1476833269"><ele>406.000</ele></trkpt>
      <trkpt lat="22.2712789586" lon="114.1477482159"><ele>405.000</ele></trkpt>
      <trkpt lat="22.2713001533" lon="114.1478534338"><ele>407.000</ele></trkpt>
      <trkpt lat="22.2713162455" lon="114.1479471125"><ele>408.000</ele></trkpt>
      <trkpt lat="22.2713168266" lon="114.1480362555"><ele>406.000</ele></trkpt>
      <trkpt lat="22.2713123322" lon="114.1481593577"><ele>410.000</ele></trkpt>
      <trkpt lat="22.2713242066" lon="114.1482824577"><ele>410.000</ele></trkpt>
      <trkpt lat="22.2713349467" lon="114.1483697803"><ele>412.000</ele></trkpt>
      <trkpt lat="22.2713445528" lon="114.1484383033"><ele>414.000</ele></trkpt>
      <trkpt lat="22.2713276345" lon="114.1485244177"><ele>408.000</ele></trkpt>
      <trkpt lat="22.2712870169" lon="114.1486360054"><ele>403.000</ele></trkpt>
      <trkpt lat="22.2712475240" lon="114.1487294022"><ele>397.000</ele></trkpt>
      <trkpt lat="22.2712441553" lon="114.1488324944"><ele>404.000</ele></trkpt>
      <trkpt lat="22.2712385201" lon="114.1488894985"><ele>404.000</ele></trkpt>
      <trkpt lat="22.2712091897" lon="114.1489962334"><ele>406.000</ele></trkpt>
    </trkseg>
  </trk>
</gpx>
