<?xml version="1.0" encoding="UTF-8"?>
<gpx xmlns:xsi="http://www.w3.org/2001/XMLSchema-instance"
     xsi:schemaLocation="http://www.topografix.com/GPX/1/1 http://www.topografix.com/GPX/1/1/gpx.xsd"
     version="1.1" creator="json3d_batch_to_gpx"
     xmlns="http://www.topografix.com/GPX/1/1">
  <metadata>
    <name>TaiTanTreeWalk</name>
  </metadata>
  <trk>
    <name>TaiTanTreeWalk</name>
    <type>hike</type>
    <trkseg>
      <trkpt lat="22.4369749685" lon="114.3341777642"><ele>34.000</ele></trkpt>
      <trkpt lat="22.4369649201" lon="114.3341733670"><ele>34.000</ele></trkpt>
      <trkpt lat="22.4369501984" lon="114.3341505116"><ele>34.000</ele></trkpt>
      <trkpt lat="22.4369415469" lon="114.3341304840"><ele>34.000</ele></trkpt>
      <trkpt lat="22.4369307010" lon="114.3341141142"><ele>36.000</ele></trkpt>
      <trkpt lat="22.4369198597" lon="114.3340930710"><ele>36.000</ele></trkpt>
      <trkpt lat="22.4368873355" lon="114.3340311089"><ele>36.000</ele></trkpt>
      <trkpt lat="22.4368808364" lon="114.3340124078"><ele>36.000</ele></trkpt>
      <trkpt lat="22.4368743328" lon="114.3339983801"><ele>36.000</ele></trkpt>
      <trkpt lat="22.4368699949" lon="114.3339925332"><ele>34.000</ele></trkpt>
      <trkpt lat="22.4368667483" lon="114.3339796768"><ele>34.000</ele></trkpt>
      <trkpt lat="22.4368645892" lon="114.3339656540"><ele>34.000</ele></trkpt>
      <trkpt lat="22.4368613435" lon="114.3339527976"><ele>34.000</ele></trkpt>
      <trkpt lat="22.4368580967" lon="114.3339411108"><ele>27.000</ele></trkpt>
      <trkpt lat="22.4368515920" lon="114.3339282508"><ele>27.000</ele></trkpt>
      <trkpt lat="22.4368429234" lon="114.3339072100"><ele>27.000</ele></trkpt>
      <trkpt lat="22.4368320831" lon="114.3338849982"><ele>26.000</ele></trkpt>
      <trkpt lat="22.4368212438" lon="114.3338627864"><ele>26.000</ele></trkpt>
      <trkpt lat="22.4368234361" lon="114.3338417579"><ele>28.000</ele></trkpt>
      <trkpt lat="22.4368299749" lon="114.3338195666"><ele>28.000</ele></trkpt>
      <trkpt lat="22.4368365095" lon="114.3338008792"><ele>31.000</ele></trkpt>
      <trkpt lat="22.4368387038" lon="114.3337786820"><ele>31.000</ele></trkpt>
      <trkpt lat="22.4368365594" lon="114.3337494703"><ele>32.000</ele></trkpt>
      <trkpt lat="22.4368365856" lon="114.3337225973"><ele>32.000</ele></trkpt>
      <trkpt lat="22.4368268362" lon="114.3336957133"><ele>31.000</ele></trkpt>
      <trkpt lat="22.4368062169" lon="114.3336781639"><ele>31.000</ele></trkpt>
      <trkpt lat="22.4367812487" lon="114.3336641155"><ele>30.000</ele></trkpt>
      <trkpt lat="22.4367595399" lon="114.3336489022"><ele>30.000</ele></trkpt>
      <trkpt lat="22.4367421742" lon="114.3336360300"><ele>31.000</ele></trkpt>
      <trkpt lat="22.4367291544" lon="114.3336208264"><ele>31.000</ele></trkpt>
      <trkpt lat="22.4367128819" lon="114.3336009457"><ele>34.000</ele></trkpt>
      <trkpt lat="22.4367052874" lon="114.3335915893"><ele>34.000</ele></trkpt>
      <trkpt lat="22.4366998689" lon="114.3335787315"><ele>34.000</ele></trkpt>
      <trkpt lat="22.4366922787" lon="114.3335658712"><ele>34.000</ele></trkpt>
      <trkpt lat="22.4366868659" lon="114.3335471704"><ele>34.000</ele></trkpt>
      <trkpt lat="22.4366825384" lon="114.3335296394"><ele>34.000</ele></trkpt>
      <trkpt lat="22.4366845163" lon="114.3335089079"><ele>34.000</ele></trkpt>
      <trkpt lat="22.4366887971" lon="114.3334908979"><ele>34.000</ele></trkpt>
      <trkpt lat="22.4366964301" lon="114.3334689614"><ele>34.000</ele></trkpt>
      <trkpt lat="22.4367040631" lon="114.3334480080"><ele>36.000</ele></trkpt>
      <trkpt lat="22.4367103147" lon="114.3334286296"><ele>38.000</ele></trkpt>
      <trkpt lat="22.4367387527" lon="114.3334414491"><ele>38.000</ele></trkpt>
      <trkpt lat="22.4367665336" lon="114.3334547653"><ele>39.000</ele></trkpt>
      <trkpt lat="22.4367759604" lon="114.3334558444"><ele>39.000</ele></trkpt>
      <trkpt lat="22.4367933691" lon="114.3334578359"><ele>39.000</ele></trkpt>
      <trkpt lat="22.4368682528" lon="114.3334545103"><ele>34.000</ele></trkpt>
      <trkpt lat="22.4368919112" lon="114.3334651641"><ele>35.000</ele></trkpt>
      <trkpt lat="22.4369372346" lon="114.3335325803"><ele>36.000</ele></trkpt>
      <trkpt lat="22.4369607937" lon="114.3335655968"><ele>36.000</ele></trkpt>
      <trkpt lat="22.4369884837" lon="114.3335954443"><ele>40.000</ele></trkpt>
      <trkpt lat="22.4370108803" lon="114.3336100611"><ele>35.000</ele></trkpt>
      <trkpt lat="22.4370332757" lon="114.3336259464"><ele>36.000</ele></trkpt>
      <trkpt lat="22.4370538928" lon="114.3336513467"><ele>36.000</ele></trkpt>
      <trkpt lat="22.4370703788" lon="114.3336792787"><ele>41.000</ele></trkpt>
      <trkpt lat="22.4370852736" lon="114.3336950518"><ele>41.000</ele></trkpt>
      <trkpt lat="22.4371570077" lon="114.3337472583"><ele>40.000</ele></trkpt>
      <trkpt lat="22.4371764583" lon="114.3337593345"><ele>37.000</ele></trkpt>
      <trkpt lat="22.4372083053" lon="114.3337600046"><ele>34.000</ele></trkpt>
      <trkpt lat="22.4372406407" lon="114.3337561854"><ele>34.000</ele></trkpt>
      <trkpt lat="22.4372283047" lon="114.3338133178"><ele>34.000</ele></trkpt>
      <trkpt lat="22.4372229821" lon="114.3338291720"><ele>34.000</ele></trkpt>
      <trkpt lat="22.4372147086" lon="114.3338456573"><ele>34.000</ele></trkpt>
      <trkpt lat="22.4372023157" lon="114.3338545250"><ele>36.000</ele></trkpt>
      <trkpt lat="22.4371734032" lon="114.3338690840"><ele>36.000</ele></trkpt>
      <trkpt lat="22.4371149951" lon="114.3338905885"><ele>36.000</ele></trkpt>
      <trkpt lat="22.4370601324" lon="114.3339063869"><ele>27.000</ele></trkpt>
      <trkpt lat="22.4370524607" lon="114.3339114539"><ele>27.000</ele></trkpt>
      <trkpt lat="22.4370571411" lon="114.3339495239"><ele>26.000</ele></trkpt>
      <trkpt lat="22.4370462650" lon="114.3339892676"><ele>26.000</ele></trkpt>
      <trkpt lat="22.4370187316" lon="114.3340268788"><ele>30.000</ele></trkpt>
      <trkpt lat="22.4369840330" lon="114.3340575362"><ele>30.000</ele></trkpt>
      <trkpt lat="22.4369809189" lon="114.3340959870"><ele>34.000</ele></trkpt>
      <trkpt lat="22.4369788148" lon="114.3341488041"><ele>34.000</ele></trkpt>
      <trkpt lat="22.4369768829" lon="114.3341760402"><ele>34.000</ele></trkpt>
    </trkseg>
  </trk>
</gpx>
