<?xml version="1.0" encoding="UTF-8"?>
<gpx xmlns:xsi="http://www.w3.org/2001/XMLSchema-instance"
     xsi:schemaLocation="http://www.topografix.com/GPX/1/1 http://www.topografix.com/GPX/1/1/gpx.xsd"
     version="1.1" creator="json3d_batch_to_gpx"
     xmlns="http://www.topografix.com/GPX/1/1">
  <metadata>
    <name>QuarryBayTreeWalk</name>
  </metadata>
  <trk>
    <name>QuarryBayTreeWalk</name>
    <type>hike</type>
    <trkseg>
      <trkpt lat="22.2788550130" lon="114.2099432320"><ele>128.000</ele></trkpt>
      <trkpt lat="22.2788208265" lon="114.2099569511"><ele>128.000</ele></trkpt>
      <trkpt lat="22.2788190585" lon="114.2099599400"><ele>130.000</ele></trkpt>
      <trkpt lat="22.2787221805" lon="114.2101237241"><ele>128.000</ele></trkpt>
      <trkpt lat="22.2786391336" lon="114.2101074798"><ele>124.000</ele></trkpt>
      <trkpt lat="22.2786108143" lon="114.2101385698"><ele>124.000</ele></trkpt>
      <trkpt lat="22.2785371785" lon="114.2102528001"><ele>122.000</ele></trkpt>
      <trkpt lat="22.2785101102" lon="114.2103224234"><ele>125.000</ele></trkpt>
      <trkpt lat="22.2783936842" lon="114.2104590663"><ele>124.000</ele></trkpt>
      <trkpt lat="22.2783735410" lon="114.2104825722"><ele>126.000</ele></trkpt>
      <trkpt lat="22.2783387877" lon="114.2104989428"><ele>124.000</ele></trkpt>
      <trkpt lat="22.2782483667" lon="114.2105291561"><ele>125.000</ele></trkpt>
      <trkpt lat="22.2782296996" lon="114.2105327320"><ele>125.000</ele></trkpt>
      <trkpt lat="22.2782081340" lon="114.2105348810"><ele>125.000</ele></trkpt>
      <trkpt lat="22.2781566682" lon="114.2105360427"><ele>128.000</ele></trkpt>
      <trkpt lat="22.2781296841" lon="114.2105384911"><ele>128.000</ele></trkpt>
      <trkpt lat="22.2781086958" lon="114.2105440169"><ele>126.000</ele></trkpt>
      <trkpt lat="22.2780948860" lon="114.2105531345"><ele>126.000</ele></trkpt>
      <trkpt lat="22.2780797653" lon="114.2105697523"><ele>126.000</ele></trkpt>
      <trkpt lat="22.2780633781" lon="114.2105964804"><ele>127.000</ele></trkpt>
      <trkpt lat="22.2780419386" lon="114.2106434675"><ele>125.000</ele></trkpt>
      <trkpt lat="22.2780343290" lon="114.2106713621"><ele>125.000</ele></trkpt>
      <trkpt lat="22.2780331352" lon="114.2106800073"><ele>125.000</ele></trkpt>
      <trkpt lat="22.2780330816" lon="114.2107207021"><ele>125.000</ele></trkpt>
      <trkpt lat="22.2780340803" lon="114.2107381388"><ele>125.000</ele></trkpt>
      <trkpt lat="22.2780345727" lon="114.2107584961"><ele>125.000</ele></trkpt>
      <trkpt lat="22.2780308576" lon="114.2107755047"><ele>125.000</ele></trkpt>
      <trkpt lat="22.2780277017" lon="114.2107955991"><ele>125.000</ele></trkpt>
      <trkpt lat="22.2780257565" lon="114.2108129284"><ele>125.000</ele></trkpt>
      <trkpt lat="22.2780217594" lon="114.2108826443"><ele>126.000</ele></trkpt>
      <trkpt lat="22.2780189760" lon="114.2109349531"><ele>126.000</ele></trkpt>
      <trkpt lat="22.2780157189" lon="114.2109638287"><ele>126.000</ele></trkpt>
      <trkpt lat="22.2780094647" lon="114.2110302741"><ele>120.000</ele></trkpt>
      <trkpt lat="22.2779872055" lon="114.2110667524"><ele>120.000</ele></trkpt>
      <trkpt lat="22.2779826269" lon="114.2110675372"><ele>120.000</ele></trkpt>
      <trkpt lat="22.2778151852" lon="114.2111317892"><ele>122.000</ele></trkpt>
      <trkpt lat="22.2778041862" lon="114.2111302243"><ele>122.000</ele></trkpt>
      <trkpt lat="22.2777938649" lon="114.2111269615"><ele>124.000</ele></trkpt>
      <trkpt lat="22.2777779913" lon="114.2111164007"><ele>127.000</ele></trkpt>
      <trkpt lat="22.2776515396" lon="114.2110102472"><ele>127.000</ele></trkpt>
      <trkpt lat="22.2776122449" lon="114.2109786347"><ele>127.000</ele></trkpt>
      <trkpt lat="22.2775893282" lon="114.2109639775"><ele>130.000</ele></trkpt>
      <trkpt lat="22.2775746458" lon="114.2109569586"><ele>130.000</ele></trkpt>
      <trkpt lat="22.2775585633" lon="114.2109519771"><ele>128.000</ele></trkpt>
      <trkpt lat="22.2775362944" lon="114.2109490316"><ele>128.000</ele></trkpt>
      <trkpt lat="22.2775200932" lon="114.2109499107"><ele>128.000</ele></trkpt>
      <trkpt lat="22.2775099152" lon="114.2109521884"><ele>128.000</ele></trkpt>
      <trkpt lat="22.2774855120" lon="114.2109638553"><ele>128.000</ele></trkpt>
      <trkpt lat="22.2774469011" lon="114.2109872497"><ele>126.000</ele></trkpt>
      <trkpt lat="22.2774212070" lon="114.2109960539"><ele>128.000</ele></trkpt>
      <trkpt lat="22.2773996591" lon="114.2109999105"><ele>128.000</ele></trkpt>
      <trkpt lat="22.2773699027" lon="114.2110021155"><ele>129.000</ele></trkpt>
      <trkpt lat="22.2773508935" lon="114.2110004905"><ele>129.000</ele></trkpt>
      <trkpt lat="22.2773056074" lon="114.2109886224"><ele>130.000</ele></trkpt>
      <trkpt lat="22.2772847663" lon="114.2109809907"><ele>130.000</ele></trkpt>
      <trkpt lat="22.2772727839" lon="114.2109746226"><ele>132.000</ele></trkpt>
      <trkpt lat="22.2772546358" lon="114.2109582103"><ele>131.000</ele></trkpt>
      <trkpt lat="22.2772369595" lon="114.2109311442"><ele>131.000</ele></trkpt>
      <trkpt lat="22.2772273359" lon="114.2109164708"><ele>133.000</ele></trkpt>
      <trkpt lat="22.2772163934" lon="114.2109040095"><ele>133.000</ele></trkpt>
      <trkpt lat="22.2772031654" lon="114.2108948951"><ele>132.000</ele></trkpt>
      <trkpt lat="22.2771768434" lon="114.2108838369"><ele>132.000</ele></trkpt>
      <trkpt lat="22.2771387083" lon="114.2108777148"><ele>132.000</ele></trkpt>
      <trkpt lat="22.2771264714" lon="114.2108798659"><ele>132.000</ele></trkpt>
      <trkpt lat="22.2771149371" lon="114.2108899931"><ele>134.000</ele></trkpt>
      <trkpt lat="22.2771078000" lon="114.2109038667"><ele>134.000</ele></trkpt>
      <trkpt lat="22.2771072162" lon="114.2109315009"><ele>132.000</ele></trkpt>
      <trkpt lat="22.2771093709" lon="114.2109488116"><ele>132.000</ele></trkpt>
      <trkpt lat="22.2771144309" lon="114.2109783101"><ele>131.000</ele></trkpt>
      <trkpt lat="22.2771173976" lon="114.2109989977"><ele>131.000</ele></trkpt>
      <trkpt lat="22.2771188454" lon="114.2110281169"><ele>130.000</ele></trkpt>
      <trkpt lat="22.2771180475" lon="114.2110864223"><ele>130.000</ele></trkpt>
      <trkpt lat="22.2771178336" lon="114.2111155411"><ele>130.000</ele></trkpt>
      <trkpt lat="22.2771194698" lon="114.2111503367"><ele>128.000</ele></trkpt>
      <trkpt lat="22.2771236714" lon="114.2111820084"><ele>124.000</ele></trkpt>
      <trkpt lat="22.2771269365" lon="114.2112011339"><ele>124.000</ele></trkpt>
      <trkpt lat="22.2771230175" lon="114.2112422060"><ele>121.000</ele></trkpt>
      <trkpt lat="22.2771186963" lon="114.2112639300"><ele>124.000</ele></trkpt>
      <trkpt lat="22.2771100570" lon="114.2112920474"><ele>122.000</ele></trkpt>
      <trkpt lat="22.2770978777" lon="114.2113203288"><ele>122.000</ele></trkpt>
      <trkpt lat="22.2770812622" lon="114.2113585547"><ele>122.000</ele></trkpt>
      <trkpt lat="22.2770661644" lon="114.2113942097"><ele>124.000</ele></trkpt>
      <trkpt lat="22.2770600101" lon="114.2114153996"><ele>123.000</ele></trkpt>
      <trkpt lat="22.2770576951" lon="114.2114299924"><ele>123.000</ele></trkpt>
      <trkpt lat="22.2770570794" lon="114.2114373666"><ele>123.000</ele></trkpt>
      <trkpt lat="22.2770571568" lon="114.2114558703"><ele>123.000</ele></trkpt>
      <trkpt lat="22.2770592303" lon="114.2114725697"><ele>125.000</ele></trkpt>
      <trkpt lat="22.2770656810" lon="114.2115013700"><ele>125.000</ele></trkpt>
      <trkpt lat="22.2770780892" lon="114.2115432125"><ele>122.000</ele></trkpt>
      <trkpt lat="22.2770956713" lon="114.2115879091"><ele>124.000</ele></trkpt>
      <trkpt lat="22.2771051284" lon="114.2116206398"><ele>126.000</ele></trkpt>
      <trkpt lat="22.2771153135" lon="114.2116696719"><ele>126.000</ele></trkpt>
      <trkpt lat="22.2771248683" lon="114.2117099613"><ele>123.000</ele></trkpt>
      <trkpt lat="22.2771297213" lon="114.2117353554"><ele>123.000</ele></trkpt>
      <trkpt lat="22.2771325521" lon="114.2117580030"><ele>123.000</ele></trkpt>
      <trkpt lat="22.2771347676" lon="114.2117860065"><ele>123.000</ele></trkpt>
      <trkpt lat="22.2771335912" lon="114.2117970289"><ele>123.000</ele></trkpt>
      <trkpt lat="22.2771290820" lon="114.2118109808"><ele>123.000</ele></trkpt>
      <trkpt lat="22.2771185927" lon="114.2118286202"><ele>126.000</ele></trkpt>
      <trkpt lat="22.2771024323" lon="114.2118541624"><ele>126.000</ele></trkpt>
      <trkpt lat="22.2770937684" lon="114.2118701606"><ele>126.000</ele></trkpt>
      <trkpt lat="22.2770863687" lon="114.2118868674"><ele>126.000</ele></trkpt>
      <trkpt lat="22.2770792029" lon="114.2119076980"><ele>126.000</ele></trkpt>
      <trkpt lat="22.2770711503" lon="114.2119370768"><ele>128.000</ele></trkpt>
      <trkpt lat="22.2770690799" lon="114.2119479534"><ele>130.000</ele></trkpt>
      <trkpt lat="22.2770679126" lon="114.2119589855"><ele>130.000</ele></trkpt>
      <trkpt lat="22.2770707311" lon="114.2119959839"><ele>130.000</ele></trkpt>
      <trkpt lat="22.2770948454" lon="114.2120679089"><ele>125.000</ele></trkpt>
      <trkpt lat="22.2771083948" lon="114.2120936836"><ele>122.000</ele></trkpt>
      <trkpt lat="22.2770306332" lon="114.2121711012"><ele>122.000</ele></trkpt>
      <trkpt lat="22.2770461719" lon="114.2121907423"><ele>122.000</ele></trkpt>
      <trkpt lat="22.2771631484" lon="114.2123386023"><ele>126.000</ele></trkpt>
      <trkpt lat="22.2772425513" lon="114.2124328837"><ele>128.000</ele></trkpt>
      <trkpt lat="22.2772702550" lon="114.2124063198"><ele>126.000</ele></trkpt>
      <trkpt lat="22.2772791509" lon="114.2124360814"><ele>127.000</ele></trkpt>
      <trkpt lat="22.2772573800" lon="114.2124764638"><ele>127.000</ele></trkpt>
      <trkpt lat="22.2772296786" lon="114.2124966508"><ele>125.000</ele></trkpt>
      <trkpt lat="22.2771930765" lon="114.2125051453"><ele>126.000</ele></trkpt>
      <trkpt lat="22.2771426120" lon="114.2125763422"><ele>124.000</ele></trkpt>
      <trkpt lat="22.2771208355" lon="114.2126379821"><ele>121.000</ele></trkpt>
      <trkpt lat="22.2771015348" lon="114.2126561092"><ele>120.000</ele></trkpt>
      <trkpt lat="22.2771010924" lon="114.2126560218"><ele>120.000</ele></trkpt>
      <trkpt lat="22.2770813884" lon="114.2126521356"><ele>120.000</ele></trkpt>
      <trkpt lat="22.2770654625" lon="114.2126329389"><ele>117.000</ele></trkpt>
      <trkpt lat="22.2770564909" lon="114.2126111339"><ele>119.000</ele></trkpt>
      <trkpt lat="22.2770458582" lon="114.2125868542"><ele>119.000</ele></trkpt>
      <trkpt lat="22.2770360823" lon="114.2125670090"><ele>122.000</ele></trkpt>
      <trkpt lat="22.2770183059" lon="114.2125447942"><ele>119.000</ele></trkpt>
      <trkpt lat="22.2769995716" lon="114.2125252475"><ele>120.000</ele></trkpt>
      <trkpt lat="22.2769878536" lon="114.2125080701"><ele>120.000</ele></trkpt>
      <trkpt lat="22.2769815257" lon="114.2124965122"><ele>117.000</ele></trkpt>
      <trkpt lat="22.2769699514" lon="114.2124826727"><ele>117.000</ele></trkpt>
      <trkpt lat="22.2769602805" lon="114.2124788667"><ele>117.000</ele></trkpt>
      <trkpt lat="22.2769547504" lon="114.2124940506"><ele>117.000</ele></trkpt>
      <trkpt lat="22.2769550434" lon="114.2125166587"><ele>117.000</ele></trkpt>
      <trkpt lat="22.2769610793" lon="114.2125421210"><ele>117.000</ele></trkpt>
      <trkpt lat="22.2769646264" lon="114.2125511166"><ele>117.000</ele></trkpt>
      <trkpt lat="22.2769559714" lon="114.2125673864"><ele>117.000</ele></trkpt>
      <trkpt lat="22.2769447544" lon="114.2125719052"><ele>117.000</ele></trkpt>
      <trkpt lat="22.2769289802" lon="114.2125614704"><ele>114.000</ele></trkpt>
      <trkpt lat="22.2769155284" lon="114.2125438269"><ele>114.000</ele></trkpt>
      <trkpt lat="22.2769069212" lon="114.2125484919"><ele>114.000</ele></trkpt>
      <trkpt lat="22.2768985637" lon="114.2125670322"><ele>114.000</ele></trkpt>
      <trkpt lat="22.2768916504" lon="114.2125893377"><ele>112.000</ele></trkpt>
      <trkpt lat="22.2768847356" lon="114.2126182704"><ele>112.000</ele></trkpt>
      <trkpt lat="22.2768806367" lon="114.2126546363"><ele>109.000</ele></trkpt>
      <trkpt lat="22.2768784006" lon="114.2126797763"><ele>107.000</ele></trkpt>
      <trkpt lat="22.2768765419" lon="114.2127131931"><ele>107.000</ele></trkpt>
      <trkpt lat="22.2768746476" lon="114.2127443781"><ele>107.000</ele></trkpt>
      <trkpt lat="22.2768751113" lon="114.2127710422"><ele>108.000</ele></trkpt>
      <trkpt lat="22.2768757023" lon="114.2127936504"><ele>108.000</ele></trkpt>
      <trkpt lat="22.2768778112" lon="114.2128128241"><ele>108.000</ele></trkpt>
      <trkpt lat="22.2768775466" lon="114.2128252148"><ele>107.000</ele></trkpt>
      <trkpt lat="22.2768784102" lon="114.2128404779"><ele>107.000</ele></trkpt>
      <trkpt lat="22.2768709683" lon="114.2128431346"><ele>107.000</ele></trkpt>
      <trkpt lat="22.2768542120" lon="114.2128224823"><ele>107.000</ele></trkpt>
      <trkpt lat="22.2768442102" lon="114.2128039664"><ele>106.000</ele></trkpt>
      <trkpt lat="22.2768328691" lon="114.2127854986"><ele>106.000</ele></trkpt>
      <trkpt lat="22.2768015601" lon="114.2127475838"><ele>100.000</ele></trkpt>
      <trkpt lat="22.2768013996" lon="114.2127500988"><ele>100.000</ele></trkpt>
      <trkpt lat="22.2767890471" lon="114.2129437049"><ele>104.000</ele></trkpt>
      <trkpt lat="22.2767843136" lon="114.2129501950"><ele>104.000</ele></trkpt>
      <trkpt lat="22.2767588956" lon="114.2129355564"><ele>104.000</ele></trkpt>
      <trkpt lat="22.2767467226" lon="114.2129342821"><ele>104.000</ele></trkpt>
      <trkpt lat="22.2767410768" lon="114.2129415288"><ele>104.000</ele></trkpt>
      <trkpt lat="22.2767398259" lon="114.2130032688"><ele>104.000</ele></trkpt>
      <trkpt lat="22.2767360135" lon="114.2130099921"><ele>104.000</ele></trkpt>
      <trkpt lat="22.2767313814" lon="114.2130071091"><ele>104.000</ele></trkpt>
      <trkpt lat="22.2766988208" lon="114.2129896255"><ele>101.000</ele></trkpt>
      <trkpt lat="22.2766728317" lon="114.2129846218"><ele>101.000</ele></trkpt>
      <trkpt lat="22.2766570150" lon="114.2130029079"><ele>94.000</ele></trkpt>
      <trkpt lat="22.2766571976" lon="114.2130345010"><ele>94.000</ele></trkpt>
      <trkpt lat="22.2766856209" lon="114.2131384470"><ele>94.000</ele></trkpt>
      <trkpt lat="22.2766363796" lon="114.2131261794"><ele>92.000</ele></trkpt>
      <trkpt lat="22.2766320889" lon="114.2131311851"><ele>92.000</ele></trkpt>
      <trkpt lat="22.2766503298" lon="114.2131760662"><ele>90.000</ele></trkpt>
      <trkpt lat="22.2766471772" lon="114.2131800631"><ele>90.000</ele></trkpt>
      <trkpt lat="22.2766162111" lon="114.2131800842"><ele>88.000</ele></trkpt>
      <trkpt lat="22.2766117034" lon="114.2131863220"><ele>88.000</ele></trkpt>
      <trkpt lat="22.2766268982" lon="114.2132433506"><ele>90.000</ele></trkpt>
      <trkpt lat="22.2766286123" lon="114.2132512202"><ele>90.000</ele></trkpt>
      <trkpt lat="22.2766217221" lon="114.2132505877"><ele>88.000</ele></trkpt>
      <trkpt lat="22.2765965210" lon="114.2132352116"><ele>88.000</ele></trkpt>
      <trkpt lat="22.2765903614" lon="114.2132382664"><ele>88.000</ele></trkpt>
      <trkpt lat="22.2765908192" lon="114.2132908472"><ele>88.000</ele></trkpt>
      <trkpt lat="22.2764935936" lon="114.2133707631"><ele>79.000</ele></trkpt>
      <trkpt lat="22.2764294135" lon="114.2134119861"><ele>84.000</ele></trkpt>
      <trkpt lat="22.2764098949" lon="114.2134552418"><ele>84.000</ele></trkpt>
      <trkpt lat="22.2764186655" lon="114.2136465562"><ele>84.000</ele></trkpt>
      <trkpt lat="22.2764689798" lon="114.2137216095"><ele>82.000</ele></trkpt>
      <trkpt lat="22.2764790287" lon="114.2138067870"><ele>82.000</ele></trkpt>
      <trkpt lat="22.2765209125" lon="114.2138638362"><ele>82.000</ele></trkpt>
      <trkpt lat="22.2765901781" lon="114.2138890929"><ele>84.000</ele></trkpt>
      <trkpt lat="22.2766308836" lon="114.2139050952"><ele>83.000</ele></trkpt>
      <trkpt lat="22.2766557478" lon="114.2139166241"><ele>83.000</ele></trkpt>
      <trkpt lat="22.2766677425" lon="114.2139233835"><ele>84.000</ele></trkpt>
      <trkpt lat="22.2766803732" lon="114.2139332344"><ele>84.000</ele></trkpt>
      <trkpt lat="22.2766946747" lon="114.2139466176"><ele>84.000</ele></trkpt>
      <trkpt lat="22.2767034780" lon="114.2139533655"><ele>84.000</ele></trkpt>
      <trkpt lat="22.2767133357" lon="114.2139581857"><ele>86.000</ele></trkpt>
      <trkpt lat="22.2767482965" lon="114.2139680027"><ele>86.000</ele></trkpt>
      <trkpt lat="22.2767579554" lon="114.2139732400"><ele>87.000</ele></trkpt>
      <trkpt lat="22.2767685914" lon="114.2139822036"><ele>87.000</ele></trkpt>
      <trkpt lat="22.2768186914" lon="114.2139948715"><ele>88.000</ele></trkpt>
      <trkpt lat="22.2768853762" lon="114.2140075341"><ele>88.000</ele></trkpt>
      <trkpt lat="22.2769911358" lon="114.2140231044"><ele>92.000</ele></trkpt>
      <trkpt lat="22.2770698640" lon="114.2140354025"><ele>91.000</ele></trkpt>
      <trkpt lat="22.2771685414" lon="114.2140368171"><ele>88.000</ele></trkpt>
      <trkpt lat="22.2773321399" lon="114.2139962928"><ele>81.000</ele></trkpt>
      <trkpt lat="22.2772610515" lon="114.2139252952"><ele>79.000</ele></trkpt>
      <trkpt lat="22.2771692017" lon="114.2138901130"><ele>81.000</ele></trkpt>
      <trkpt lat="22.2772013062" lon="114.2138482178"><ele>76.000</ele></trkpt>
      <trkpt lat="22.2772667455" lon="114.2138218641"><ele>73.000</ele></trkpt>
      <trkpt lat="22.2773557458" lon="114.2138150012"><ele>72.000</ele></trkpt>
      <trkpt lat="22.2773848635" lon="114.2138179421"><ele>72.000</ele></trkpt>
      <trkpt lat="22.2774249015" lon="114.2138150194"><ele>71.000</ele></trkpt>
      <trkpt lat="22.2775466564" lon="114.2137984310"><ele>68.000</ele></trkpt>
      <trkpt lat="22.2775939747" lon="114.2137925770"><ele>68.000</ele></trkpt>
      <trkpt lat="22.2776467540" lon="114.2137818359"><ele>66.000</ele></trkpt>
      <trkpt lat="22.2776858841" lon="114.2137681581"><ele>66.000</ele></trkpt>
      <trkpt lat="22.2777360235" lon="114.2137467167"><ele>68.000</ele></trkpt>
      <trkpt lat="22.2777841626" lon="114.2137175396"><ele>65.000</ele></trkpt>
      <trkpt lat="22.2778056636" lon="114.2136975568"><ele>66.000</ele></trkpt>
      <trkpt lat="22.2778614762" lon="114.2136832943"><ele>64.000</ele></trkpt>
      <trkpt lat="22.2779461109" lon="114.2136614243"><ele>64.000</ele></trkpt>
      <trkpt lat="22.2780329292" lon="114.2136474872"><ele>64.000</ele></trkpt>
      <trkpt lat="22.2781138406" lon="114.2136376724"><ele>62.000</ele></trkpt>
      <trkpt lat="22.2781561865" lon="114.2136317991"><ele>62.000</ele></trkpt>
      <trkpt lat="22.2783353131" lon="114.2136069549"><ele>63.000</ele></trkpt>
      <trkpt lat="22.2784495952" lon="114.2135816023"><ele>62.000</ele></trkpt>
      <trkpt lat="22.2785201751" lon="114.2135578248"><ele>64.000</ele></trkpt>
      <trkpt lat="22.2785937071" lon="114.2135337307"><ele>61.000</ele></trkpt>
      <trkpt lat="22.2786307086" lon="114.2135253858"><ele>62.000</ele></trkpt>
      <trkpt lat="22.2788074696" lon="114.2134855210"><ele>62.000</ele></trkpt>
      <trkpt lat="22.2788440282" lon="114.2134778291"><ele>64.000</ele></trkpt>
      <trkpt lat="22.2789379315" lon="114.2134740024"><ele>63.000</ele></trkpt>
      <trkpt lat="22.2791035142" lon="114.2134717352"><ele>62.000</ele></trkpt>
      <trkpt lat="22.2791744808" lon="114.2134625105"><ele>64.000</ele></trkpt>
      <trkpt lat="22.2791750693" lon="114.2134515780"><ele>64.000</ele></trkpt>
    </trkseg>
  </trk>
</gpx>
