<?xml version="1.0" encoding="UTF-8"?>
<gpx xmlns:xsi="http://www.w3.org/2001/XMLSchema-instance"
     xsi:schemaLocation="http://www.topografix.com/GPX/1/1 http://www.topografix.com/GPX/1/1/gpx.xsd"
     version="1.1" creator="json3d_batch_to_gpx"
     xmlns="http://www.topografix.com/GPX/1/1">
  <metadata>
    <name>ClearWaterBayTreeWalk</name>
  </metadata>
  <trk>
    <name>ClearWaterBayTreeWalk</name>
    <type>hike</type>
    <trkseg>
      <trkpt lat="22.2911118370" lon="114.3012751935"><ele>110.000</ele></trkpt>
      <trkpt lat="22.2910941382" lon="114.3012982850"><ele>110.000</ele></trkpt>
      <trkpt lat="22.2910850415" lon="114.3013208717"><ele>110.000</ele></trkpt>
      <trkpt lat="22.2910764943" lon="114.3013534628"><ele>112.000</ele></trkpt>
      <trkpt lat="22.2910682277" lon="114.3014358812"><ele>112.000</ele></trkpt>
      <trkpt lat="22.2910533614" lon="114.3015041647"><ele>110.000</ele></trkpt>
      <trkpt lat="22.2910299140" lon="114.3015457372"><ele>109.000</ele></trkpt>
      <trkpt lat="22.2909897271" lon="114.3016042409"><ele>106.000</ele></trkpt>
      <trkpt lat="22.2909485990" lon="114.3016452852"><ele>107.000</ele></trkpt>
      <trkpt lat="22.2908845300" lon="114.3016904159"><ele>102.000</ele></trkpt>
      <trkpt lat="22.2908586993" lon="114.3017227441"><ele>102.000</ele></trkpt>
      <trkpt lat="22.2908448063" lon="114.3017689469"><ele>100.000</ele></trkpt>
      <trkpt lat="22.2908419086" lon="114.3018084842"><ele>99.000</ele></trkpt>
      <trkpt lat="22.2908337669" lon="114.3018315841"><ele>99.000</ele></trkpt>
      <trkpt lat="22.2908160744" lon="114.3018464601"><ele>99.000</ele></trkpt>
      <trkpt lat="22.2907792692" lon="114.3018582380"><ele>94.000</ele></trkpt>
      <trkpt lat="22.2907630249" lon="114.3018536025"><ele>96.000</ele></trkpt>
      <trkpt lat="22.2907377115" lon="114.3018356073"><ele>94.000</ele></trkpt>
      <trkpt lat="22.2907181230" lon="114.3018299412"><ele>94.000</ele></trkpt>
      <trkpt lat="22.2906908840" lon="114.3018299170"><ele>91.000</ele></trkpt>
      <trkpt lat="22.2906426294" lon="114.3018175500"><ele>91.000</ele></trkpt>
      <trkpt lat="22.2905910187" lon="114.3018185308"><ele>90.000</ele></trkpt>
      <trkpt lat="22.2905594741" lon="114.3018241514"><ele>90.000</ele></trkpt>
      <trkpt lat="22.2905346147" lon="114.3018369667"><ele>90.000</ele></trkpt>
      <trkpt lat="22.2905111843" lon="114.3018574862"><ele>88.000</ele></trkpt>
      <trkpt lat="22.2904906304" lon="114.3018636300"><ele>88.000</ele></trkpt>
      <trkpt lat="22.2904715170" lon="114.3018625863"><ele>85.000</ele></trkpt>
      <trkpt lat="22.2904562242" lon="114.3018630860"><ele>85.000</ele></trkpt>
      <trkpt lat="22.2904414053" lon="114.3018697482"><ele>85.000</ele></trkpt>
      <trkpt lat="22.2904275283" lon="114.3018938705"><ele>82.000</ele></trkpt>
      <trkpt lat="22.2904088764" lon="114.3019138810"><ele>82.000</ele></trkpt>
      <trkpt lat="22.2903495918" lon="114.3019508002"><ele>80.000</ele></trkpt>
      <trkpt lat="22.2903280749" lon="114.3019666994"><ele>80.000</ele></trkpt>
      <trkpt lat="22.2902960238" lon="114.3020108316"><ele>78.000</ele></trkpt>
      <trkpt lat="22.2902606407" lon="114.3020380158"><ele>78.000</ele></trkpt>
      <trkpt lat="22.2902396016" lon="114.3020539154"><ele>78.000</ele></trkpt>
      <trkpt lat="22.2901941618" lon="114.3021083062"><ele>76.000</ele></trkpt>
      <trkpt lat="22.2901530412" lon="114.3021395929"><ele>74.000</ele></trkpt>
      <trkpt lat="22.2900975966" lon="114.3021539217"><ele>72.000</ele></trkpt>
      <trkpt lat="22.2900459649" lon="114.3021821180"><ele>70.000</ele></trkpt>
      <trkpt lat="22.2899938630" lon="114.3022005575"><ele>68.000</ele></trkpt>
      <trkpt lat="22.2899713966" lon="114.3022087538"><ele>68.000</ele></trkpt>
      <trkpt lat="22.2899226349" lon="114.3022333582"><ele>70.000</ele></trkpt>
      <trkpt lat="22.2898905983" lon="114.3022584909"><ele>70.000</ele></trkpt>
      <trkpt lat="22.2898360798" lon="114.3023108191"><ele>67.000</ele></trkpt>
      <trkpt lat="22.2898006999" lon="114.3023338955"><ele>66.000</ele></trkpt>
      <trkpt lat="22.2897563500" lon="114.3023439314"><ele>66.000</ele></trkpt>
      <trkpt lat="22.2896946029" lon="114.3023466380"><ele>66.000</ele></trkpt>
      <trkpt lat="22.2896563840" lon="114.3023332533"><ele>66.000</ele></trkpt>
      <trkpt lat="22.2896200652" lon="114.3023337342"><ele>63.000</ele></trkpt>
      <trkpt lat="22.2895932987" lon="114.3023403856"><ele>63.000</ele></trkpt>
      <trkpt lat="22.2895488367" lon="114.3023670481"><ele>62.000</ele></trkpt>
      <trkpt lat="22.2895201601" lon="114.3023726711"><ele>62.000</ele></trkpt>
      <trkpt lat="22.2894914883" lon="114.3023721322"><ele>62.000</ele></trkpt>
      <trkpt lat="22.2894351248" lon="114.3023392177"><ele>62.000</ele></trkpt>
      <trkpt lat="22.2893959674" lon="114.3023027243"><ele>62.000</ele></trkpt>
      <trkpt lat="22.2893630318" lon="114.3022549392"><ele>62.000</ele></trkpt>
      <trkpt lat="22.2893267455" lon="114.3022133141"><ele>64.000</ele></trkpt>
      <trkpt lat="22.2892885376" lon="114.3021845236"><ele>72.000</ele></trkpt>
      <trkpt lat="22.2892589203" lon="114.3021711466"><ele>70.000</ele></trkpt>
      <trkpt lat="22.2891920311" lon="114.3021551687"><ele>64.000</ele></trkpt>
      <trkpt lat="22.2891495188" lon="114.3021315097"><ele>64.000</ele></trkpt>
      <trkpt lat="22.2891079651" lon="114.3021037438"><ele>64.000</ele></trkpt>
      <trkpt lat="22.2890774025" lon="114.3020759878"><ele>64.000</ele></trkpt>
      <trkpt lat="22.2890616650" lon="114.3020348945"><ele>67.000</ele></trkpt>
      <trkpt lat="22.2890526169" lon="114.3019943194"><ele>70.000</ele></trkpt>
      <trkpt lat="22.2890477916" lon="114.3019700361"><ele>70.000</ele></trkpt>
      <trkpt lat="22.2890392659" lon="114.3019557959"><ele>66.000</ele></trkpt>
      <trkpt lat="22.2890230288" lon="114.3019419165"><ele>69.000</ele></trkpt>
      <trkpt lat="22.2889624381" lon="114.3019053315"><ele>65.000</ele></trkpt>
      <trkpt lat="22.2888678012" lon="114.3018380521"><ele>66.000</ele></trkpt>
      <trkpt lat="22.2888391413" lon="114.3018221084"><ele>64.000</ele></trkpt>
      <trkpt lat="22.2888095211" lon="114.3018112992"><ele>63.000</ele></trkpt>
      <trkpt lat="22.2887428388" lon="114.3017822332"><ele>65.000</ele></trkpt>
      <trkpt lat="22.2887135053" lon="114.3017649983"><ele>64.000</ele></trkpt>
      <trkpt lat="22.2886762519" lon="114.3017372365"><ele>64.000</ele></trkpt>
      <trkpt lat="22.2886509469" lon="114.3017094853"><ele>64.000</ele></trkpt>
      <trkpt lat="22.2886208604" lon="114.3016837842"><ele>64.000</ele></trkpt>
      <trkpt lat="22.2886031932" lon="114.3016657961"><ele>64.000</ele></trkpt>
      <trkpt lat="22.2885803017" lon="114.3016056965"><ele>67.000</ele></trkpt>
      <trkpt lat="22.2885421019" lon="114.3015661243"><ele>64.000</ele></trkpt>
      <trkpt lat="22.2885110548" lon="114.3015470967"><ele>67.000</ele></trkpt>
      <trkpt lat="22.2884597928" lon="114.3015303160"><ele>63.000</ele></trkpt>
      <trkpt lat="22.2884322617" lon="114.3015190090"><ele>60.000</ele></trkpt>
      <trkpt lat="22.2883436320" lon="114.3014761521"><ele>60.000</ele></trkpt>
      <trkpt lat="22.2883077360" lon="114.3014600062"><ele>62.000</ele></trkpt>
      <trkpt lat="22.2882661768" lon="114.3014522072"><ele>60.000</ele></trkpt>
      <trkpt lat="22.2882227431" lon="114.3014440573"><ele>58.000</ele></trkpt>
      <trkpt lat="22.2881962332" lon="114.3014235792"><ele>58.000</ele></trkpt>
      <trkpt lat="22.2881799916" lon="114.3014153486"><ele>58.000</ele></trkpt>
      <trkpt lat="22.2881354867" lon="114.3014085912"><ele>56.000</ele></trkpt>
      <trkpt lat="22.2881102196" lon="114.3013948875"><ele>56.000</ele></trkpt>
      <trkpt lat="22.2880845086" lon="114.3013583522"><ele>60.000</ele></trkpt>
      <trkpt lat="22.2880615618" lon="114.3013089503"><ele>60.000</ele></trkpt>
      <trkpt lat="22.2880577571" lon="114.3012843003"><ele>60.000</ele></trkpt>
      <trkpt lat="22.2880496493" lon="114.3012632398"><ele>65.000</ele></trkpt>
      <trkpt lat="22.2880195889" lon="114.3012046751"><ele>63.000</ele></trkpt>
      <trkpt lat="22.2879935995" lon="114.3011271072"><ele>70.000</ele></trkpt>
      <trkpt lat="22.2879881438" lon="114.3010814082"><ele>70.000</ele></trkpt>
      <trkpt lat="22.2879972617" lon="114.3010310944"><ele>70.000</ele></trkpt>
      <trkpt lat="22.2879944149" lon="114.3010043900"><ele>70.000</ele></trkpt>
      <trkpt lat="22.2879867919" lon="114.3009740871"><ele>67.000</ele></trkpt>
      <trkpt lat="22.2879710540" lon="114.3009329942"><ele>67.000</ele></trkpt>
      <trkpt lat="22.2879259895" lon="114.3007934558"><ele>62.000</ele></trkpt>
      <trkpt lat="22.2879144126" lon="114.3007363233"><ele>60.000</ele></trkpt>
      <trkpt lat="22.2879091945" lon="114.3007105746"><ele>60.000</ele></trkpt>
      <trkpt lat="22.2879057795" lon="114.3006792711"><ele>61.000</ele></trkpt>
      <trkpt lat="22.2879067514" lon="114.3006577053"><ele>61.000</ele></trkpt>
      <trkpt lat="22.2879312015" lon="114.3004654163"><ele>64.000</ele></trkpt>
      <trkpt lat="22.2879320888" lon="114.3004584382"><ele>64.000</ele></trkpt>
      <trkpt lat="22.2879312876" lon="114.3004420594"><ele>64.000</ele></trkpt>
      <trkpt lat="22.2879327325" lon="114.3004266569"><ele>64.000</ele></trkpt>
      <trkpt lat="22.2879370451" lon="114.3004117693"><ele>64.000</ele></trkpt>
      <trkpt lat="22.2879640048" lon="114.3003563922"><ele>64.000</ele></trkpt>
      <trkpt lat="22.2879982934" lon="114.3003050165"><ele>62.000</ele></trkpt>
      <trkpt lat="22.2880136095" lon="114.3002726795"><ele>63.000</ele></trkpt>
      <trkpt lat="22.2880217561" lon="114.3002429047"><ele>63.000</ele></trkpt>
      <trkpt lat="22.2880323253" lon="114.3001694845"><ele>63.000</ele></trkpt>
      <trkpt lat="22.2880409559" lon="114.3001314930"><ele>63.000</ele></trkpt>
      <trkpt lat="22.2880529274" lon="114.3000986397"><ele>66.000</ele></trkpt>
      <trkpt lat="22.2880610619" lon="114.3000847830"><ele>66.000</ele></trkpt>
      <trkpt lat="22.2880658553" lon="114.3000657882"><ele>66.000</ele></trkpt>
      <trkpt lat="22.2880831042" lon="114.3000057242"><ele>66.000</ele></trkpt>
      <trkpt lat="22.2880845565" lon="114.2999805645"><ele>66.000</ele></trkpt>
      <trkpt lat="22.2880965604" lon="114.2999061179"><ele>68.000</ele></trkpt>
      <trkpt lat="22.2881152529" lon="114.2998321913"><ele>68.000</ele></trkpt>
      <trkpt lat="22.2881387135" lon="114.2997726471"><ele>68.000</ele></trkpt>
      <trkpt lat="22.2881741142" lon="114.2997228694"><ele>70.000</ele></trkpt>
      <trkpt lat="22.2882262446" lon="114.2996664301"><ele>69.000</ele></trkpt>
      <trkpt lat="22.2882606928" lon="114.2996115163"><ele>69.000</ele></trkpt>
      <trkpt lat="22.2882884488" lon="114.2995596776"><ele>70.000</ele></trkpt>
      <trkpt lat="22.2883075991" lon="114.2995119400"><ele>70.000</ele></trkpt>
      <trkpt lat="22.2883645390" lon="114.2994149390"><ele>68.000</ele></trkpt>
      <trkpt lat="22.2883894830" lon="114.2993879773"><ele>70.000</ele></trkpt>
      <trkpt lat="22.2884228816" lon="114.2993595325"><ele>68.000</ele></trkpt>
      <trkpt lat="22.2884396246" lon="114.2993364394"><ele>68.000</ele></trkpt>
      <trkpt lat="22.2884592527" lon="114.2992897288"><ele>68.000</ele></trkpt>
      <trkpt lat="22.2884788679" lon="114.2992589363"><ele>68.000</ele></trkpt>
      <trkpt lat="22.2885051708" lon="114.2992332848"><ele>67.000</ele></trkpt>
      <trkpt lat="22.2885467605" lon="114.2992127809"><ele>68.000</ele></trkpt>
      <trkpt lat="22.2886241964" lon="114.2991861463"><ele>68.000</ele></trkpt>
      <trkpt lat="22.2887197863" lon="114.2991646628"><ele>70.000</ele></trkpt>
      <trkpt lat="22.2887374720" lon="114.2991585162"><ele>70.000</ele></trkpt>
      <trkpt lat="22.2887618608" lon="114.2991359440"><ele>68.000</ele></trkpt>
      <trkpt lat="22.2887852821" lon="114.2991282615"><ele>68.000</ele></trkpt>
      <trkpt lat="22.2888335521" lon="114.2991216282"><ele>70.000</ele></trkpt>
      <trkpt lat="22.2889081172" lon="114.2990985853"><ele>77.000</ele></trkpt>
      <trkpt lat="22.2890171156" lon="114.2990401416"><ele>78.000</ele></trkpt>
      <trkpt lat="22.2891500088" lon="114.2989806919"><ele>76.000</ele></trkpt>
      <trkpt lat="22.2891911072" lon="114.2989781600"><ele>76.000</ele></trkpt>
      <trkpt lat="22.2892336466" lon="114.2989663863"><ele>78.000</ele></trkpt>
      <trkpt lat="22.2892771501" lon="114.2989443440"><ele>81.000</ele></trkpt>
      <trkpt lat="22.2893139663" lon="114.2989176738"><ele>82.000</ele></trkpt>
      <trkpt lat="22.2893574697" lon="114.2988946037"><ele>82.000</ele></trkpt>
      <trkpt lat="22.2893895108" lon="114.2988627951"><ele>85.000</ele></trkpt>
      <trkpt lat="22.2894053031" lon="114.2988488818"><ele>86.000</ele></trkpt>
      <trkpt lat="22.2894736488" lon="114.2988197343"><ele>87.000</ele></trkpt>
      <trkpt lat="22.2894899051" lon="114.2988074245"><ele>87.000</ele></trkpt>
      <trkpt lat="22.2895071288" lon="114.2987802239"><ele>86.000</ele></trkpt>
      <trkpt lat="22.2896113424" lon="114.2987305052"><ele>87.000</ele></trkpt>
      <trkpt lat="22.2896431595" lon="114.2987322892"><ele>89.000</ele></trkpt>
      <trkpt lat="22.2896591848" lon="114.2987281459"><ele>89.000</ele></trkpt>
      <trkpt lat="22.2896881371" lon="114.2987206612"><ele>91.000</ele></trkpt>
      <trkpt lat="22.2897117124" lon="114.2987074853"><ele>91.000</ele></trkpt>
      <trkpt lat="22.2897580718" lon="114.2986993092"><ele>90.000</ele></trkpt>
      <trkpt lat="22.2898044282" lon="114.2986962684"><ele>92.000</ele></trkpt>
      <trkpt lat="22.2898502998" lon="114.2987014425"><ele>92.000</ele></trkpt>
      <trkpt lat="22.2898990321" lon="114.2987153497"><ele>92.000</ele></trkpt>
      <trkpt lat="22.2899673418" lon="114.2987498132"><ele>90.000</ele></trkpt>
      <trkpt lat="22.2900576226" lon="114.2987991875"><ele>92.000</ele></trkpt>
      <trkpt lat="22.2900968154" lon="114.2988352823"><ele>95.000</ele></trkpt>
      <trkpt lat="22.2901365507" lon="114.2988764401"><ele>98.000</ele></trkpt>
      <trkpt lat="22.2901722225" lon="114.2989173925"><ele>98.000</ele></trkpt>
      <trkpt lat="22.2901879643" lon="114.2989538649"><ele>98.000</ele></trkpt>
      <trkpt lat="22.2901962279" lon="114.2989891128"><ele>98.000</ele></trkpt>
      <trkpt lat="22.2902084187" lon="114.2990796903"><ele>106.000</ele></trkpt>
      <trkpt lat="22.2902055271" lon="114.2991120388"><ele>106.000</ele></trkpt>
      <trkpt lat="22.2901897322" lon="114.2991448884"><ele>107.000</ele></trkpt>
      <trkpt lat="22.2901744039" lon="114.2991936577"><ele>108.000</ele></trkpt>
      <trkpt lat="22.2901691089" lon="114.2992444900"><ele>110.000</ele></trkpt>
      <trkpt lat="22.2901805537" lon="114.2992763367"><ele>108.000</ele></trkpt>
      <trkpt lat="22.2902096827" lon="114.2993040910"><ele>108.000</ele></trkpt>
      <trkpt lat="22.2902238957" lon="114.2993200625"><ele>104.000</ele></trkpt>
      <trkpt lat="22.2902297257" lon="114.2993405672"><ele>98.000</ele></trkpt>
      <trkpt lat="22.2902282716" lon="114.2993682949"><ele>98.000</ele></trkpt>
      <trkpt lat="22.2902206002" lon="114.2994016659"><ele>99.000</ele></trkpt>
    </trkseg>
  </trk>
</gpx>
